{
 "type": "FeatureCollection",
 "name": "AREA – 9",
 "features": [
  {
   "type": "Feature",
   "properties": {
    "name": "Route1",
    "kml_order": 0
   },
   "geometry": {
    "type": "LineString",
    "coordinates": [
     [
      123.1968457021384,
      13.63146028574871
     ],
     [
      123.197655024338,
      13.63214076874095
     ],
     [
      123.1982745739072,
      13.63268642828779
     ],
     [
      123.1983774499344,
      13.63276432837201
     ],
     [
      123.1985821234748,
      13.63289216517564
     ],
     [
      123.1987817870877,
      13.63300037512309
     ],
     [
      123.1989531893505,
      13.63307922334551
     ],
     [
      123.1991138206657,
      13.63314554099288
     ],
     [
      123.1994477023049,
      13.63328021416674
     ],
     [
      123.1997581403741,
      13.63339480593678
     ],
     [
      123.2001337306708,
      13.63350455898002
     ],
     [
      123.2004780545191,
      13.63359637614835
     ],
     [
      123.2014999744804,
      13.63382431873976
     ],
     [
      123.2023789091388,
      13.6340121807284
     ],
     [
      123.2027864161786,
      13.63409184228845
     ],
     [
      123.2032864456251,
      13.63414208800715
     ],
     [
      123.2046432473512,
      13.63427873759736
     ],
     [
      123.2047770235213,
      13.63428454736498
     ],
     [
      123.2048733906393,
      13.63427594987981
     ],
     [
      123.2050341348487,
      13.63423332409596
     ],
     [
      123.2051748245748,
      13.63416012014436
     ],
     [
      123.2064078933784,
      13.63343850292442
     ],
     [
      123.2071173917799,
      13.63297976184737
     ],
     [
      123.2083199668582,
      13.63220705641323
     ],
     [
      123.2084728400669,
      13.63203264787948
     ],
     [
      123.2085244421864,
      13.63192546476026
     ],
     [
      123.2085412777632,
      13.63109921158893
     ],
     [
      123.208520558296,
      13.63078833720514
     ],
     [
      123.2085404446656,
      13.63064246243253
     ],
     [
      123.2085670642027,
      13.63051948232209
     ],
     [
      123.2085677954433,
      13.63051808172533
     ],
     [
      123.2086239994128,
      13.63041339303396
     ],
     [
      123.208626097105,
      13.63040939378075
     ],
     [
      123.2086905052402,
      13.63033311734963
     ],
     [
      123.2086930092846,
      13.63033123809968
     ],
     [
      123.2087795173791,
      13.63027375364721
     ],
     [
      123.2078436931918,
      13.62793075946628
     ],
     [
      123.2073448078927,
      13.62765433490263
     ],
     [
      123.2066723736569,
      13.6273724336797
     ],
     [
      123.2062627819204,
      13.62718614527879
     ],
     [
      123.2061735479552,
      13.62716899548101
     ],
     [
      123.2057423676605,
      13.62725805140567
     ],
     [
      123.2054366275569,
      13.62732107764832
     ],
     [
      123.2053068772404,
      13.6273271144067
     ],
     [
      123.2036946866493,
      13.62721694017398
     ],
     [
      123.2030012858662,
      13.62717015984995
     ],
     [
      123.2028899266906,
      13.6271498611871
     ],
     [
      123.2009547112809,
      13.62640336226988
     ],
     [
      123.2009680498125,
      13.6263686622224
     ],
     [
      123.2029807211195,
      13.62716015056895
     ],
     [
      123.2031891542069,
      13.62716690343956
     ],
     [
      123.2053021311548,
      13.62730056031282
     ],
     [
      123.205433934719,
      13.6273001450669
     ],
     [
      123.2056280635387,
      13.62726695126161
     ],
     [
      123.2061982159652,
      13.62714647494287
     ],
     [
      123.2062762979209,
      13.62717254404903
     ],
     [
      123.2064376099819,
      13.62724111220018
     ],
     [
      123.2078139621973,
      13.62782232528991
     ],
     [
      123.2084779095375,
      13.62791745173576
     ],
     [
      123.2096292447145,
      13.62804145247413
     ],
     [
      123.2098331871712,
      13.62803426922974
     ],
     [
      123.2100329298376,
      13.6280311614644
     ],
     [
      123.2102327943572,
      13.62808749903857
     ],
     [
      123.2104058280477,
      13.62818220735005
     ],
     [
      123.2104778963284,
      13.62825506326406
     ],
     [
      123.2104094798298,
      13.62835808928763
     ],
     [
      123.2102883267891,
      13.6287821150585
     ],
     [
      123.2109134664224,
      13.62988098815543
     ],
     [
      123.2119584234885,
      13.62961968153716
     ],
     [
      123.2130914431489,
      13.62937539670993
     ],
     [
      123.2137941353723,
      13.62940571919705
     ],
     [
      123.2154638297758,
      13.62950417034712
     ],
     [
      123.2164775455878,
      13.62988373285439
     ],
     [
      123.2166585636952,
      13.6299462423529
     ],
     [
      123.2177721213697,
      13.63045314006442
     ],
     [
      123.21808555547,
      13.63064567987432
     ],
     [
      123.2190543033164,
      13.6313950183944
     ],
     [
      123.2200930035291,
      13.63215780190597
     ],
     [
      123.2201833169055,
      13.6322079578559
     ],
     [
      123.2203327672642,
      13.63229419772686
     ],
     [
      123.2205885985128,
      13.63242941546239
     ],
     [
      123.2209127988297,
      13.63251837429238
     ],
     [
      123.2211791944982,
      13.63258209293672
     ]
    ]
   }
  },
  {
   "type": "Feature",
   "properties": {
    "name": "Starting point",
    "kml_order": 1
   },
   "geometry": {
    "type": "Point",
    "coordinates": [
     123.1967732047207,
     13.63149211259472
    ]
   }
  },
  {
   "type": "Feature",
   "properties": {
    "name": "Pick up Avenue Plaza",
    "kml_order": 2
   },
   "geometry": {
    "type": "Point",
    "coordinates": [
     123.1971957507046,
     13.63233892130843
    ]
   }
  },
  {
   "type": "Feature",
   "properties": {
    "name": "Pick up Red Doorz",
    "kml_order": 3
   },
   "geometry": {
    "type": "Point",
    "coordinates": [
     123.1976503352476,
     13.63213447183324
    ]
   }
  },
  {
   "type": "Feature",
   "properties": {
    "name": "Muslim side",
    "kml_order": 4
   },
   "geometry": {
    "type": "Point",
    "coordinates": [
     123.1979054863051,
     13.63250260097071
    ]
   }
  },
  {
   "type": "Feature",
   "properties": {
    "name": "Pick up Basilica compound",
    "kml_order": 5
   },
   "geometry": {
    "type": "Point",
    "coordinates": [
     123.1994821811862,
     13.63318861826023
    ]
   }
  },
  {
   "type": "Feature",
   "properties": {
    "name": "Pick up M.O.P. / MRF",
    "kml_order": 6
   },
   "geometry": {
    "type": "Point",
    "coordinates": [
     123.2207559511029,
     13.63276780033947
    ]
   }
  },
  {
   "type": "Feature",
   "properties": {
    "name": "End of Route - Heads to San Isidro Dumpsite",
    "kml_order": 7
   },
   "geometry": {
    "type": "Point",
    "coordinates": [
     123.2212013898983,
     13.63259715611009
    ]
   }
  },
  {
   "type": "Feature",
   "properties": {
    "name": "Route2",
    "kml_order": 8
   },
   "geometry": {
    "type": "LineString",
    "coordinates": [
     [
      123.2292799702222,
      13.63154745722612
     ],
     [
      123.2326384748415,
      13.63107236532269
     ],
     [
      123.2328216658425,
      13.63106116751717
     ],
     [
      123.2331885737546,
      13.63108500951504
     ],
     [
      123.2336608873196,
      13.63114050883578
     ],
     [
      123.2339803219649,
      13.63115133397706
     ],
     [
      123.2355502634018,
      13.63013668865219
     ],
     [
      123.2362449296371,
      13.62962992522872
     ],
     [
      123.2365313212171,
      13.62948353378296
     ],
     [
      123.2371832263793,
      13.62929289799162
     ],
     [
      123.2378841253012,
      13.62921068828261
     ],
     [
      123.2384658230155,
      13.62914315177047
     ],
     [
      123.2406563830116,
      13.62885269054168
     ],
     [
      123.2410330175476,
      13.63052314165703
     ],
     [
      123.241119094218,
      13.63099491694862
     ],
     [
      123.2411231608764,
      13.63113657179491
     ],
     [
      123.2411416746995,
      13.6313973282613
     ],
     [
      123.2411989955114,
      13.63176588168769
     ],
     [
      123.24385582242,
      13.63214326377893
     ],
     [
      123.2442670237157,
      13.63214661550752
     ],
     [
      123.2445713049928,
      13.63212010931615
     ],
     [
      123.2451024435381,
      13.63199445844985
     ],
     [
      123.2454529476229,
      13.63187191368902
     ]
    ]
   }
  },
  {
   "type": "Feature",
   "properties": {
    "name": "Palmera Homes/Salunguigui",
    "kml_order": 9
   },
   "geometry": {
    "type": "Point",
    "coordinates": [
     123.2162472135921,
     13.63359411244256
    ]
   }
  },
  {
   "type": "Feature",
   "properties": {
    "name": "Cararayan Interiors",
    "kml_order": 10
   },
   "geometry": {
    "type": "Point",
    "coordinates": [
     123.2395966967317,
     13.6299681875858
    ]
   }
  },
  {
   "type": "Feature",
   "properties": {
    "name": "End of Route - Heads to San Isidro Dumpsite",
    "kml_order": 11
   },
   "geometry": {
    "type": "Point",
    "coordinates": [
     123.2452847072069,
     13.63202001277793
    ]
   }
  },
  {
   "type": "Feature",
   "properties": {
    "name": "Route3",
    "kml_order": 12
   },
   "geometry": {
    "type": "LineString",
    "coordinates": [
     [
      123.1902188350027,
      13.63413507605691
     ],
     [
      123.1906363461724,
      13.63545500751345
     ],
     [
      123.1912063520654,
      13.63540997991829
     ],
     [
      123.1918869023566,
      13.63549800172577
     ],
     [
      123.1927553007571,
      13.63555291129634
     ],
     [
      123.1931658690111,
      13.6356182477744
     ],
     [
      123.1936330498206,
      13.63563299290944
     ],
     [
      123.1937871563099,
      13.63562118586784
     ],
     [
      123.1936976868447,
      13.63486483992871
     ],
     [
      123.1935754042841,
      13.63409149623053
     ],
     [
      123.19353906907,
      13.63354899078994
     ],
     [
      123.1945791803464,
      13.63339447967252
     ],
     [
      123.1947508603102,
      13.63325494644224
     ],
     [
      123.1971112117355,
      13.63101210954093
     ],
     [
      123.19865516684,
      13.62914136130085
     ],
     [
      123.1991113514955,
      13.62911828422345
     ],
     [
      123.1992753066751,
      13.62917640750868
     ],
     [
      123.1994869096016,
      13.62929627643702
     ],
     [
      123.1998989722198,
      13.62959684286406
     ],
     [
      123.2003105474828,
      13.62997240573362
     ],
     [
      123.2007082362477,
      13.63028421538733
     ],
     [
      123.2009763160663,
      13.63043173453216
     ],
     [
      123.2012430283953,
      13.63052911661305
     ],
     [
      123.2017229250176,
      13.63069029650873
     ],
     [
      123.2022103927752,
      13.63084798940118
     ],
     [
      123.2024564577811,
      13.63091055051793
     ],
     [
      123.2028144463328,
      13.63057200972983
     ],
     [
      123.2031084603665,
      13.6295946479578
     ],
     [
      123.2031337082694,
      13.62950019966726
     ],
     [
      123.200919386832,
      13.62864592058745
     ],
     [
      123.2006730738522,
      13.62856456216793
     ],
     [
      123.200532252478,
      13.62855231015069
     ],
     [
      123.1992792929569,
      13.62856239022282
     ],
     [
      123.2006656530926,
      13.62681424531401
     ],
     [
      123.2008113731049,
      13.6265392694069
     ],
     [
      123.2008650779158,
      13.62634047267269
     ],
     [
      123.2015468175655,
      13.62657214265758
     ],
     [
      123.2015541163911,
      13.6218765678883
     ],
     [
      123.2017117740255,
      13.62171562774031
     ],
     [
      123.2018968287625,
      13.6216552932454
     ],
     [
      123.2020021213814,
      13.62168827543166
     ],
     [
      123.2020332016222,
      13.62184329177996
     ],
     [
      123.2020193221875,
      13.62683105504277
     ],
     [
      123.2024929498971,
      13.62697630905359
     ],
     [
      123.2024919277036,
      13.62473024021006
     ],
     [
      123.2029713950284,
      13.62473591997869
     ],
     [
      123.2029606984716,
      13.62713207688343
     ],
     [
      123.2034818770833,
      13.62719438462775
     ],
     [
      123.2034229276139,
      13.62471721787887
     ],
     [
      123.2039330415181,
      13.62473362684085
     ],
     [
      123.2039073406664,
      13.62718587385405
     ],
     [
      123.2043860728326,
      13.62724155041241
     ]
    ]
   }
  },
  {
   "type": "Feature",
   "properties": {
    "name": "Mac Mariano",
    "kml_order": 13
   },
   "geometry": {
    "type": "Point",
    "coordinates": [
     123.2016710708049,
     13.63085226872126
    ]
   }
  },
  {
   "type": "Feature",
   "properties": {
    "name": "Jimenez Subdivision",
    "kml_order": 14
   },
   "geometry": {
    "type": "Point",
    "coordinates": [
     123.2032765891586,
     13.62674589381387
    ]
   }
  },
  {
   "type": "Feature",
   "properties": {
    "name": "End of Route - Heads to San Isidro Dumpsite",
    "kml_order": 15
   },
   "geometry": {
    "type": "Point",
    "coordinates": [
     123.2043385114825,
     13.62728463193518
    ]
   }
  },
  {
   "type": "Feature",
   "properties": {
    "name": "Route4",
    "kml_order": 16
   },
   "geometry": {
    "type": "LineString",
    "coordinates": [
     [
      123.2059206730883,
      13.63371814727796
     ],
     [
      123.2050634450457,
      13.63219712593501
     ],
     [
      123.2043895687176,
      13.63098423595662
     ],
     [
      123.2044225873811,
      13.63092620735387
     ],
     [
      123.2045177655443,
      13.63086854717734
     ],
     [
      123.2044651082952,
      13.63066374453544
     ],
     [
      123.2045400564274,
      13.63074370591434
     ],
     [
      123.204798234553,
      13.63124600835537
     ],
     [
      123.2061161649024,
      13.63363875245174
     ],
     [
      123.2063538003244,
      13.63349470297862
     ],
     [
      123.2083300423802,
      13.63221450885878
     ],
     [
      123.2084509766797,
      13.63206514179622
     ],
     [
      123.2084873779985,
      13.63190748763681
     ],
     [
      123.2085099076868,
      13.63161919393984
     ],
     [
      123.2085293201986,
      13.63126926479007
     ],
     [
      123.2085161464441,
      13.63084055157318
     ],
     [
      123.2085885317642,
      13.63048191370074
     ],
     [
      123.2087569999182,
      13.6302911208909
     ],
     [
      123.2088607685219,
      13.63024311598717
     ],
     [
      123.2091196087692,
      13.63018666916761
     ],
     [
      123.2093782526136,
      13.63018439210199
     ],
     [
      123.2108614231757,
      13.62989903766539
     ],
     [
      123.2108939550126,
      13.62989501212763
     ],
     [
      123.2102761774176,
      13.62878945455787
     ],
     [
      123.2103408596051,
      13.62859094212214
     ],
     [
      123.2104079829433,
      13.62835241943291
     ],
     [
      123.2104766490218,
      13.62827100079273
     ],
     [
      123.210710053841,
      13.62800770945524
     ],
     [
      123.2109424015975,
      13.62776023051288
     ],
     [
      123.2109381408116,
      13.6276066222528
     ],
     [
      123.2110625319712,
      13.62749077783362
     ],
     [
      123.2111090323997,
      13.62744188624742
     ],
     [
      123.2111590801359,
      13.62670645981529
     ],
     [
      123.2112870756928,
      13.62671600194789
     ],
     [
      123.2114648595111,
      13.62678354995308
     ],
     [
      123.2114763103663,
      13.62679516434007
     ],
     [
      123.2117147664854,
      13.62693378231896
     ],
     [
      123.2118549622284,
      13.62702550201341
     ],
     [
      123.2121344374083,
      13.62708529541498
     ],
     [
      123.2124133502154,
      13.62715477051955
     ],
     [
      123.2126178640557,
      13.62719288744311
     ],
     [
      123.2127252360517,
      13.62717310832836
     ],
     [
      123.2127668546547,
      13.6274878218748
     ],
     [
      123.2127311086053,
      13.62753340690269
     ],
     [
      123.2125308357279,
      13.62756890670823
     ],
     [
      123.2119601631081,
      13.62747636808744
     ],
     [
      123.2116048761247,
      13.62741211222469
     ],
     [
      123.2112883495008,
      13.62743922507293
     ],
     [
      123.2111631164495,
      13.62744522738451
     ],
     [
      123.2110951027465,
      13.62748001882215
     ],
     [
      123.2109947730224,
      13.62756658103217
     ],
     [
      123.2109478892418,
      13.62762894276347
     ],
     [
      123.2109479308281,
      13.62763795094302
     ],
     [
      123.2108780499703,
      13.62782251867798
     ],
     [
      123.2107512123553,
      13.62794750366317
     ],
     [
      123.2105602556658,
      13.62816070185525
     ],
     [
      123.2104324746456,
      13.62830705187159
     ],
     [
      123.2103606410621,
      13.62849577720298
     ],
     [
      123.2103087988703,
      13.62865417582028
     ],
     [
      123.2103025982776,
      13.62879043988877
     ],
     [
      123.210885118502,
      13.62984250953114
     ],
     [
      123.2109192445986,
      13.62986476230037
     ],
     [
      123.2111069282495,
      13.62984988283011
     ]
    ]
   }
  },
  {
   "type": "Feature",
   "properties": {
    "name": "Gawad Kalinga/Habitat",
    "kml_order": 17
   },
   "geometry": {
    "type": "Point",
    "coordinates": [
     123.2054213932044,
     13.63272815208433
    ]
   }
  },
  {
   "type": "Feature",
   "properties": {
    "name": "Urban Balatas",
    "kml_order": 18
   },
   "geometry": {
    "type": "Point",
    "coordinates": [
     123.2117109158003,
     13.62721152702509
    ]
   }
  },
  {
   "type": "Feature",
   "properties": {
    "name": "End of Route - Heads to San Isidro Dumpsite",
    "kml_order": 19
   },
   "geometry": {
    "type": "Point",
    "coordinates": [
     123.2111433894322,
     13.6297910340389
    ]
   }
  },
  {
   "type": "Feature",
   "properties": {
    "name": "Liberty Village (La Presa)",
    "kml_order": 21
   },
   "geometry": {
    "type": "Point",
    "coordinates": [
     123.2162519147997,
     13.63376572415127
    ]
   }
  },
  {
   "type": "Feature",
   "properties": {
    "name": "Route6",
    "kml_order": 22
   },
   "geometry": {
    "type": "LineString",
    "coordinates": [
     [
      123.2165421092887,
      13.629982163053
     ],
     [
      123.216184009713,
      13.6318598202332
     ],
     [
      123.2161212497475,
      13.63220774490358
     ],
     [
      123.2160535483655,
      13.63240415465195
     ],
     [
      123.2159680614107,
      13.63258799957319
     ],
     [
      123.2159359453879,
      13.63275850131823
     ],
     [
      123.2159504796778,
      13.6332312968432
     ],
     [
      123.2168594567871,
      13.63322495993111
     ],
     [
      123.2168737959342,
      13.63341784499868
     ],
     [
      123.2159519967421,
      13.63340919931167
     ],
     [
      123.2159628937382,
      13.63358200359576
     ],
     [
      123.216894872006,
      13.63360851516224
     ],
     [
      123.2169086678985,
      13.63377992577242
     ],
     [
      123.2160143691708,
      13.63405151503539
     ],
     [
      123.2160693460416,
      13.63442746554135
     ],
     [
      123.2178561937126,
      13.63392195005137
     ],
     [
      123.2182337616194,
      13.63380755249141
     ],
     [
      123.2189542176313,
      13.63357899505243
     ],
     [
      123.2193138307892,
      13.63343472302071
     ],
     [
      123.2198857511236,
      13.63323561679652
     ],
     [
      123.2200805626006,
      13.63316293945542
     ],
     [
      123.2202639942053,
      13.63314906611034
     ],
     [
      123.2212755323365,
      13.63320636434331
     ],
     [
      123.2212014906734,
      13.63261770374687
     ]
    ]
   }
  },
  {
   "type": "Feature",
   "properties": {
    "name": "End of Route - Heads to San Isidro Dumpsite",
    "kml_order": 23
   },
   "geometry": {
    "type": "Point",
    "coordinates": [
     123.2212540364567,
     13.63270411588979
    ]
   }
  }
 ]
}