{
"type": "FeatureCollection",
"name": "AREA - 1 NIGHTSHIFT",
"features": [
{ "type": "Feature", "properties": { "Name": "Route1" }, "geometry": { "type": "LineString", "coordinates": [ [ 123.1847932, 13.6239092, 0.0 ], [ 123.1848056, 13.6239401, 0.0 ], [ 123.1848207, 13.6239801, 0.0 ], [ 123.1848295, 13.6240056, 0.0 ], [ 123.1848376, 13.6240233, 0.0 ], [ 123.1848464, 13.6240443, 0.0 ], [ 123.1848575, 13.6240688, 0.0 ], [ 123.1848651, 13.624089, 0.0 ], [ 123.1848756, 13.6241166, 0.0 ], [ 123.1848869, 13.6241402, 0.0 ], [ 123.1849, 13.624168, 0.0 ], [ 123.1849194, 13.6241962, 0.0 ], [ 123.1849367, 13.624216, 0.0 ], [ 123.1849584, 13.6242269, 0.0 ], [ 123.1849835, 13.6242428, 0.0 ], [ 123.1850088, 13.6242526, 0.0 ], [ 123.1850332, 13.6242595, 0.0 ], [ 123.1850598, 13.6242651, 0.0 ], [ 123.1850946, 13.6242688, 0.0 ], [ 123.1851383, 13.6242647, 0.0 ], [ 123.1851689, 13.6242647, 0.0 ], [ 123.1852064, 13.6242538, 0.0 ], [ 123.1852652, 13.6242466, 0.0 ], [ 123.1853587, 13.6242358, 0.0 ], [ 123.1854151, 13.6242257, 0.0 ], [ 123.1855023, 13.6242085, 0.0 ], [ 123.1855289, 13.6241982, 0.0 ], [ 123.1855459, 13.624187, 0.0 ], [ 123.1855307, 13.6241529, 0.0 ], [ 123.1855022, 13.624096, 0.0 ], [ 123.1854691, 13.6240298, 0.0 ], [ 123.1854229, 13.6239387, 0.0 ], [ 123.1853468, 13.6237899, 0.0 ], [ 123.1852853, 13.6236671, 0.0 ], [ 123.1852321, 13.6235228, 0.0 ], [ 123.1852029, 13.6234372, 0.0 ], [ 123.1851304, 13.6232072, 0.0 ], [ 123.185099, 13.6231027, 0.0 ], [ 123.1850677, 13.6229892, 0.0 ], [ 123.1850254, 13.6228419, 0.0 ], [ 123.185017, 13.6227236, 0.0 ], [ 123.185019, 13.6226153, 0.0 ], [ 123.1850333, 13.6225287, 0.0 ], [ 123.1850653, 13.6224317, 0.0 ], [ 123.1851111, 13.6223132, 0.0 ], [ 123.1851347, 13.6222437, 0.0 ], [ 123.1851696, 13.6221257, 0.0 ], [ 123.1852047, 13.6220263, 0.0 ], [ 123.1853729, 13.6215863, 0.0 ], [ 123.1853242, 13.6215175, 0.0 ], [ 123.1849503, 13.6213588, 0.0 ], [ 123.1847466, 13.6213256, 0.0 ], [ 123.1845521, 13.6213034, 0.0 ], [ 123.1843095, 13.6212875, 0.0 ], [ 123.184233, 13.6212896, 0.0 ], [ 123.1842085, 13.6212883, 0.0 ], [ 123.1841837, 13.6212838, 0.0 ], [ 123.1841571, 13.6212855, 0.0 ], [ 123.1841432, 13.6212956, 0.0 ], [ 123.1841435, 13.62132, 0.0 ], [ 123.1842879, 13.6220906, 0.0 ], [ 123.1842936, 13.6221097, 0.0 ], [ 123.1843022, 13.6221334, 0.0 ], [ 123.1843111, 13.6221702, 0.0 ], [ 123.1843335, 13.6222678, 0.0 ], [ 123.1843501, 13.6223388, 0.0 ], [ 123.1843605, 13.6223958, 0.0 ], [ 123.1843773, 13.6224813, 0.0 ], [ 123.1843966, 13.6225736, 0.0 ], [ 123.1844162, 13.6226484, 0.0 ], [ 123.1844367, 13.6227403, 0.0 ], [ 123.1844597, 13.6228262, 0.0 ], [ 123.1844856, 13.6229272, 0.0 ], [ 123.1845234, 13.6230434, 0.0 ], [ 123.184551, 13.6231257, 0.0 ], [ 123.1845764, 13.623219, 0.0 ], [ 123.1846038, 13.6233043, 0.0 ], [ 123.1846214, 13.6233692, 0.0 ], [ 123.1846442, 13.6234478, 0.0 ], [ 123.1846555, 13.6234906, 0.0 ], [ 123.1846989, 13.6236352, 0.0 ], [ 123.1847188, 13.6237099, 0.0 ], [ 123.1847607, 13.6238301, 0.0 ], [ 123.1847695, 13.6238423, 0.0 ], [ 123.1847825, 13.6238526, 0.0 ], [ 123.184801, 13.6238519, 0.0 ], [ 123.1848581, 13.6238323, 0.0 ], [ 123.1849194, 13.6238137, 0.0 ], [ 123.1849858, 13.6237923, 0.0 ], [ 123.1850592, 13.6237751, 0.0 ], [ 123.185145, 13.6237533, 0.0 ], [ 123.1851816, 13.6237452, 0.0 ], [ 123.1852375, 13.623732, 0.0 ], [ 123.1852904, 13.6237137, 0.0 ], [ 123.1853156, 13.6237002, 0.0 ], [ 123.185292, 13.6236444, 0.0 ], [ 123.1852609, 13.6235483, 0.0 ], [ 123.1852324, 13.6234731, 0.0 ], [ 123.1852149, 13.6234214, 0.0 ], [ 123.185186, 13.6233345, 0.0 ], [ 123.1851738, 13.6232935, 0.0 ], [ 123.1851705, 13.6232665, 0.0 ], [ 123.1851936, 13.6232551, 0.0 ], [ 123.185226, 13.6232483, 0.0 ], [ 123.1852724, 13.6232407, 0.0 ], [ 123.1853342, 13.6232276, 0.0 ], [ 123.1853758, 13.6232202, 0.0 ], [ 123.1854365, 13.6232105, 0.0 ], [ 123.1855128, 13.6231972, 0.0 ], [ 123.1855794, 13.6231868, 0.0 ], [ 123.18566, 13.6231727, 0.0 ], [ 123.1857278, 13.6231591, 0.0 ], [ 123.185775, 13.6231544, 0.0 ], [ 123.1858131, 13.6231556, 0.0 ], [ 123.185846, 13.6231626, 0.0 ], [ 123.1858619, 13.6231728, 0.0 ], [ 123.1858776, 13.6231852, 0.0 ], [ 123.1858832, 13.6232026, 0.0 ], [ 123.1858805, 13.6232217, 0.0 ], [ 123.1858844, 13.6232499, 0.0 ], [ 123.1858853, 13.6232878, 0.0 ], [ 123.1858849, 13.6233257, 0.0 ], [ 123.1858895, 13.6233749, 0.0 ], [ 123.1858919, 13.623427, 0.0 ], [ 123.1858924, 13.6234664, 0.0 ], [ 123.185892, 13.6235169, 0.0 ], [ 123.1858901, 13.6235901, 0.0 ], [ 123.1858905, 13.62365, 0.0 ], [ 123.1858923, 13.6237035, 0.0 ], [ 123.1858962, 13.6237442, 0.0 ], [ 123.1858997, 13.6238135, 0.0 ], [ 123.185905, 13.6238676, 0.0 ], [ 123.1859123, 13.6239205, 0.0 ], [ 123.1859137, 13.6239725, 0.0 ], [ 123.1859199, 13.6240189, 0.0 ], [ 123.1859256, 13.6240579, 0.0 ], [ 123.1859361, 13.6241, 0.0 ], [ 123.1859508, 13.6241454, 0.0 ], [ 123.1859672, 13.6241855, 0.0 ], [ 123.1859847, 13.6242288, 0.0 ], [ 123.1860071, 13.6242725, 0.0 ], [ 123.1860324, 13.6243297, 0.0 ], [ 123.1860884, 13.6244452, 0.0 ], [ 123.1861275, 13.6245145, 0.0 ], [ 123.1861745, 13.6246013, 0.0 ], [ 123.1862004, 13.6246513, 0.0 ], [ 123.186209, 13.6246891, 0.0 ], [ 123.1862077, 13.6247109, 0.0 ], [ 123.1862034, 13.6247238, 0.0 ], [ 123.1861741, 13.6247519, 0.0 ], [ 123.186149, 13.6247723, 0.0 ], [ 123.1860898, 13.6248169, 0.0 ], [ 123.1860464, 13.6248374, 0.0 ], [ 123.1859978, 13.6248538, 0.0 ], [ 123.1859693, 13.6248595, 0.0 ], [ 123.1859429, 13.6248573, 0.0 ], [ 123.185922, 13.6248321, 0.0 ], [ 123.185898, 13.624787, 0.0 ], [ 123.1858792, 13.624755, 0.0 ], [ 123.1858564, 13.6247142, 0.0 ], [ 123.1858167, 13.6246329, 0.0 ], [ 123.1857758, 13.6245486, 0.0 ], [ 123.1857291, 13.6244535, 0.0 ], [ 123.1856921, 13.6243712, 0.0 ], [ 123.1856563, 13.624301, 0.0 ], [ 123.1856254, 13.6242516, 0.0 ], [ 123.1855645, 13.6241506, 0.0 ], [ 123.1855284, 13.6240923, 0.0 ], [ 123.1855047, 13.6240428, 0.0 ], [ 123.1854706, 13.6239761, 0.0 ], [ 123.1854434, 13.6239199, 0.0 ], [ 123.1854042, 13.6238451, 0.0 ], [ 123.1853709, 13.6237773, 0.0 ], [ 123.1853316, 13.623704, 0.0 ], [ 123.1853076, 13.6236441, 0.0 ], [ 123.185269, 13.623532, 0.0 ], [ 123.1852468, 13.6234664, 0.0 ], [ 123.1852201, 13.6233857, 0.0 ], [ 123.1851975, 13.6233178, 0.0 ], [ 123.185162, 13.623208, 0.0 ], [ 123.1851404, 13.6231335, 0.0 ], [ 123.1851218, 13.6230604, 0.0 ], [ 123.1851022, 13.622998, 0.0 ], [ 123.1850867, 13.6229445, 0.0 ], [ 123.185072, 13.622902, 0.0 ], [ 123.1850576, 13.6228745, 0.0 ], [ 123.1850368, 13.6228511, 0.0 ], [ 123.1849999, 13.6228543, 0.0 ], [ 123.1849494, 13.6228704, 0.0 ], [ 123.184904, 13.6228776, 0.0 ], [ 123.1848473, 13.6228901, 0.0 ], [ 123.1847757, 13.6229129, 0.0 ], [ 123.1847113, 13.6229281, 0.0 ], [ 123.1846545, 13.6229409, 0.0 ], [ 123.1846134, 13.6229505, 0.0 ], [ 123.1845792, 13.6229585, 0.0 ], [ 123.1845383, 13.6229679, 0.0 ], [ 123.1845088, 13.6229714, 0.0 ], [ 123.1844899, 13.6229865, 0.0 ], [ 123.1844867, 13.623, 0.0 ], [ 123.1844907, 13.6230192, 0.0 ], [ 123.1845009, 13.6230447, 0.0 ], [ 123.1845089, 13.6230725, 0.0 ], [ 123.1845212, 13.6231156, 0.0 ], [ 123.1845434, 13.6232009, 0.0 ], [ 123.1845678, 13.6233052, 0.0 ], [ 123.184594, 13.6234122, 0.0 ], [ 123.1846347, 13.6235721, 0.0 ], [ 123.1846952, 13.6237751, 0.0 ], [ 123.1847312, 13.6239188, 0.0 ], [ 123.1847561, 13.6240081, 0.0 ], [ 123.1847848, 13.6241218, 0.0 ], [ 123.1848121, 13.6242117, 0.0 ], [ 123.184845, 13.6243136, 0.0 ], [ 123.184863, 13.6243544, 0.0 ], [ 123.1848663, 13.6243746, 0.0 ], [ 123.1848384, 13.6243898, 0.0 ], [ 123.1848048, 13.6244073, 0.0 ], [ 123.1847596, 13.62443, 0.0 ], [ 123.1847113, 13.6244536, 0.0 ], [ 123.1846314, 13.6244862, 0.0 ], [ 123.1845368, 13.624532, 0.0 ], [ 123.1844391, 13.6245763, 0.0 ], [ 123.1843436, 13.6246233, 0.0 ], [ 123.1842713, 13.6246538, 0.0 ], [ 123.1842402, 13.6246715, 0.0 ], [ 123.1842232, 13.6246741, 0.0 ], [ 123.184209, 13.6246492, 0.0 ], [ 123.1842039, 13.6246102, 0.0 ], [ 123.1841895, 13.6245401, 0.0 ], [ 123.1841653, 13.6244415, 0.0 ], [ 123.1841108, 13.6242223, 0.0 ], [ 123.1840804, 13.6240743, 0.0 ], [ 123.1839662, 13.6236482, 0.0 ], [ 123.1838376, 13.6231677, 0.0 ], [ 123.183741, 13.622751, 0.0 ], [ 123.1836172, 13.6222679, 0.0 ], [ 123.1835135, 13.6218885, 0.0 ], [ 123.183371, 13.6213532, 0.0 ], [ 123.183293, 13.6210495, 0.0 ], [ 123.183215, 13.6207511, 0.0 ], [ 123.1831928, 13.620644, 0.0 ], [ 123.1831717, 13.6206021, 0.0 ], [ 123.1831488, 13.6205841, 0.0 ], [ 123.183092, 13.6205655, 0.0 ], [ 123.1829786, 13.6205331, 0.0 ], [ 123.1829411, 13.6205173, 0.0 ], [ 123.1829048, 13.6204998, 0.0 ], [ 123.1828735, 13.6204793, 0.0 ], [ 123.1828474, 13.6204507, 0.0 ], [ 123.1827906, 13.6203749, 0.0 ], [ 123.1827159, 13.620276, 0.0 ], [ 123.1826731, 13.6202017, 0.0 ], [ 123.1826042, 13.6200681, 0.0 ], [ 123.182518, 13.6199, 0.0 ], [ 123.182453, 13.6197826, 0.0 ], [ 123.1823896, 13.6196611, 0.0 ], [ 123.1823233, 13.6195542, 0.0 ], [ 123.182267, 13.6194582, 0.0 ], [ 123.1822143, 13.6193689, 0.0 ], [ 123.1821605, 13.619296, 0.0 ] ] } },
{ "type": "Feature", "properties": { "Name": "Starting Point Plaza Quezon" }, "geometry": { "type": "Point", "coordinates": [ 123.1849121, 13.6239564, 0.0 ] } },
{ "type": "Feature", "properties": { "Name": "Going to Elias Angeles St, via P. Burgos" }, "geometry": { "type": "Point", "coordinates": [ 123.1855146, 13.6241675, 0.0 ] } },
{ "type": "Feature", "properties": { "Name": "Right to Caceres St" }, "geometry": { "type": "Point", "coordinates": [ 123.18536, 13.6216002, 0.0 ] } },
{ "type": "Feature", "properties": { "Name": "Proceed to Chinese Commercial" }, "geometry": { "type": "Point", "coordinates": [ 123.1845163, 13.6212787, 0.0 ] } },
{ "type": "Feature", "properties": { "Name": "General Luna St./Kinastillohan" }, "geometry": { "type": "Point", "coordinates": [ 123.184972, 13.6237796, 0.0 ] } },
{ "type": "Feature", "properties": { "Name": "Right to Panganiban (U-Turn to Bridge)" }, "geometry": { "type": "Point", "coordinates": [ 123.1852052, 13.6234904, 0.0 ] } },
{ "type": "Feature", "properties": { "Name": "Left to Elias Angeles St. via San Francisco" }, "geometry": { "type": "Point", "coordinates": [ 123.1859346, 13.624834, 0.0 ] } },
{ "type": "Feature", "properties": { "Name": "Right to Evangelista St." }, "geometry": { "type": "Point", "coordinates": [ 123.1849916, 13.622882, 0.0 ] } },
{ "type": "Feature", "properties": { "Name": "Right to Gen. Luna St." }, "geometry": { "type": "Point", "coordinates": [ 123.1844678, 13.6230105, 0.0 ] } },
{ "type": "Feature", "properties": { "Name": "Left to P. Burgos St." }, "geometry": { "type": "Point", "coordinates": [ 123.1848528, 13.6244019, 0.0 ] } },
{ "type": "Feature", "properties": { "Name": "Left to J.Hernandez Ave." }, "geometry": { "type": "Point", "coordinates": [ 123.1841863, 13.6246174, 0.0 ] } },
{ "type": "Feature", "properties": { "Name": "Going to Cor. Sabang Zamora" }, "geometry": { "type": "Point", "coordinates": [ 123.1831325, 13.620615, 0.0 ] } },
{ "type": "Feature", "properties": { "Name": "End of Route - Heads to San Isidro Dumpsite" }, "geometry": { "type": "Point", "coordinates": [ 123.18215, 13.6193048, 0.0 ] } },
{ "type": "Feature", "properties": { "Name": "Route2" }, "geometry": { "type": "LineString", "coordinates": [ [ 123.183957, 13.6203122, 0.0 ], [ 123.1840922, 13.6210744, 0.0 ], [ 123.1840987, 13.6211093, 0.0 ], [ 123.184105, 13.6211507, 0.0 ], [ 123.1841157, 13.6211935, 0.0 ], [ 123.1841259, 13.6212042, 0.0 ], [ 123.1841505, 13.6212225, 0.0 ], [ 123.1841773, 13.6212325, 0.0 ], [ 123.1842048, 13.6212355, 0.0 ], [ 123.1842427, 13.621237, 0.0 ], [ 123.1842869, 13.6212433, 0.0 ], [ 123.1843186, 13.6212429, 0.0 ], [ 123.1844361, 13.6212562, 0.0 ], [ 123.184494, 13.62126, 0.0 ], [ 123.1846257, 13.62127, 0.0 ], [ 123.1847204, 13.6212824, 0.0 ], [ 123.1847966, 13.6212919, 0.0 ], [ 123.1848625, 13.6213076, 0.0 ], [ 123.1849307, 13.621319, 0.0 ], [ 123.1849771, 13.6213301, 0.0 ], [ 123.1850256, 13.6213454, 0.0 ], [ 123.1850853, 13.6213695, 0.0 ], [ 123.1851326, 13.6213872, 0.0 ], [ 123.1851773, 13.621408, 0.0 ], [ 123.1852278, 13.6214267, 0.0 ], [ 123.1852763, 13.6214538, 0.0 ], [ 123.1853263, 13.6214798, 0.0 ], [ 123.1853608, 13.6215055, 0.0 ], [ 123.1853902, 13.6215252, 0.0 ], [ 123.1854228, 13.6215419, 0.0 ], [ 123.185484, 13.6215754, 0.0 ], [ 123.1855381, 13.6215996, 0.0 ], [ 123.1856117, 13.6216279, 0.0 ], [ 123.1856973, 13.6216645, 0.0 ], [ 123.1857629, 13.621695, 0.0 ], [ 123.1858072, 13.6217136, 0.0 ], [ 123.1858431, 13.6217294, 0.0 ], [ 123.1858657, 13.6217398, 0.0 ], [ 123.1858925, 13.6217549, 0.0 ], [ 123.1859158, 13.6217688, 0.0 ], [ 123.1859352, 13.6217796, 0.0 ], [ 123.1859625, 13.6218008, 0.0 ], [ 123.1859791, 13.6218168, 0.0 ], [ 123.1859923, 13.6218357, 0.0 ], [ 123.1860029, 13.6218509, 0.0 ], [ 123.1860046, 13.6218541, 0.0 ], [ 123.1860154, 13.6218802, 0.0 ], [ 123.1860272, 13.6219048, 0.0 ], [ 123.1860308, 13.6219182, 0.0 ], [ 123.1860363, 13.6219342, 0.0 ], [ 123.186042, 13.6219559, 0.0 ], [ 123.1860451, 13.6219884, 0.0 ], [ 123.1860468, 13.6220469, 0.0 ], [ 123.186045, 13.6220995, 0.0 ], [ 123.1860429, 13.6221649, 0.0 ], [ 123.1860373, 13.6222467, 0.0 ], [ 123.1860334, 13.6223015, 0.0 ], [ 123.1860285, 13.6223478, 0.0 ], [ 123.1860166, 13.6224151, 0.0 ], [ 123.1860023, 13.6224778, 0.0 ], [ 123.1859919, 13.6225273, 0.0 ], [ 123.1859816, 13.6225843, 0.0 ], [ 123.1859655, 13.6226472, 0.0 ], [ 123.1859489, 13.622701, 0.0 ], [ 123.1859358, 13.6227409, 0.0 ], [ 123.1859244, 13.6227901, 0.0 ], [ 123.1859089, 13.6228682, 0.0 ], [ 123.1859026, 13.6229136, 0.0 ], [ 123.1858949, 13.6229833, 0.0 ], [ 123.1858955, 13.6230218, 0.0 ], [ 123.1858953, 13.6230628, 0.0 ], [ 123.1859032, 13.6230906, 0.0 ], [ 123.1859122, 13.6231201, 0.0 ], [ 123.1859354, 13.6231367, 0.0 ], [ 123.1859614, 13.6231421, 0.0 ], [ 123.1859979, 13.6231406, 0.0 ], [ 123.1860001, 13.6231403, 0.0 ], [ 123.1860816, 13.6231404, 0.0 ], [ 123.1861595, 13.6231295, 0.0 ], [ 123.1862575, 13.6231161, 0.0 ], [ 123.1863327, 13.6231074, 0.0 ], [ 123.1864613, 13.6230882, 0.0 ], [ 123.1866252, 13.6230607, 0.0 ], [ 123.1868951, 13.6230164, 0.0 ], [ 123.1870628, 13.6229995, 0.0 ], [ 123.1872321, 13.6229797, 0.0 ], [ 123.187546, 13.6229354, 0.0 ], [ 123.1878871, 13.6228812, 0.0 ], [ 123.1880778, 13.6228584, 0.0 ], [ 123.188241, 13.6228333, 0.0 ], [ 123.1884959, 13.6227985, 0.0 ], [ 123.188655, 13.6227743, 0.0 ], [ 123.1888462, 13.6227462, 0.0 ], [ 123.1890154, 13.622728, 0.0 ], [ 123.1891854, 13.6227032, 0.0 ], [ 123.1893763, 13.6226783, 0.0 ], [ 123.1895217, 13.6226551, 0.0 ], [ 123.1896705, 13.6226303, 0.0 ], [ 123.1898587, 13.6226058, 0.0 ], [ 123.1899961, 13.6225895, 0.0 ], [ 123.1901297, 13.6225713, 0.0 ], [ 123.1905943, 13.6225123, 0.0 ], [ 123.1908578, 13.6224759, 0.0 ], [ 123.191151, 13.6224402, 0.0 ], [ 123.191374, 13.6224135, 0.0 ], [ 123.1916431, 13.6223744, 0.0 ], [ 123.1919373, 13.6223368, 0.0 ], [ 123.1921942, 13.622304, 0.0 ], [ 123.1935833, 13.6221168, 0.0 ], [ 123.1946829, 13.6219669, 0.0 ], [ 123.1959224, 13.6217858, 0.0 ], [ 123.1969359, 13.6216462, 0.0 ], [ 123.1978847, 13.6215056, 0.0 ], [ 123.1984873, 13.6214209, 0.0 ], [ 123.1990918, 13.6213358, 0.0 ], [ 123.1994352, 13.621273, 0.0 ], [ 123.1996608, 13.6212461, 0.0 ], [ 123.1998634, 13.6212182, 0.0 ], [ 123.2000918, 13.6211812, 0.0 ], [ 123.2003526, 13.6211521, 0.0 ], [ 123.2005347, 13.6211137, 0.0 ], [ 123.2006851, 13.621088, 0.0 ], [ 123.2007609, 13.6210536, 0.0 ], [ 123.2008738, 13.6209963, 0.0 ], [ 123.200923, 13.6209408, 0.0 ], [ 123.2009857, 13.6209039, 0.0 ], [ 123.2010566, 13.6209006, 0.0 ], [ 123.2011035, 13.6209195, 0.0 ], [ 123.2011396, 13.6209478, 0.0 ], [ 123.2011721, 13.6209926, 0.0 ], [ 123.2011731, 13.6209963, 0.0 ], [ 123.2011824, 13.6210455, 0.0 ], [ 123.2011801, 13.6210968, 0.0 ], [ 123.201158, 13.62114, 0.0 ], [ 123.2011339, 13.6211754, 0.0 ], [ 123.2011083, 13.6211907, 0.0 ], [ 123.2010619, 13.6212056, 0.0 ], [ 123.2010125, 13.6212105, 0.0 ], [ 123.2010115, 13.6212105, 0.0 ], [ 123.200977, 13.6212071, 0.0 ], [ 123.2009493, 13.6211985, 0.0 ], [ 123.2009187, 13.6211804, 0.0 ], [ 123.2008902, 13.6211636, 0.0 ], [ 123.2008561, 13.6211516, 0.0 ], [ 123.2008281, 13.6211447, 0.0 ], [ 123.200793, 13.6211448, 0.0 ], [ 123.2006667, 13.6211552, 0.0 ], [ 123.2002821, 13.6212074, 0.0 ], [ 123.199877, 13.6212614, 0.0 ], [ 123.199536, 13.6213094, 0.0 ], [ 123.1992462, 13.6213593, 0.0 ], [ 123.198951, 13.6213975, 0.0 ], [ 123.1986833, 13.6214377, 0.0 ], [ 123.1982978, 13.6214888, 0.0 ], [ 123.1978795, 13.6215615, 0.0 ], [ 123.1974387, 13.6216283, 0.0 ], [ 123.1970754, 13.6216775, 0.0 ], [ 123.1968262, 13.6217155, 0.0 ], [ 123.1966255, 13.6217379, 0.0 ], [ 123.1963149, 13.6217809, 0.0 ], [ 123.1960545, 13.6218125, 0.0 ], [ 123.1957244, 13.621855, 0.0 ], [ 123.1954454, 13.6218925, 0.0 ], [ 123.1950171, 13.6219559, 0.0 ], [ 123.1944555, 13.622047, 0.0 ], [ 123.193866, 13.6221228, 0.0 ], [ 123.1931315, 13.6222243, 0.0 ], [ 123.1923956, 13.6223262, 0.0 ], [ 123.1915131, 13.6224374, 0.0 ], [ 123.1909567, 13.6225133, 0.0 ], [ 123.1904018, 13.6225874, 0.0 ], [ 123.1898273, 13.6226652, 0.0 ], [ 123.1892815, 13.6227425, 0.0 ], [ 123.188829, 13.6228147, 0.0 ], [ 123.1884054, 13.6228709, 0.0 ], [ 123.188022, 13.6229174, 0.0 ], [ 123.1875923, 13.6229826, 0.0 ], [ 123.1873377, 13.6230086, 0.0 ], [ 123.1870679, 13.6230421, 0.0 ], [ 123.1868309, 13.6230713, 0.0 ], [ 123.1866553, 13.6231004, 0.0 ], [ 123.1864742, 13.6231362, 0.0 ], [ 123.1862763, 13.623165, 0.0 ], [ 123.1861504, 13.6231883, 0.0 ], [ 123.1860231, 13.6232066, 0.0 ], [ 123.1859852, 13.6232135, 0.0 ], [ 123.1859532, 13.6232114, 0.0 ], [ 123.1859435, 13.6232092, 0.0 ], [ 123.1859374, 13.6232121, 0.0 ], [ 123.1859306, 13.6232159, 0.0 ], [ 123.1859242, 13.623223, 0.0 ], [ 123.1859181, 13.6232341, 0.0 ], [ 123.1859143, 13.6232518, 0.0 ], [ 123.1859112, 13.6232722, 0.0 ], [ 123.1859108, 13.6233047, 0.0 ], [ 123.1859093, 13.6233367, 0.0 ], [ 123.1859113, 13.6233698, 0.0 ], [ 123.1859111, 13.6234073, 0.0 ], [ 123.1859124, 13.6234464, 0.0 ], [ 123.1859134, 13.6235253, 0.0 ], [ 123.1859132, 13.6236587, 0.0 ], [ 123.1859137, 13.6237396, 0.0 ], [ 123.1859156, 13.6238125, 0.0 ], [ 123.1859253, 13.6238833, 0.0 ], [ 123.185929, 13.623944, 0.0 ], [ 123.1859363, 13.6240021, 0.0 ], [ 123.1859452, 13.6240446, 0.0 ], [ 123.185958, 13.624091, 0.0 ], [ 123.1859747, 13.6241418, 0.0 ], [ 123.1859999, 13.624202, 0.0 ], [ 123.1860387, 13.6242944, 0.0 ], [ 123.1860752, 13.6243631, 0.0 ], [ 123.18611, 13.6244363, 0.0 ], [ 123.1861489, 13.6245074, 0.0 ], [ 123.1861945, 13.6245803, 0.0 ], [ 123.1862184, 13.6246142, 0.0 ], [ 123.1862476, 13.6246498, 0.0 ], [ 123.1862943, 13.6247053, 0.0 ], [ 123.1863519, 13.624759, 0.0 ], [ 123.1864446, 13.62484, 0.0 ], [ 123.1865613, 13.6249422, 0.0 ], [ 123.1866863, 13.6250523, 0.0 ], [ 123.1867546, 13.6251227, 0.0 ], [ 123.1868431, 13.6251998, 0.0 ], [ 123.1869215, 13.6252725, 0.0 ], [ 123.1869889, 13.625346, 0.0 ], [ 123.1870548, 13.6254274, 0.0 ], [ 123.1871615, 13.6255511, 0.0 ], [ 123.1872191, 13.6256175, 0.0 ], [ 123.1872836, 13.6256937, 0.0 ], [ 123.187324, 13.6257427, 0.0 ], [ 123.1873794, 13.6258042, 0.0 ] ] } },
{ "type": "Feature", "properties": { "Name": "Back to NCPM Riverside" }, "geometry": { "type": "Point", "coordinates": [ 123.1839729, 13.6203277, 0.0 ] } },
{ "type": "Feature", "properties": { "Name": "Proceed to Chinese Commercial" }, "geometry": { "type": "Point", "coordinates": [ 123.1844321, 13.621228, 0.0 ] } },
{ "type": "Feature", "properties": { "Name": "Right to Caceres St." }, "geometry": { "type": "Point", "coordinates": [ 123.1853932, 13.6215323, 0.0 ] } },
{ "type": "Feature", "properties": { "Name": "Going to Dinaga Main Road" }, "geometry": { "type": "Point", "coordinates": [ 123.1857111, 13.6216923, 0.0 ] } },
{ "type": "Feature", "properties": { "Name": "Right to Panganiban Dr. up to Rotonda Crossing" }, "geometry": { "type": "Point", "coordinates": [ 123.1859384, 13.6231553, 0.0 ] } },
{ "type": "Feature", "properties": { "Name": "U-Turn back to Panganiban Drive" }, "geometry": { "type": "Point", "coordinates": [ 123.2010969, 13.621085, 0.0 ] } },
{ "type": "Feature", "properties": { "Name": "Right to Peñafrancia Ave. via San Francisco" }, "geometry": { "type": "Point", "coordinates": [ 123.1859481, 13.6232347, 0.0 ] } },
{ "type": "Feature", "properties": { "Name": "End of Route - Heads to San Isidro Dumpsite" }, "geometry": { "type": "Point", "coordinates": [ 123.1873738, 13.6258068, 0.0 ] } },
{ "type": "Feature", "properties": { "Name": "Route3" }, "geometry": { "type": "LineString", "coordinates": [ [ 123.1858799, 13.6248546, 0.0 ], [ 123.1858598, 13.6247965, 0.0 ], [ 123.1858259, 13.624722, 0.0 ], [ 123.1857878, 13.6246404, 0.0 ], [ 123.1857492, 13.6245612, 0.0 ], [ 123.1856581, 13.6243735, 0.0 ], [ 123.1856212, 13.6242919, 0.0 ], [ 123.1855397, 13.6241444, 0.0 ], [ 123.1854812, 13.6240336, 0.0 ], [ 123.1854454, 13.6239619, 0.0 ], [ 123.1853996, 13.6238698, 0.0 ], [ 123.1853489, 13.6237641, 0.0 ], [ 123.1852843, 13.6236083, 0.0 ], [ 123.1852389, 13.6235021, 0.0 ], [ 123.18521, 13.6234233, 0.0 ], [ 123.1851795, 13.6233345, 0.0 ], [ 123.1851756, 13.6233157, 0.0 ], [ 123.1851737, 13.6233046, 0.0 ], [ 123.1851754, 13.6232929, 0.0 ], [ 123.1851785, 13.6232831, 0.0 ], [ 123.1851871, 13.6232754, 0.0 ], [ 123.1851883, 13.6232746, 0.0 ], [ 123.1852042, 13.6232635, 0.0 ], [ 123.1852174, 13.6232621, 0.0 ], [ 123.1852384, 13.6232589, 0.0 ], [ 123.1852742, 13.6232535, 0.0 ], [ 123.1853993, 13.6232346, 0.0 ], [ 123.1854621, 13.623221, 0.0 ], [ 123.1855907, 13.6232011, 0.0 ], [ 123.1856637, 13.6231919, 0.0 ], [ 123.1857027, 13.6231851, 0.0 ], [ 123.1857378, 13.6231822, 0.0 ], [ 123.1857979, 13.623179, 0.0 ], [ 123.1858055, 13.6231807, 0.0 ], [ 123.1858074, 13.6231811, 0.0 ], [ 123.1858182, 13.6231845, 0.0 ], [ 123.1858312, 13.6231903, 0.0 ], [ 123.1858405, 13.6231974, 0.0 ], [ 123.185853, 13.6232124, 0.0 ], [ 123.1858585, 13.623228, 0.0 ], [ 123.1858596, 13.6232553, 0.0 ], [ 123.1858636, 13.6232953, 0.0 ], [ 123.1858635, 13.6232957, 0.0 ], [ 123.1858669, 13.6233417, 0.0 ], [ 123.1858691, 13.6233759, 0.0 ], [ 123.1858718, 13.6234341, 0.0 ], [ 123.1858747, 13.6234888, 0.0 ], [ 123.1858761, 13.6235482, 0.0 ], [ 123.1858766, 13.6236447, 0.0 ], [ 123.185878, 13.6237021, 0.0 ], [ 123.1858822, 13.623746, 0.0 ], [ 123.1858825, 13.6237998, 0.0 ], [ 123.185884, 13.6238395, 0.0 ], [ 123.1858864, 13.6238828, 0.0 ], [ 123.1858894, 13.6239377, 0.0 ], [ 123.1858933, 13.6239879, 0.0 ], [ 123.185897, 13.6240378, 0.0 ], [ 123.1859149, 13.6241172, 0.0 ], [ 123.1859323, 13.6241582, 0.0 ], [ 123.185963, 13.6242299, 0.0 ], [ 123.1860367, 13.6243838, 0.0 ], [ 123.1860701, 13.6244553, 0.0 ], [ 123.186107, 13.6245248, 0.0 ], [ 123.1861654, 13.6246245, 0.0 ], [ 123.1861784, 13.6246595, 0.0 ], [ 123.1861882, 13.6246844, 0.0 ], [ 123.1861894, 13.6247004, 0.0 ], [ 123.1861878, 13.6247094, 0.0 ], [ 123.1861818, 13.6247214, 0.0 ], [ 123.1861724, 13.6247309, 0.0 ], [ 123.1861592, 13.6247431, 0.0 ], [ 123.1861421, 13.624756, 0.0 ], [ 123.1861333, 13.6247632, 0.0 ], [ 123.18612, 13.6247706, 0.0 ], [ 123.1861078, 13.6247782, 0.0 ], [ 123.186094, 13.6247872, 0.0 ], [ 123.1860783, 13.6247955, 0.0 ], [ 123.1860636, 13.6248028, 0.0 ], [ 123.1860403, 13.6248128, 0.0 ], [ 123.1860215, 13.624822, 0.0 ], [ 123.1860061, 13.6248275, 0.0 ], [ 123.1859975, 13.6248304, 0.0 ], [ 123.1859973, 13.6248304, 0.0 ], [ 123.1859839, 13.6248363, 0.0 ], [ 123.1859663, 13.6248422, 0.0 ], [ 123.1859551, 13.6248445, 0.0 ], [ 123.1859378, 13.6248454, 0.0 ], [ 123.1859167, 13.6248458, 0.0 ], [ 123.1859073, 13.6248406, 0.0 ], [ 123.1858946, 13.6248269, 0.0 ], [ 123.1858696, 13.6247682, 0.0 ], [ 123.1858691, 13.6247678, 0.0 ], [ 123.1858352, 13.6246955, 0.0 ], [ 123.1858041, 13.6246351, 0.0 ], [ 123.1857794, 13.6245836, 0.0 ], [ 123.185757, 13.6245446, 0.0 ], [ 123.1857221, 13.6244719, 0.0 ], [ 123.1856867, 13.6243932, 0.0 ], [ 123.185657, 13.6243347, 0.0 ], [ 123.1855546, 13.6241554, 0.0 ], [ 123.1854965, 13.6240424, 0.0 ], [ 123.1854322, 13.6239108, 0.0 ], [ 123.1853626, 13.6237767, 0.0 ], [ 123.1853463, 13.623743, 0.0 ], [ 123.1852315, 13.6234493, 0.0 ], [ 123.1851529, 13.6232062, 0.0 ], [ 123.1850976, 13.623019, 0.0 ], [ 123.1850803, 13.6229581, 0.0 ], [ 123.1850718, 13.622935, 0.0 ], [ 123.1850712, 13.6229334, 0.0 ], [ 123.1850618, 13.6229097, 0.0 ], [ 123.1850617, 13.6229082, 0.0 ], [ 123.1850535, 13.6228894, 0.0 ], [ 123.1850404, 13.6228797, 0.0 ], [ 123.1850227, 13.6228781, 0.0 ], [ 123.1849914, 13.6228838, 0.0 ], [ 123.1848945, 13.6229049, 0.0 ], [ 123.1848147, 13.6229236, 0.0 ], [ 123.184738, 13.6229395, 0.0 ], [ 123.1846671, 13.6229563, 0.0 ], [ 123.1845974, 13.6229694, 0.0 ], [ 123.1845571, 13.6229807, 0.0 ], [ 123.1845309, 13.6229892, 0.0 ], [ 123.1845211, 13.6229921, 0.0 ], [ 123.1845114, 13.6229929, 0.0 ], [ 123.184503, 13.6229991, 0.0 ], [ 123.1845014, 13.6230069, 0.0 ], [ 123.1845066, 13.6230246, 0.0 ], [ 123.1845114, 13.6230422, 0.0 ], [ 123.1845241, 13.6230783, 0.0 ], [ 123.1845608, 13.6232134, 0.0 ], [ 123.184582, 13.6232875, 0.0 ], [ 123.1846066, 13.6233708, 0.0 ], [ 123.1846389, 13.6234962, 0.0 ], [ 123.1846881, 13.623674, 0.0 ], [ 123.1847129, 13.6237448, 0.0 ], [ 123.1847325, 13.6238059, 0.0 ], [ 123.1847372, 13.6238244, 0.0 ], [ 123.184742, 13.6238365, 0.0 ], [ 123.1847534, 13.6238519, 0.0 ], [ 123.1847612, 13.6238618, 0.0 ], [ 123.1847793, 13.6238684, 0.0 ], [ 123.1847887, 13.6238714, 0.0 ], [ 123.1848182, 13.6238688, 0.0 ], [ 123.1848323, 13.6238641, 0.0 ], [ 123.1848559, 13.623856, 0.0 ], [ 123.1849474, 13.6238286, 0.0 ], [ 123.1849988, 13.6238129, 0.0 ], [ 123.1851655, 13.623775, 0.0 ], [ 123.18522, 13.6237574, 0.0 ], [ 123.1852861, 13.6237408, 0.0 ], [ 123.1853066, 13.6237306, 0.0 ], [ 123.185309, 13.6237235, 0.0 ], [ 123.185312, 13.6237128, 0.0 ], [ 123.1853078, 13.6236938, 0.0 ], [ 123.1850356, 13.6228131, 0.0 ], [ 123.1850332, 13.6227794, 0.0 ], [ 123.1850327, 13.6227776, 0.0 ], [ 123.1850302, 13.6227451, 0.0 ], [ 123.1850294, 13.6227428, 0.0 ], [ 123.1850335, 13.6226947, 0.0 ], [ 123.185033, 13.6226931, 0.0 ], [ 123.1850363, 13.6226257, 0.0 ], [ 123.1850393, 13.6225694, 0.0 ], [ 123.1850496, 13.622521, 0.0 ], [ 123.18505, 13.6225197, 0.0 ], [ 123.1850616, 13.6224892, 0.0 ], [ 123.1850837, 13.622434, 0.0 ], [ 123.1851106, 13.622366, 0.0 ], [ 123.1851251, 13.6223272, 0.0 ], [ 123.1851542, 13.6222275, 0.0 ], [ 123.1851718, 13.6221679, 0.0 ], [ 123.1851836, 13.6221331, 0.0 ], [ 123.185201, 13.6220845, 0.0 ], [ 123.185205, 13.6220657, 0.0 ], [ 123.1852048, 13.6220645, 0.0 ], [ 123.1851985, 13.6220369, 0.0 ], [ 123.1851772, 13.6220266, 0.0 ], [ 123.1851606, 13.6220247, 0.0 ], [ 123.185159, 13.6220249, 0.0 ], [ 123.1851278, 13.6220238, 0.0 ], [ 123.1850476, 13.6220267, 0.0 ], [ 123.184861, 13.6220276, 0.0 ], [ 123.1846559, 13.6220366, 0.0 ], [ 123.1845645, 13.6220452, 0.0 ], [ 123.1844154, 13.6220615, 0.0 ], [ 123.1843452, 13.6220687, 0.0 ], [ 123.1843195, 13.6220737, 0.0 ], [ 123.1842983, 13.6220837, 0.0 ], [ 123.1842845, 13.6221, 0.0 ], [ 123.1842775, 13.6221156, 0.0 ], [ 123.1842811, 13.622152, 0.0 ], [ 123.1842895, 13.6221793, 0.0 ], [ 123.1842995, 13.6222324, 0.0 ], [ 123.1843396, 13.6224057, 0.0 ], [ 123.1843776, 13.6225984, 0.0 ], [ 123.1844492, 13.6228897, 0.0 ], [ 123.1844873, 13.6230509, 0.0 ], [ 123.1845317, 13.6232308, 0.0 ], [ 123.1846001, 13.6234585, 0.0 ], [ 123.1846702, 13.6236763, 0.0 ], [ 123.1847215, 13.6238465, 0.0 ], [ 123.1847904, 13.6240742, 0.0 ], [ 123.184839, 13.6241556, 0.0 ], [ 123.1848707, 13.6241929, 0.0 ], [ 123.1848951, 13.6242175, 0.0 ], [ 123.1849235, 13.6242423, 0.0 ], [ 123.184951, 13.6242633, 0.0 ], [ 123.1849829, 13.6242786, 0.0 ], [ 123.1850146, 13.6242908, 0.0 ], [ 123.1850503, 13.6243011, 0.0 ], [ 123.1850925, 13.6243008, 0.0 ], [ 123.185252, 13.6242716, 0.0 ], [ 123.1853528, 13.624256, 0.0 ], [ 123.1854795, 13.6242406, 0.0 ], [ 123.185542, 13.6242216, 0.0 ], [ 123.1855566, 13.6242031, 0.0 ], [ 123.1855559, 13.6241882, 0.0 ], [ 123.185551, 13.624167, 0.0 ], [ 123.1855281, 13.6241253, 0.0 ], [ 123.185329, 13.6237274, 0.0 ], [ 123.1852821, 13.6235996, 0.0 ], [ 123.1852017, 13.6233823, 0.0 ], [ 123.1851532, 13.6232483, 0.0 ], [ 123.1851327, 13.6231683, 0.0 ], [ 123.1851104, 13.623107, 0.0 ], [ 123.1850893, 13.6230354, 0.0 ], [ 123.1850722, 13.622978, 0.0 ], [ 123.185072, 13.6229767, 0.0 ], [ 123.1850517, 13.6229215, 0.0 ], [ 123.185051, 13.6229201, 0.0 ], [ 123.1850339, 13.6228315, 0.0 ], [ 123.1850287, 13.6227799, 0.0 ], [ 123.1850247, 13.6226677, 0.0 ], [ 123.1850283, 13.6226087, 0.0 ], [ 123.1850332, 13.6225628, 0.0 ], [ 123.1850423, 13.6225209, 0.0 ], [ 123.1850428, 13.6225194, 0.0 ], [ 123.1850746, 13.6224355, 0.0 ], [ 123.185101, 13.6223655, 0.0 ], [ 123.1851267, 13.622291, 0.0 ], [ 123.1851608, 13.6221815, 0.0 ], [ 123.1851761, 13.6221308, 0.0 ], [ 123.1852275, 13.6219952, 0.0 ], [ 123.1852807, 13.6218698, 0.0 ], [ 123.1853168, 13.6217781, 0.0 ], [ 123.1853436, 13.6217165, 0.0 ], [ 123.1853574, 13.6216762, 0.0 ], [ 123.1853681, 13.6216477, 0.0 ], [ 123.1853685, 13.6216461, 0.0 ], [ 123.1853767, 13.6216226, 0.0 ], [ 123.1853772, 13.6216205, 0.0 ], [ 123.1853843, 13.6215966, 0.0 ], [ 123.1853872, 13.6215793, 0.0 ], [ 123.1853871, 13.6215777, 0.0 ], [ 123.1853879, 13.6215608, 0.0 ], [ 123.1853874, 13.6215586, 0.0 ], [ 123.1853872, 13.6215576, 0.0 ], [ 123.1853799, 13.6215431, 0.0 ], [ 123.1853675, 13.6215311, 0.0 ], [ 123.1853672, 13.6215305, 0.0 ], [ 123.1853376, 13.6215054, 0.0 ], [ 123.1853021, 13.6214835, 0.0 ], [ 123.1853007, 13.6214826, 0.0 ], [ 123.185238, 13.6214547, 0.0 ], [ 123.185152, 13.6214177, 0.0 ], [ 123.185028, 13.6213705, 0.0 ], [ 123.1849588, 13.6213441, 0.0 ], [ 123.1849022, 13.6213315, 0.0 ], [ 123.1847976, 13.6213107, 0.0 ], [ 123.1846951, 13.6212965, 0.0 ], [ 123.1845986, 13.6212859, 0.0 ], [ 123.1845158, 13.621278, 0.0 ], [ 123.1844506, 13.621271, 0.0 ], [ 123.1843623, 13.6212667, 0.0 ], [ 123.1842853, 13.6212604, 0.0 ], [ 123.1842192, 13.6212559, 0.0 ], [ 123.1841714, 13.6212576, 0.0 ], [ 123.1841513, 13.6212632, 0.0 ], [ 123.1841394, 13.6212705, 0.0 ], [ 123.1841252, 13.6212815, 0.0 ], [ 123.1841206, 13.621288, 0.0 ], [ 123.1841179, 13.621295, 0.0 ], [ 123.1841206, 13.621311, 0.0 ], [ 123.1841269, 13.6213396, 0.0 ], [ 123.1841358, 13.6213812, 0.0 ], [ 123.1841525, 13.6214735, 0.0 ], [ 123.1841791, 13.6216125, 0.0 ], [ 123.1842108, 13.6218111, 0.0 ], [ 123.1842501, 13.622003, 0.0 ], [ 123.1842528, 13.6220464, 0.0 ], [ 123.1843036, 13.6223065, 0.0 ], [ 123.184365, 13.6225679, 0.0 ], [ 123.1844003, 13.6227192, 0.0 ], [ 123.1844394, 13.6228966, 0.0 ], [ 123.1844853, 13.6230801, 0.0 ], [ 123.1845403, 13.6232728, 0.0 ], [ 123.1845797, 13.6234489, 0.0 ], [ 123.1846115, 13.623536, 0.0 ], [ 123.1846681, 13.623692, 0.0 ], [ 123.1847376, 13.6239136, 0.0 ], [ 123.1847831, 13.6240248, 0.0 ], [ 123.1848157, 13.6241334, 0.0 ], [ 123.1848457, 13.6242286, 0.0 ], [ 123.184857, 13.62428, 0.0 ], [ 123.1848618, 13.6242939, 0.0 ], [ 123.1848635, 13.6243143, 0.0 ], [ 123.1848646, 13.6243336, 0.0 ], [ 123.18486, 13.6243502, 0.0 ], [ 123.1848517, 13.6243684, 0.0 ], [ 123.1848353, 13.6243899, 0.0 ], [ 123.1848026, 13.6244086, 0.0 ], [ 123.1847278, 13.6244411, 0.0 ], [ 123.1846564, 13.6244706, 0.0 ], [ 123.1845809, 13.624509, 0.0 ], [ 123.1845163, 13.6245376, 0.0 ], [ 123.1844438, 13.6245764, 0.0 ], [ 123.1843945, 13.6246016, 0.0 ], [ 123.1843792, 13.6246123, 0.0 ], [ 123.1843573, 13.6246244, 0.0 ], [ 123.1843381, 13.6246343, 0.0 ], [ 123.1843247, 13.6246414, 0.0 ], [ 123.1842997, 13.624657, 0.0 ], [ 123.1842766, 13.6246616, 0.0 ], [ 123.1842746, 13.6246622, 0.0 ], [ 123.1842552, 13.6246642, 0.0 ], [ 123.1842363, 13.6246574, 0.0 ], [ 123.1842347, 13.6246565, 0.0 ], [ 123.1842284, 13.624646, 0.0 ], [ 123.1842195, 13.6246218, 0.0 ], [ 123.184219, 13.6246192, 0.0 ], [ 123.1841848, 13.6244776, 0.0 ], [ 123.1841542, 13.6243426, 0.0 ], [ 123.1841082, 13.6241428, 0.0 ], [ 123.1840751, 13.6240034, 0.0 ], [ 123.184029, 13.6238161, 0.0 ], [ 123.1839919, 13.6236554, 0.0 ], [ 123.1839519, 13.6235201, 0.0 ], [ 123.1839095, 13.6234017, 0.0 ], [ 123.1838578, 13.6232057, 0.0 ], [ 123.1838343, 13.623134, 0.0 ], [ 123.1838026, 13.6229962, 0.0 ], [ 123.1837531, 13.6228294, 0.0 ], [ 123.1835078, 13.6219111, 0.0 ], [ 123.1833561, 13.6213175, 0.0 ], [ 123.1832755, 13.6209961, 0.0 ], [ 123.1832321, 13.620816, 0.0 ], [ 123.1832071, 13.6207222, 0.0 ], [ 123.1832056, 13.6206852, 0.0 ], [ 123.1832044, 13.620658, 0.0 ], [ 123.1832059, 13.6206432, 0.0 ], [ 123.1832152, 13.6206277, 0.0 ], [ 123.1832705, 13.6206204, 0.0 ], [ 123.1833059, 13.6206228, 0.0 ], [ 123.1835094, 13.6206264, 0.0 ], [ 123.1837167, 13.6206205, 0.0 ], [ 123.1838758, 13.6206145, 0.0 ], [ 123.1839391, 13.6206251, 0.0 ], [ 123.1840076, 13.6206299, 0.0 ], [ 123.1840369, 13.6206489, 0.0 ], [ 123.184047, 13.620691, 0.0 ], [ 123.18405, 13.620709, 0.0 ] ] } },
{ "type": "Feature", "properties": { "Name": "Back to Elias Angeles St. (In front of Mcdonald’s)" }, "geometry": { "type": "Point", "coordinates": [ 123.1858978, 13.624851, 0.0 ] } },
{ "type": "Feature", "properties": { "Name": "Going to Peñafrancia Ave. via Panganiban" }, "geometry": { "type": "Point", "coordinates": [ 123.1852148, 13.6232887, 0.0 ] } },
{ "type": "Feature", "properties": { "Name": "Left to Arana St." }, "geometry": { "type": "Point", "coordinates": [ 123.18616, 13.6247429, 0.0 ] } },
{ "type": "Feature", "properties": { "Name": "Left to Elias Angeles St." }, "geometry": { "type": "Point", "coordinates": [ 123.1859751, 13.6248399, 0.0 ] } },
{ "type": "Feature", "properties": { "Name": "Right to Evangelista St" }, "geometry": { "type": "Point", "coordinates": [ 123.1849673, 13.6228883, 0.0 ] } },
{ "type": "Feature", "properties": { "Name": "Right to Gen. Luna St." }, "geometry": { "type": "Point", "coordinates": [ 123.184501, 13.6230062, 0.0 ] } },
{ "type": "Feature", "properties": { "Name": "Right to Kinastillohan" }, "geometry": { "type": "Point", "coordinates": [ 123.1848461, 13.6238586, 0.0 ] } },
{ "type": "Feature", "properties": { "Name": "Right to Angeles St." }, "geometry": { "type": "Point", "coordinates": [ 123.1852578, 13.6236642, 0.0 ] } },
{ "type": "Feature", "properties": { "Name": "Right to Prieto St." }, "geometry": { "type": "Point", "coordinates": [ 123.1851433, 13.6220324, 0.0 ] } },
{ "type": "Feature", "properties": { "Name": "Right to Gen. Luna St." }, "geometry": { "type": "Point", "coordinates": [ 123.1842641, 13.6221057, 0.0 ] } },
{ "type": "Feature", "properties": { "Name": "Right to P.Burgos St." }, "geometry": { "type": "Point", "coordinates": [ 123.1849918, 13.6242933, 0.0 ] } },
{ "type": "Feature", "properties": { "Name": "Right to Elias Angeles St." }, "geometry": { "type": "Point", "coordinates": [ 123.1855289, 13.6242353, 0.0 ] } },
{ "type": "Feature", "properties": { "Name": "Right to Caceres St." }, "geometry": { "type": "Point", "coordinates": [ 123.1853786, 13.6215422, 0.0 ] } },
{ "type": "Feature", "properties": { "Name": "Right to Gen. Luna St." }, "geometry": { "type": "Point", "coordinates": [ 123.1841188, 13.6212934, 0.0 ] } },
{ "type": "Feature", "properties": { "Name": "Left to P.Burgos St." }, "geometry": { "type": "Point", "coordinates": [ 123.1848681, 13.6244082, 0.0 ] } },
{ "type": "Feature", "properties": { "Name": "Left to J.Hernandez Ave." }, "geometry": { "type": "Point", "coordinates": [ 123.1841922, 13.624669, 0.0 ] } },
{ "type": "Feature", "properties": { "Name": "Going to Zamora Underpass" }, "geometry": { "type": "Point", "coordinates": [ 123.1832197, 13.6206453, 0.0 ] } },
{ "type": "Feature", "properties": { "Name": "Left to Gen.Luna Street" }, "geometry": { "type": "Point", "coordinates": [ 123.1840574, 13.6206967, 0.0 ] } },
{ "type": "Feature", "properties": { "Name": "End of Route - Heads to San Isidro Dumpsite" }, "geometry": { "type": "Point", "coordinates": [ 123.1941016, 13.6217809, 0.0 ] } }
]
}
