{
 "type": "FeatureCollection",
 "name": "AREA – 4 (Daily)",
 "features": [
  {
   "type": "Feature",
   "properties": {
    "name": "Route1",
    "kml_order": 0
   },
   "geometry": {
    "type": "LineString",
    "coordinates": [
     [
      123.1890775760261,
      13.62720046985306
     ],
     [
      123.1894725064387,
      13.62698642404639
     ],
     [
      123.1897304222945,
      13.62682592906374
     ],
     [
      123.1897834825348,
      13.6267874487619
     ],
     [
      123.1897551485416,
      13.62673972400127
     ],
     [
      123.1891255343052,
      13.62577272625908
     ],
     [
      123.1885649615473,
      13.62488894692799
     ],
     [
      123.1881074347688,
      13.62413086136496
     ],
     [
      123.1877822405079,
      13.623570587019
     ],
     [
      123.1876354498992,
      13.62324668384993
     ],
     [
      123.1875488430413,
      13.62304094771069
     ],
     [
      123.1875370896474,
      13.62299244747882
     ],
     [
      123.1875466404229,
      13.62297348247059
     ],
     [
      123.1875791249342,
      13.62296440158502
     ],
     [
      123.1876254580854,
      13.62295698205547
     ],
     [
      123.1883775910671,
      13.62284263808846
     ],
     [
      123.1891083539158,
      13.62275420951924
     ],
     [
      123.1898589962654,
      13.62264584005457
     ],
     [
      123.1898799227372,
      13.62265450447329
     ],
     [
      123.1899269031219,
      13.62284649214228
     ],
     [
      123.1899921670199,
      13.6231696576642
     ],
     [
      123.1900505056157,
      13.62375454217496
     ],
     [
      123.1900948728579,
      13.62404951568849
     ],
     [
      123.1901041860901,
      13.62409794075211
     ],
     [
      123.1900603526052,
      13.62351784515002
     ],
     [
      123.190023545353,
      13.62315505151476
     ],
     [
      123.1899775533283,
      13.62293919961773
     ],
     [
      123.1899392079305,
      13.62276101844643
     ],
     [
      123.1899159340038,
      13.62268070614986
     ],
     [
      123.1899229163162,
      13.62266052921982
     ],
     [
      123.1899445083481,
      13.62264869746817
     ],
     [
      123.190026375409,
      13.62263727846542
     ],
     [
      123.1909250462213,
      13.62252077487915
     ],
     [
      123.1916018199406,
      13.62241704833257
     ],
     [
      123.1919316126478,
      13.62237255238709
     ],
     [
      123.1934385903262,
      13.62214892953125
     ],
     [
      123.1951254015352,
      13.62188581094609
     ],
     [
      123.1992868175927,
      13.62129513109302
     ],
     [
      123.2001871523304,
      13.6211749518152
     ],
     [
      123.2006554608615,
      13.62108253432053
     ],
     [
      123.2007463460872,
      13.62105370539707
     ],
     [
      123.2007479246241,
      13.621051514852
     ],
     [
      123.2008451301973,
      13.62099190729454
     ],
     [
      123.2008447354699,
      13.62098974542261
     ],
     [
      123.200869440475,
      13.62098323792945
     ],
     [
      123.2008706972749,
      13.62098134230114
     ],
     [
      123.2009115723805,
      13.62093995815511
     ],
     [
      123.2009882410655,
      13.62089278133021
     ],
     [
      123.2010513151662,
      13.62089946995278
     ],
     [
      123.2010505391176,
      13.62089989904738
     ],
     [
      123.201109303093,
      13.62092371963108
     ],
     [
      123.201147572769,
      13.62095997763844
     ],
     [
      123.2011696161236,
      13.62100934631122
     ],
     [
      123.2011818454511,
      13.62106285792996
     ],
     [
      123.2011722279306,
      13.62112863551099
     ],
     [
      123.2011461391181,
      13.62117608849532
     ],
     [
      123.201084577498,
      13.62119793885715
     ],
     [
      123.2010239649483,
      13.62120371205344
     ],
     [
      123.2010191169477,
      13.62120385377409
     ],
     [
      123.2009581578419,
      13.62119665868575
     ],
     [
      123.2009185022451,
      13.6211765033276
     ],
     [
      123.2008880705629,
      13.62116215607454
     ],
     [
      123.2008864796216,
      13.62116221743815
     ],
     [
      123.2008018746645,
      13.6211622560315
     ],
     [
      123.2007093991748,
      13.6211640056016
     ],
     [
      123.200596707608,
      13.62117832027694
     ],
     [
      123.2004531613242,
      13.62119388515766
     ],
     [
      123.2002791284136,
      13.62121320999143
     ],
     [
      123.2000436246815,
      13.621250829964
     ],
     [
      123.1998526776434,
      13.62126989257639
     ],
     [
      123.1994906630006,
      13.62130738967765
     ],
     [
      123.1991405071051,
      13.62137635559923
     ],
     [
      123.1991263342311,
      13.62144454400897
     ],
     [
      123.1991514872733,
      13.62153022292169
     ],
     [
      123.1991520812203,
      13.62154030651271
     ],
     [
      123.1996195537086,
      13.62474398007635
     ],
     [
      123.1996814431815,
      13.625543349592
     ],
     [
      123.1996862736037,
      13.62578168108242
     ],
     [
      123.1996721035776,
      13.62589245310035
     ],
     [
      123.1996424214792,
      13.62598812671979
     ],
     [
      123.1995223512378,
      13.6262176303641
     ],
     [
      123.1994004092012,
      13.62637903745403
     ],
     [
      123.1990103066111,
      13.62685104963798
     ],
     [
      123.1987722602363,
      13.62711930068547
     ],
     [
      123.1986306535315,
      13.62728652221664
     ],
     [
      123.1985692811898,
      13.62736267586677
     ],
     [
      123.1985317815126,
      13.6273764249893
     ],
     [
      123.1985007756435,
      13.62737939332174
     ],
     [
      123.1985504326217,
      13.62726508913388
     ],
     [
      123.1989078680106,
      13.62686186763066
     ],
     [
      123.1991760702592,
      13.62654118560545
     ],
     [
      123.1993273852786,
      13.62637294821132
     ],
     [
      123.1994383269356,
      13.62619822765247
     ],
     [
      123.199509469647,
      13.626050809396
     ],
     [
      123.1995890464996,
      13.62583069786537
     ],
     [
      123.199650074496,
      13.62571449058452
     ],
     [
      123.1996589375644,
      13.62557155329666
     ],
     [
      123.1996513065836,
      13.62541443996722
     ],
     [
      123.1996245785303,
      13.62498545153934
     ],
     [
      123.1996061956379,
      13.62482288805435
     ],
     [
      123.1996024288705,
      13.62479195432409
     ],
     [
      123.1995717043593,
      13.62449750046386
     ],
     [
      123.1995456496164,
      13.62422780723271
     ],
     [
      123.1998930857258,
      13.6240825494456
     ],
     [
      123.200326936959,
      13.62390567978459
     ],
     [
      123.2004506788067,
      13.62384161199748
     ],
     [
      123.2004552071986,
      13.62383761580825
     ],
     [
      123.2005215826771,
      13.62379704709265
     ],
     [
      123.2005557984206,
      13.62375244566006
     ],
     [
      123.2005613684885,
      13.62366945463871
     ],
     [
      123.2005608361357,
      13.62366606629022
     ],
     [
      123.2004577640168,
      13.62229033453048
     ],
     [
      123.2004377554047,
      13.62214651205274
     ],
     [
      123.2003984303597,
      13.62205444623792
     ],
     [
      123.2003488176677,
      13.62197221746632
     ],
     [
      123.2002965789484,
      13.62189619479646
     ],
     [
      123.2002895499182,
      13.62188995934316
     ],
     [
      123.2002371008475,
      13.62182480509833
     ],
     [
      123.2002350714262,
      13.62182016448332
     ],
     [
      123.2001997695868,
      13.62177492512804
     ],
     [
      123.2001571015069,
      13.62174155577015
     ],
     [
      123.200093086616,
      13.62173799367257
     ],
     [
      123.1999902031515,
      13.62174340036227
     ],
     [
      123.1998233306245,
      13.621764823331
     ],
     [
      123.1994919581699,
      13.6217996459002
     ],
     [
      123.1992408576391,
      13.62182536480364
     ],
     [
      123.1992070721436,
      13.62183585542654
     ],
     [
      123.1992857871782,
      13.62232105964087
     ],
     [
      123.1993732120283,
      13.6228830355884
     ],
     [
      123.1994779925688,
      13.62361085006384
     ],
     [
      123.1995384017919,
      13.62415067560541
     ],
     [
      123.1995948891621,
      13.62453724326039
     ],
     [
      123.1996062030748,
      13.62472510340458
     ],
     [
      123.1996104193706,
      13.62478267546094
     ],
     [
      123.1996297707531,
      13.62478838571938
     ],
     [
      123.2009201159267,
      13.62423622226568
     ],
     [
      123.2010036558214,
      13.62417977082228
     ],
     [
      123.2009946357839,
      13.62399203880332
     ],
     [
      123.2009900975861,
      13.62349580368426
     ],
     [
      123.2009908854359,
      13.62277090968009
     ],
     [
      123.2010013717787,
      13.62161688581859
     ],
     [
      123.2009847778758,
      13.62132720475279
     ],
     [
      123.200965230325,
      13.62126898181924
     ],
     [
      123.2009442767242,
      13.62121716950785
     ],
     [
      123.2008936091787,
      13.62114738925155
     ],
     [
      123.2008788801217,
      13.6210990197277
     ],
     [
      123.2008778476875,
      13.62109796742631
     ],
     [
      123.2008662842221,
      13.62103717765516
     ],
     [
      123.2008671511988,
      13.62103286586173
     ],
     [
      123.2008864458431,
      13.6209717413808
     ],
     [
      123.2008863411089,
      13.62096874512358
     ],
     [
      123.2008889605249,
      13.62096274003309
     ],
     [
      123.2009504969887,
      13.62091854128892
     ],
     [
      123.2010038440767,
      13.62090772889848
     ],
     [
      123.2010841182149,
      13.6209159006411
     ],
     [
      123.201127084745,
      13.62094989791212
     ],
     [
      123.2011605539679,
      13.62098490714099
     ],
     [
      123.2011826286173,
      13.62103117438875
     ],
     [
      123.2011751039205,
      13.62110665045699
     ],
     [
      123.201145075429,
      13.62115404483872
     ],
     [
      123.2011168228912,
      13.62117495777732
     ],
     [
      123.2011069027688,
      13.62119651892043
     ],
     [
      123.2010871727509,
      13.62125661687022
     ],
     [
      123.2010758517328,
      13.62132554338785
     ],
     [
      123.2010699561123,
      13.62143064112983
     ],
     [
      123.2010579734012,
      13.62196844075394
     ],
     [
      123.2010654823055,
      13.62238216016697
     ],
     [
      123.2010530696955,
      13.62272479717402
     ],
     [
      123.201052488547,
      13.62324717608065
     ],
     [
      123.2010596094935,
      13.62384210321983
     ],
     [
      123.2010582774954,
      13.62406383180371
     ],
     [
      123.2010564856439,
      13.62440351718475
     ],
     [
      123.201056607506,
      13.62476909208557
     ],
     [
      123.2010570266138,
      13.62516113486458
     ],
     [
      123.2010361585833,
      13.62588867211013
     ],
     [
      123.2009982668039,
      13.62610096745252
     ],
     [
      123.2009451687439,
      13.6262865949165
     ],
     [
      123.2008782689441,
      13.62643620385425
     ],
     [
      123.2008039413488,
      13.62663791156178
     ],
     [
      123.200680577718,
      13.62685717599854
     ],
     [
      123.2003873173879,
      13.62721991729514
     ],
     [
      123.2001518422115,
      13.62750666912446
     ],
     [
      123.1997549554083,
      13.62797304620194
     ],
     [
      123.1995400057167,
      13.628224507303
     ],
     [
      123.1993059252004,
      13.62850107498653
     ],
     [
      123.1982158431525,
      13.62977681758573
     ],
     [
      123.1977601171309,
      13.63033880610717
     ],
     [
      123.1972462650466,
      13.63092898030961
     ],
     [
      123.1968461100719,
      13.6313960880469
     ],
     [
      123.196609475633,
      13.63162876104347
     ]
    ]
   }
  },
  {
   "type": "Feature",
   "properties": {
    "name": "Blumentritt",
    "kml_order": 1
   },
   "geometry": {
    "type": "Point",
    "coordinates": [
     123.1895551126886,
     13.62640230384329
    ]
   }
  },
  {
   "type": "Feature",
   "properties": {
    "name": "Start to Colgante Bridge",
    "kml_order": 2
   },
   "geometry": {
    "type": "Point",
    "coordinates": [
     123.1891072517014,
     13.6272163468705
    ]
   }
  },
  {
   "type": "Feature",
   "properties": {
    "name": "Panganiban",
    "kml_order": 3
   },
   "geometry": {
    "type": "Point",
    "coordinates": [
     123.1875368324891,
     13.62294793589241
    ]
   }
  },
  {
   "type": "Feature",
   "properties": {
    "name": "Palomares/ MPC",
    "kml_order": 4
   },
   "geometry": {
    "type": "Point",
    "coordinates": [
     123.1900348842746,
     13.62330776203908
    ]
   }
  },
  {
   "type": "Feature",
   "properties": {
    "name": "Panganiban",
    "kml_order": 5
   },
   "geometry": {
    "type": "Point",
    "coordinates": [
     123.1900015851576,
     13.62262528679566
    ]
   }
  },
  {
   "type": "Feature",
   "properties": {
    "name": "BFP",
    "kml_order": 6
   },
   "geometry": {
    "type": "Point",
    "coordinates": [
     123.1995928475642,
     13.62485636872542
    ]
   }
  },
  {
   "type": "Feature",
   "properties": {
    "name": "End of Route - Heads to San Isidro Dumpsite",
    "kml_order": 7
   },
   "geometry": {
    "type": "Point",
    "coordinates": [
     123.1966747393072,
     13.63158705247712
    ]
   }
  },
  {
   "type": "Feature",
   "properties": {
    "name": "Route2",
    "kml_order": 8
   },
   "geometry": {
    "type": "LineString",
    "coordinates": [
     [
      123.1963222218673,
      13.63181374785539
     ],
     [
      123.1965125878683,
      13.63163947921372
     ],
     [
      123.1966674120529,
      13.63149488011903
     ],
     [
      123.196933741355,
      13.63120266204171
     ],
     [
      123.1970958500583,
      13.63098879049628
     ],
     [
      123.1971424941353,
      13.63093191903825
     ],
     [
      123.1969244578433,
      13.63074289515681
     ],
     [
      123.1965501038797,
      13.63042273306682
     ],
     [
      123.1964944318738,
      13.63037027433718
     ],
     [
      123.1964428347107,
      13.63032323273107
     ],
     [
      123.1964092861473,
      13.63028638799997
     ],
     [
      123.1964312537408,
      13.630247299861
     ],
     [
      123.1964325852014,
      13.63024595492391
     ],
     [
      123.1964901291087,
      13.6301949136146
     ],
     [
      123.1964939879694,
      13.63019095918066
     ],
     [
      123.1965521348766,
      13.63014957999704
     ],
     [
      123.1965558262416,
      13.63014336401043
     ],
     [
      123.1967271072624,
      13.63002138136623
     ],
     [
      123.1968648709758,
      13.62993772723602
     ],
     [
      123.1968808374034,
      13.62993075568505
     ],
     [
      123.1969344819164,
      13.62994592004422
     ],
     [
      123.1969951116739,
      13.62999329574934
     ],
     [
      123.1971117563277,
      13.63008740125671
     ],
     [
      123.1973021113533,
      13.63026998823049
     ],
     [
      123.1974551439616,
      13.63041280757741
     ],
     [
      123.1975218639068,
      13.63047878794639
     ],
     [
      123.1975722469762,
      13.63052573283922
     ],
     [
      123.196786687397,
      13.63145878676723
     ],
     [
      123.1962175373741,
      13.63095566950498
     ],
     [
      123.1959433230714,
      13.63070426919849
     ],
     [
      123.1948886854892,
      13.62983522358593
     ],
     [
      123.1946788391507,
      13.62971130659234
     ],
     [
      123.1945094503093,
      13.62963510915662
     ],
     [
      123.1942523600148,
      13.62957468107376
     ],
     [
      123.1937533736174,
      13.62951235624026
     ],
     [
      123.1933071423621,
      13.62945497982555
     ],
     [
      123.1927331267715,
      13.62934165189955
     ],
     [
      123.1926478332917,
      13.62931799885413
     ],
     [
      123.1924481755574,
      13.62923078955789
     ],
     [
      123.1922874048744,
      13.6291250455601
     ],
     [
      123.1922783477354,
      13.62911677008981
     ],
     [
      123.191749177608,
      13.62872924263125
     ],
     [
      123.1911997995978,
      13.62830847925685
     ],
     [
      123.1907271582246,
      13.62791939624607
     ],
     [
      123.1906051684099,
      13.62780443593405
     ],
     [
      123.1903887958383,
      13.62759272835772
     ],
     [
      123.1901665412312,
      13.62732771787893
     ],
     [
      123.1898408927424,
      13.62690049948876
     ],
     [
      123.1895769600536,
      13.6264934113579
     ],
     [
      123.1892275548221,
      13.62595905064189
     ],
     [
      123.1889087649356,
      13.62548792664956
     ],
     [
      123.1884837431924,
      13.62478243281869
     ],
     [
      123.1879958852923,
      13.62396501953789
     ],
     [
      123.1878238999076,
      13.62364285886201
     ],
     [
      123.1877008849288,
      13.6234220667041
     ],
     [
      123.1876010059618,
      13.62321062223588
     ],
     [
      123.1875286061579,
      13.623064932963
     ],
     [
      123.1875065968107,
      13.62300768138911
     ],
     [
      123.187521142332,
      13.62297336511608
     ],
     [
      123.1876018961101,
      13.6229626431953
     ],
     [
      123.187695515178,
      13.62294588105597
     ],
     [
      123.1878529530808,
      13.62292790473738
     ],
     [
      123.1878713483808,
      13.62292606802304
     ],
     [
      123.1879947793688,
      13.62291010150009
     ],
     [
      123.18800302087,
      13.62290680643706
     ],
     [
      123.1880629646341,
      13.62291365475461
     ],
     [
      123.1882211050157,
      13.62320700805428
     ],
     [
      123.1884501473258,
      13.62362150289567
     ],
     [
      123.1886543342439,
      13.62397050344467
     ],
     [
      123.1888580104245,
      13.6243405981501
     ],
     [
      123.1891222565657,
      13.62476284960721
     ],
     [
      123.1894701984571,
      13.62535468469826
     ],
     [
      123.1896820603963,
      13.62572326811456
     ],
     [
      123.1897227476179,
      13.62582023550158
     ],
     [
      123.1899666061608,
      13.6257818659254
     ],
     [
      123.1906017511368,
      13.62572264962544
     ],
     [
      123.191094318191,
      13.62566429413042
     ],
     [
      123.1929485716898,
      13.6254840485318
     ],
     [
      123.1952223442928,
      13.62528103703501
     ],
     [
      123.1953226248998,
      13.6258517941268
     ],
     [
      123.1958085106191,
      13.62577928391615
     ],
     [
      123.1964152601862,
      13.62568844626821
     ],
     [
      123.1970470723023,
      13.62561865754428
     ],
     [
      123.1975974073825,
      13.62555381981214
     ],
     [
      123.1976575655259,
      13.62559545493203
     ],
     [
      123.1976633511936,
      13.62560524304275
     ],
     [
      123.1976899220879,
      13.62566465920105
     ],
     [
      123.1976958762344,
      13.62574387992465
     ],
     [
      123.1976950671615,
      13.6258280705031
     ],
     [
      123.197690910611,
      13.62594238987869
     ],
     [
      123.1976695105827,
      13.62604532641463
     ],
     [
      123.1976470742664,
      13.62613010167148
     ],
     [
      123.197596175317,
      13.62624161101314
     ],
     [
      123.1975945541837,
      13.62624543654821
     ],
     [
      123.1975263171032,
      13.62636036259567
     ],
     [
      123.197273805223,
      13.62669476731315
     ],
     [
      123.1965687472368,
      13.62750563677787
     ],
     [
      123.1962075290199,
      13.62718132750449
     ],
     [
      123.1968042127122,
      13.62644575673533
     ],
     [
      123.1970356843405,
      13.62617684190513
     ],
     [
      123.1970708419152,
      13.62610860974475
     ],
     [
      123.1970697022719,
      13.62609335392771
     ],
     [
      123.1963517015574,
      13.6261853868125
     ],
     [
      123.1956800206205,
      13.62628408691579
     ],
     [
      123.1953876447797,
      13.62630609143597
     ],
     [
      123.1953586510021,
      13.62630511494354
     ],
     [
      123.1951182682786,
      13.62462655950872
     ],
     [
      123.1948758841718,
      13.62304048510627
     ],
     [
      123.1947479729349,
      13.62210713056324
     ],
     [
      123.1947309561155,
      13.62199540965329
     ],
     [
      123.1940998164136,
      13.62209116655757
     ],
     [
      123.1937033877797,
      13.61962557418104
     ],
     [
      123.1911733737863,
      13.61988190783919
     ],
     [
      123.1891942006272,
      13.62044061775677
     ]
    ]
   }
  },
  {
   "type": "Feature",
   "properties": {
    "name": "Starting point at Jollibee (Olivan)",
    "kml_order": 9
   },
   "geometry": {
    "type": "Point",
    "coordinates": [
     123.1962268179953,
     13.63171374211897
    ]
   }
  },
  {
   "type": "Feature",
   "properties": {
    "name": "Starting point at Fordham St.",
    "kml_order": 10
   },
   "geometry": {
    "type": "Point",
    "coordinates": [
     123.1985472658296,
     13.62835019177669
    ]
   }
  },
  {
   "type": "Feature",
   "properties": {
    "name": "End of Route - Heads to San Isidro Dumpsite",
    "kml_order": 11
   },
   "geometry": {
    "type": "Point",
    "coordinates": [
     123.1893068788421,
     13.62041510517873
    ]
   }
  },
  {
   "type": "Feature",
   "properties": {
    "name": "Route3",
    "kml_order": 12
   },
   "geometry": {
    "type": "LineString",
    "coordinates": [
     [
      123.1984896121941,
      13.62846623759979
     ],
     [
      123.1987772636205,
      13.62811168555107
     ],
     [
      123.1993964198751,
      13.62731589787562
     ],
     [
      123.1998328008475,
      13.62683174426939
     ],
     [
      123.1999716571005,
      13.62666005109337
     ],
     [
      123.200068360404,
      13.62653181505865
     ],
     [
      123.2001588410344,
      13.62636829725408
     ],
     [
      123.2002249026456,
      13.6262154632868
     ],
     [
      123.2002551913252,
      13.62611378722495
     ],
     [
      123.2001421465306,
      13.6260682468297
     ],
     [
      123.1998342032345,
      13.62596152171646
     ],
     [
      123.1996363595354,
      13.62589817117351
     ],
     [
      123.1996851289159,
      13.62561500608283
     ],
     [
      123.1996795713601,
      13.625464396068
     ],
     [
      123.1996636425612,
      13.62523543293933
     ],
     [
      123.199663715579,
      13.62522820822768
     ],
     [
      123.1996337692833,
      13.62497251972572
     ],
     [
      123.1996099438784,
      13.62472723752547
     ],
     [
      123.199572254219,
      13.62431595126285
     ],
     [
      123.1995695212982,
      13.62421630516526
     ],
     [
      123.1998436511938,
      13.62408891795368
     ],
     [
      123.2000739655099,
      13.62398956988888
     ],
     [
      123.2001092433927,
      13.62396300824016
     ],
     [
      123.1999200230578,
      13.62279558028123
     ],
     [
      123.1998483727958,
      13.62230912461706
     ],
     [
      123.1997688278248,
      13.62180569587101
     ],
     [
      123.1997601837657,
      13.62176626206749
     ],
     [
      123.1992044066161,
      13.6218341014384
     ],
     [
      123.1991218722911,
      13.6213469132793
     ],
     [
      123.1959776481699,
      13.62182365689317
     ],
     [
      123.1947466250903,
      13.62199534962908
     ],
     [
      123.1951780997411,
      13.62489401839896
     ],
     [
      123.1954263685675,
      13.6264496783828
     ],
     [
      123.1954566868963,
      13.62660078406978
     ],
     [
      123.1965448459618,
      13.62749015194956
     ],
     [
      123.1958857781363,
      13.62827074001688
     ],
     [
      123.195735761278,
      13.62856814140789
     ],
     [
      123.1956436169481,
      13.62867695945049
     ],
     [
      123.1955437587425,
      13.62877056104388
     ],
     [
      123.1954353442079,
      13.6288421423327
     ],
     [
      123.1950242221285,
      13.62902000482252
     ],
     [
      123.1944201902779,
      13.6291511257736
     ],
     [
      123.1943015532803,
      13.62916437032625
     ],
     [
      123.1942135215201,
      13.62915515515764
     ],
     [
      123.1940575303707,
      13.6291255800562
     ],
     [
      123.1935833579576,
      13.62905821674049
     ],
     [
      123.1931528455067,
      13.62896907473504
     ],
     [
      123.1927884791643,
      13.62891128608825
     ],
     [
      123.1926528306127,
      13.62887174420645
     ],
     [
      123.1924840024864,
      13.62880269618011
     ],
     [
      123.1923144809897,
      13.62868224111885
     ],
     [
      123.1919712612008,
      13.62836699655557
     ],
     [
      123.1919284264316,
      13.62834049918883
     ],
     [
      123.1921018649869,
      13.62823072639828
     ],
     [
      123.1922193085852,
      13.6281627644099
     ],
     [
      123.1923139397457,
      13.62809104917411
     ],
     [
      123.1923195216172,
      13.62808562720764
     ],
     [
      123.192450076029,
      13.62795464831599
     ],
     [
      123.1924502551474,
      13.62795191030169
     ],
     [
      123.1925821979201,
      13.62780759231073
     ],
     [
      123.1926380273967,
      13.62775534594391
     ],
     [
      123.1926499893437,
      13.6277433358658
     ],
     [
      123.1927656648123,
      13.62762368147339
     ],
     [
      123.1927740450155,
      13.62761800416039
     ],
     [
      123.1930527125528,
      13.62740043845408
     ],
     [
      123.1932070634333,
      13.62729330367508
     ],
     [
      123.193314405996,
      13.62724650949803
     ],
     [
      123.1935632246234,
      13.62717111845956
     ],
     [
      123.194814516097,
      13.62674893646148
     ],
     [
      123.1952161706628,
      13.62839624241757
     ],
     [
      123.1941579103416,
      13.62868325281303
     ],
     [
      123.1937659543197,
      13.62712240365467
     ],
     [
      123.1932163984603,
      13.62730472847578
     ],
     [
      123.1933693019016,
      13.62764801580833
     ],
     [
      123.1931636324029,
      13.62777328369257
     ],
     [
      123.1929270852098,
      13.62796868114008
     ],
     [
      123.1928759451098,
      13.6280345415306
     ],
     [
      123.1927235253699,
      13.62817210929668
     ],
     [
      123.1926242633505,
      13.62827141398277
     ],
     [
      123.1924905420488,
      13.6283808370277
     ],
     [
      123.1923245166926,
      13.628515106936
     ],
     [
      123.1922497184417,
      13.62856783557854
     ],
     [
      123.1922172595983,
      13.62858658459941
     ],
     [
      123.1924470824558,
      13.62875199922297
     ],
     [
      123.1925199673192,
      13.62879348565411
     ],
     [
      123.1926267277556,
      13.62882616334543
     ],
     [
      123.192681391268,
      13.62884590971497
     ],
     [
      123.1927757668322,
      13.62886024398106
     ],
     [
      123.1928621384899,
      13.62887824722885
     ],
     [
      123.1928993625767,
      13.62888572341412
     ],
     [
      123.1929269344638,
      13.62882926391521
     ],
     [
      123.1929408420409,
      13.62873305468053
     ],
     [
      123.1929727889563,
      13.62860649766416
     ],
     [
      123.1929948819846,
      13.62853514409974
     ],
     [
      123.1930328203904,
      13.62844840672171
     ],
     [
      123.1930793373513,
      13.62837852973104
     ],
     [
      123.1931495610789,
      13.62830660146814
     ],
     [
      123.1932298649441,
      13.62825681052962
     ],
     [
      123.1933454625786,
      13.62820170108023
     ],
     [
      123.1934657216498,
      13.62813373463514
     ],
     [
      123.1935342288902,
      13.62809112720574
     ],
     [
      123.1930396345728,
      13.62691571258374
     ],
     [
      123.1941824673359,
      13.62654578078807
     ],
     [
      123.1947207903173,
      13.62639290079492
     ],
     [
      123.1947687107427,
      13.62638708429233
     ],
     [
      123.1946934439282,
      13.62602748839597
     ],
     [
      123.1934595193583,
      13.62627826602231
     ],
     [
      123.1928152350097,
      13.62644978280059
     ],
     [
      123.1924940041563,
      13.62654379931966
     ],
     [
      123.1921087266559,
      13.62671720976035
     ],
     [
      123.1919485389375,
      13.62615980518551
     ],
     [
      123.1930458830354,
      13.62592328133167
     ],
     [
      123.1936372815397,
      13.62584623844277
     ],
     [
      123.1944078313877,
      13.62572220134184
     ],
     [
      123.1946334586648,
      13.62568504447597
     ]
    ]
   }
  },
  {
   "type": "Feature",
   "properties": {
    "name": "Starting point at Fordham St.",
    "kml_order": 13
   },
   "geometry": {
    "type": "Point",
    "coordinates": [
     123.1985010021746,
     13.62843153602588
    ]
   }
  },
  {
   "type": "Feature",
   "properties": {
    "name": "End of Route - Heads to San Isidro Dumpsite",
    "kml_order": 14
   },
   "geometry": {
    "type": "Point",
    "coordinates": [
     123.19458165012,
     13.62570930065299
    ]
   }
  },
  {
   "type": "Feature",
   "properties": {
    "name": "Route4",
    "kml_order": 15
   },
   "geometry": {
    "type": "LineString",
    "coordinates": [
     [
      123.1949916098422,
      13.62981836973964
     ],
     [
      123.1951202065831,
      13.6296040871976
     ],
     [
      123.1952346945939,
      13.62947942688694
     ],
     [
      123.1953338336798,
      13.62941028559202
     ],
     [
      123.195523763263,
      13.6293173230767
     ],
     [
      123.1956981397987,
      13.6292397331672
     ],
     [
      123.1957013021327,
      13.62923701022295
     ],
     [
      123.1958230914004,
      13.62918207970797
     ],
     [
      123.1959103665228,
      13.62914580766245
     ],
     [
      123.1959176813589,
      13.62914338650442
     ],
     [
      123.1960047827548,
      13.62911973675805
     ],
     [
      123.1961027326147,
      13.62909010472037
     ],
     [
      123.1961921543984,
      13.62909019029586
     ],
     [
      123.1962993322648,
      13.62908368858693
     ],
     [
      123.1963063194913,
      13.62908393045085
     ],
     [
      123.1963579926208,
      13.62908980815812
     ],
     [
      123.1964039578093,
      13.62909831788505
     ],
     [
      123.196271485562,
      13.62933039734568
     ],
     [
      123.196233164354,
      13.62941570152809
     ],
     [
      123.1962314542111,
      13.62941845711958
     ],
     [
      123.1961965998583,
      13.62950984403463
     ],
     [
      123.1961653128659,
      13.62959145812342
     ],
     [
      123.1961545795941,
      13.62964416578951
     ],
     [
      123.1961639473672,
      13.62966697041722
     ],
     [
      123.1961855897993,
      13.62967491472324
     ],
     [
      123.1962426012463,
      13.62967371185925
     ],
     [
      123.1963336484766,
      13.62965160409428
     ],
     [
      123.1963414640582,
      13.62964879678752
     ],
     [
      123.1965287390017,
      13.62961059676312
     ],
     [
      123.1966342251773,
      13.6295877012754
     ],
     [
      123.1966402892827,
      13.62958649292734
     ],
     [
      123.1967160906105,
      13.62956871023924
     ],
     [
      123.1967266751873,
      13.62956607419943
     ],
     [
      123.1968389208381,
      13.62954551561253
     ],
     [
      123.1968448841414,
      13.62954433059605
     ],
     [
      123.1968522642428,
      13.62954471406481
     ],
     [
      123.196952745913,
      13.62954023019596
     ],
     [
      123.1970751018916,
      13.62954465884787
     ],
     [
      123.197080997784,
      13.6295464217806
     ],
     [
      123.1971812254772,
      13.62956412233222
     ],
     [
      123.1973010512238,
      13.62961097307691
     ],
     [
      123.1973553281813,
      13.62963286404834
     ],
     [
      123.1974232701003,
      13.62964817940634
     ],
     [
      123.1974741564275,
      13.62963206430559
     ],
     [
      123.1975262938151,
      13.62960526563114
     ],
     [
      123.1975277538676,
      13.62960527230316
     ],
     [
      123.1975978260132,
      13.62953245725127
     ],
     [
      123.1976021071656,
      13.62952820929384
     ],
     [
      123.197647333332,
      13.6294708535391
     ],
     [
      123.1976835693904,
      13.62940945037086
     ],
     [
      123.1976863263804,
      13.62940404628779
     ],
     [
      123.1977078208568,
      13.62933278398807
     ],
     [
      123.1977077431114,
      13.62933006179264
     ],
     [
      123.1977302344559,
      13.62925838846873
     ],
     [
      123.1977300520441,
      13.62925308781164
     ],
     [
      123.1977355438637,
      13.62921651105321
     ],
     [
      123.1977409284659,
      13.62918468207259
     ],
     [
      123.1973998685001,
      13.62917906610296
     ],
     [
      123.1971851297471,
      13.62917041474281
     ],
     [
      123.1970239558924,
      13.6291284979416
     ],
     [
      123.1968462564364,
      13.62900925993207
     ],
     [
      123.1966815241638,
      13.62889806799585
     ],
     [
      123.1966216716337,
      13.62885851122282
     ],
     [
      123.1964006016203,
      13.62867371315372
     ],
     [
      123.1961508867262,
      13.62846955225026
     ],
     [
      123.1959849972744,
      13.62832601268449
     ],
     [
      123.1958689116227,
      13.62823718269973
     ],
     [
      123.1957646561318,
      13.6281591450668
     ],
     [
      123.1957627880538,
      13.62815676572869
     ],
     [
      123.1956002494809,
      13.62803551945426
     ],
     [
      123.1955456478872,
      13.62766480695321
     ],
     [
      123.1954820611156,
      13.62729199707805
     ],
     [
      123.1954323132297,
      13.62669172215655
     ],
     [
      123.1953987362823,
      13.62631928931128
     ],
     [
      123.1953903368615,
      13.62628704890243
     ],
     [
      123.1947881099319,
      13.62639015919165
     ],
     [
      123.1945927107037,
      13.62537560221628
     ],
     [
      123.1945967876928,
      13.62533621926734
     ],
     [
      123.1947218985011,
      13.62531632926016
     ],
     [
      123.19521315787,
      13.62526533083803
     ],
     [
      123.1951619573527,
      13.62481705816479
     ],
     [
      123.1925556268501,
      13.62514873868917
     ],
     [
      123.1924726803723,
      13.62473339127323
     ],
     [
      123.194566767713,
      13.62445212477967
     ],
     [
      123.1945477130342,
      13.62400562563241
     ],
     [
      123.192406997637,
      13.62433569091877
     ],
     [
      123.1922675870189,
      13.62332176871163
     ],
     [
      123.1936296530593,
      13.62313788837661
     ],
     [
      123.1948783418026,
      13.62294320255861
     ],
     [
      123.1948057849127,
      13.6224994977282
     ],
     [
      123.1922115951484,
      13.6228756142117
     ],
     [
      123.1900716150671,
      13.62316875448039
     ]
    ]
   }
  },
  {
   "type": "Feature",
   "properties": {
    "name": "Starting point at Ojeda St.",
    "kml_order": 16
   },
   "geometry": {
    "type": "Point",
    "coordinates": [
     123.1950171851672,
     13.62979700219182
    ]
   }
  },
  {
   "type": "Feature",
   "properties": {
    "name": "End of Route - Heads to San Isidro Dumpsite",
    "kml_order": 17
   },
   "geometry": {
    "type": "Point",
    "coordinates": [
     123.1901186856492,
     13.62318955435498
    ]
   }
  }
 ]
}