{"type":"FeatureCollection","features":[{"type":"Feature","id":"0-0","properties":{"name":"Plaza Quezon - Back to Plaza Quezon (Review)"},"geometry":{"type":"LineString","coordinates":[[123.1847971311395,13.62387571940244,0],[123.1848922390376,13.62417041995569,0],[123.1850802086233,13.62427731779429,0],[123.1855305392654,13.62419003553581,0],[123.1854019378391,13.62389617818914,0],[123.1852964149834,13.62371308921198,0],[123.1851600596337,13.62327016237378,0],[123.1850264674233,13.62287157151784,0],[123.185029628497,13.62253335741593,0],[123.1852026463848,13.62202743136746,0],[123.1849028518554,13.62204013986824,0],[123.1842498110312,13.62207334997412,0],[123.1843595836552,13.62257954719675,0],[123.1836861342723,13.62269926452127,0],[123.183554253357,13.62217135167553,0],[123.1842605053776,13.62205002530861,0],[123.1843688195366,13.62256538889655,0],[123.183694241562,13.62267939703056,0],[123.1835770086809,13.62216842666482,0],[123.1833772628967,13.62142075429609,0],[123.1832564366166,13.62097733132888,0],[123.1831636963483,13.62059496257482,0],[123.1830998381023,13.62053711445016,0],[123.1831022965163,13.6200107031728,0],[123.1835494067068,13.6201135891213,0],[123.1840174515303,13.62022439939452,0],[123.1840854844879,13.62063720216845,0],[123.1841833219117,13.62125277123483,0],[123.1843033729232,13.62205855365758,0],[123.1843949634045,13.62256589365182,0],[123.1845278388144,13.62299695456819,0],[123.1850468478985,13.62285283298062,0],[123.1850474265374,13.62254817280244,0],[123.1852351313851,13.62200670127215,0],[123.1847226587495,13.62202530511774,0],[123.1842821537565,13.62205907087183,0],[123.1843822501454,13.62257054156682,0],[123.1845071190965,13.62300132732809,0],[123.1846427681437,13.62344363310942,0],[123.1847668779739,13.62386336756405,0],[123.1848767671891,13.62420130509445,0],[123.1850976105181,13.62429783160288,0],[123.1855545289565,13.62419970229191,0],[123.1854144949095,13.62387782553645,0],[123.1853173651193,13.62369449642662,0],[123.1851882298207,13.62327723596431,0],[123.1855217551089,13.62322841375394,0],[123.1858484575029,13.62319180239033,0],[123.1858962247103,13.62413418706026,0],[123.186200076367,13.62472319839419,0],[123.1859225848998,13.62489005042703,0],[123.1857570123266,13.62455785220081,0],[123.1856001324999,13.62423449244204,0],[123.1854449367846,13.62391296087202,0],[123.1853430801184,13.62369874172601,0],[123.1852094782406,13.62329398007377,0],[123.1850699259481,13.62286113863165,0],[123.1850617284375,13.62257026147836,0],[123.1852365433774,13.62204761552852,0],[123.1854162668467,13.6215783873938,0],[123.1850082569513,13.62136671260593,0],[123.1846088438633,13.62130067443243,0],[123.1841578374509,13.62129150818852,0],[123.184054179258,13.62063879761141,0],[123.1839863119335,13.62020311640466,0],[123.1843528481878,13.62027364447077,0],[123.1847597602829,13.62049153860712,0],[123.1851100959088,13.62066741559777,0],[123.1856126287326,13.6210499282562,0],[123.1854016463296,13.62156570357435,0],[123.1858894934845,13.62173988519229,0],[123.1860608089856,13.62197211795531,0],[123.1860244267361,13.62243393276803,0],[123.1859484480638,13.62276116071283,0],[123.1859120776035,13.62316876853392,0],[123.1859415595389,13.62410250008995,0],[123.1861610740838,13.62453634694946,0],[123.1862700607999,13.6247024787956,0],[123.1869154101478,13.62529532234807,0],[123.1863426422999,13.62573723232862,0],[123.1866172987195,13.62626777886749,0],[123.1870310055661,13.62704909330959,0],[123.1866080063451,13.62731848277406,0],[123.1863590152407,13.62700318672649,0],[123.1858572073503,13.62729438459646,0],[123.1856096825815,13.62742713129089,0],[123.185396436676,13.62708217415374,0],[123.1860653100141,13.62665093942501,0],[123.1866166407703,13.62630585628753,0],[123.1873528651317,13.62584337314469,0],[123.1877912327779,13.62652991427955,0],[123.1884743493511,13.6275727902242,0],[123.1878444005284,13.62791907337193,0],[123.1876240756921,13.62804816876874,0],[123.1873087270206,13.6274966154697,0],[123.1870497635335,13.6270332286558,0],[123.1868172847641,13.62660442359967,0],[123.1866429045389,13.62627675276194,0],[123.1863502839377,13.62570845614713,0],[123.1861144610368,13.62525876973498,0],[123.1859182109227,13.62483618730512,0],[123.1857178353575,13.62444390265403,0],[123.1856074968937,13.62420961434034,0],[123.1848909903191,13.62437656526335,0],[123.1850881574048,13.62476317964972,0],[123.1853940312741,13.62529658253555,0],[123.1853623090809,13.62550065356061,0],[123.1853860852904,13.62574182904414,0],[123.1857131465469,13.62617004878964,0],[123.1850989467308,13.62661537993613,0],[123.1853672553809,13.62707918143843,0],[123.1860440315055,13.62664585799136,0],[123.1857015479673,13.62619637015656,0],[123.1851497912608,13.62548447681247,0],[123.1844498742023,13.62459415679044,0],[123.184216779552,13.62468484123409,0],[123.1840401075866,13.62390682971168,0],[123.1837244628441,13.62264843359587,0],[123.1826036662519,13.62290191176364,0],[123.1807407612882,13.62331637645474,0],[123.1804903183417,13.62255340051329,0],[123.179737554579,13.6201982997987,0],[123.178985473777,13.61771015201462,0],[123.1790131331785,13.61707068478687,0],[123.1792697512549,13.61626938274244,0],[123.1795878130579,13.61541074871124,0],[123.1797438507996,13.61452192839278,0],[123.1792864070634,13.61276782465882,0],[123.1789719345979,13.6118635171791,0],[123.1784439059884,13.61118307153662,0],[123.1774746757832,13.61034158025647,0],[123.1769050972308,13.60976443849085,0],[123.1766477558729,13.60912139144911,0],[123.1766410224514,13.6078265026957,0],[123.1766414027208,13.60587209864976,0],[123.1766777399613,13.60412102345197,0],[123.1767711621306,13.60330728173282,0],[123.1768620564041,13.60303476374097,0],[123.1770744542669,13.60275073306385,0],[123.1773778478793,13.60251172041873,0],[123.1777624495182,13.60233525038194,0],[123.1784459953634,13.6022235195745,0],[123.1789112741422,13.60216879120527,0],[123.178895215676,13.6020689683369,0],[123.1784160990396,13.6021476311527,0],[123.1778330043737,13.60225244253074,0],[123.1773167581416,13.60247285515014,0],[123.1768487333295,13.60293121817426,0],[123.1766463873643,13.60356319116756,0],[123.1765791351627,13.60471997796096,0],[123.1765738310445,13.60628083276972,0],[123.1765704708454,13.60808924967397,0],[123.1766016157816,13.60917887121544,0],[123.1769164302076,13.60986363224958,0],[123.1775157099116,13.6104395831141,0],[123.1784043643667,13.61121993197481,0],[123.1789292574456,13.61188812517711,0],[123.1792489683221,13.61281982459713,0],[123.1796824990323,13.61454724831238,0],[123.1795297831845,13.61539031532486,0],[123.1791968839431,13.6163345548612,0],[123.178940801982,13.61716716553934,0],[123.1789414851936,13.61786244197966,0],[123.1791506815528,13.61848929262909,0],[123.1798261455755,13.62066249420453,0],[123.180487114818,13.6226864098498,0],[123.1807148424074,13.62336290718288,0],[123.1818371858336,13.62308651178856,0],[123.1837492532553,13.62269613190312,0],[123.1843675659923,13.62260417506722,0],[123.1843717517897,13.62259999213541,0],[123.1847376613533,13.62388838845481,0]]}},{"type":"Feature","id":"1-0","properties":{"name":"Area 6 Start"},"geometry":{"type":"Point","coordinates":[123.1847949616655,13.62386860166549,0]}},{"type":"Feature","id":"2-0","properties":{"name":"Cathedral Church -  Proceed to Market Riverside"},"geometry":{"type":"LineString","coordinates":[[123.1876112725866,13.62806050512988,0],[123.1870093203429,13.62703882205026,0],[123.1866046063911,13.62629089031691,0],[123.1863270702315,13.62573205423602,0],[123.1859241681146,13.62491945976208,0],[123.1855818689877,13.62421349596093,0],[123.1853106763183,13.62370643906517,0],[123.1848034732039,13.62386939843101,0],[123.1845161522966,13.62298629243492,0],[123.1842709889549,13.6220497038449,0],[123.1841626835513,13.62123430931567,0],[123.1840111118498,13.62020520338498,0],[123.1843626405891,13.62025921861954,0],[123.1851318393389,13.62065336140877,0],[123.1856162881185,13.62102913677247,0]]}},{"type":"Feature","id":"3-0","properties":{"name":"Cathedral Church (Review) - Dump"},"geometry":{"type":"LineString","coordinates":[[123.1876152917386,13.62804518483334,0],[123.1870376775193,13.62703881542876,0],[123.1866258990746,13.6262622871837,0],[123.186328631302,13.62569538149084,0],[123.1868560296954,13.62530502019471,0],[123.1862299504244,13.62473191031368,0],[123.1859265813473,13.62412866910303,0],[123.1858805625299,13.62317672474877,0],[123.1859815860987,13.62253358312615,0],[123.1860485555723,13.62198717818519,0],[123.1859999547083,13.62190273386691,0],[123.185906496355,13.62178120610698,0],[123.1853787037957,13.62157537872815,0],[123.1855947594147,13.62104661857386,0],[123.1859090392417,13.6213479872795,0],[123.1862238947405,13.62185667243548,0],[123.1865528556377,13.62258999578251,0],[123.1867126132366,13.6230754997075,0],[123.1890418408281,13.62275534414817,0],[123.1897732505579,13.6226631172472,0],[123.1927769378208,13.62225051490448,0],[123.1947411425415,13.62196037291398,0],[123.1975661378127,13.62157987847489,0],[123.2007562700509,13.62111009717299,0],[123.2027464830746,13.62088906759343,0],[123.2047647841966,13.62104286965592,0],[123.2064516622865,13.62120110523212,0],[123.2072900666499,13.62124380810473,0],[123.2080201780828,13.62116538972981,0],[123.2094726208563,13.62096904779202,0],[123.2106786122995,13.62092374712012,0],[123.2117531349735,13.62112784327489,0],[123.2129929081671,13.62171252913122,0],[123.2135441179591,13.62184742920962,0],[123.2160540834834,13.62171188795467,0],[123.2183834697352,13.62153885061658,0],[123.2192189048365,13.62128260615695,0],[123.2202340740848,13.62049309272014,0],[123.2213129213042,13.6196293683226,0],[123.2228367712081,13.61879682071975,0],[123.2244746333204,13.61807508597151,0],[123.2271020081682,13.61702755908919,0],[123.2280611669956,13.61681241403058,0],[123.2297599714396,13.61742541415805,0],[123.2313971245623,13.61785004282965,0],[123.2340127266484,13.61820280122712,0],[123.2367038569243,13.61756188505719,0],[123.2384267710877,13.61711108398599,0],[123.2415650172138,13.61624601769549,0],[123.2419073877803,13.61739965674009,0],[123.2424182293235,13.61834503611063,0],[123.2424008038417,13.61918817189297,0],[123.2423481310134,13.62016232184544,0],[123.2424793905684,13.62068992550086,0],[123.2425641596072,13.62161416746943,0],[123.242794171505,13.62271504671398,0],[123.2430958428205,13.62326547568697,0],[123.2438190939061,13.62413605339792,0],[123.2446761315697,13.62553673499573,0],[123.2447456041649,13.62641520103249,0],[123.2448103180478,13.62724304139964,0],[123.2448201226998,13.6282005615569,0],[123.2461328844654,13.62802012802867,0],[123.247794532143,13.62779091678207,0],[123.2491601330847,13.62764788007366,0],[123.2503824239949,13.62762123597909,0],[123.250853770626,13.62774438601052,0],[123.2520175506253,13.62816617843017,0],[123.2536405183216,13.62875752217678,0],[123.2542257021299,13.62899427412364,0],[123.2546859607867,13.62801107154651,0],[123.2551135406279,13.62716767221032,0],[123.2553146356825,13.62642226519617,0],[123.2555319916517,13.62563578354249,0],[123.2556278629656,13.62528312588354,0],[123.2563358132343,13.62439352144588,0],[123.2572891020881,13.6231292406943,0],[123.2575783227694,13.62278772402108,0],[123.2569661164693,13.62209456983293,0],[123.2574182072348,13.62125626747755,0]]}}]}