{
 "type": "FeatureCollection",
 "name": "Area 12",
 "features": [
  {
   "type": "Feature",
   "properties": {
    "name": "Route1",
    "kml_order": 0
   },
   "geometry": {
    "type": "LineString",
    "coordinates": [
     [
      123.2136685172163,
      13.61602411545382
     ],
     [
      123.2137274081313,
      13.61660185194726
     ],
     [
      123.2137411224297,
      13.61667203711511
     ],
     [
      123.2142118054044,
      13.61660701346484
     ],
     [
      123.2172054577408,
      13.61608008669191
     ],
     [
      123.2185338583193,
      13.61585491770282
     ],
     [
      123.2185283177048,
      13.61587198530624
     ],
     [
      123.213992026712,
      13.61667054877985
     ],
     [
      123.2137614734781,
      13.616701465508
     ],
     [
      123.2134287589942,
      13.61672533767554
     ],
     [
      123.2132271392662,
      13.61671121665701
     ],
     [
      123.2130093653324,
      13.61669729926484
     ],
     [
      123.2127238909456,
      13.61664099317569
     ],
     [
      123.212453101602,
      13.61655496017102
     ],
     [
      123.2121823638722,
      13.61643708827832
     ],
     [
      123.2119221104573,
      13.61630395081355
     ],
     [
      123.2116414998868,
      13.61615880864291
     ],
     [
      123.2113630453918,
      13.61609436956099
     ],
     [
      123.2110777272717,
      13.61607196718591
     ],
     [
      123.2104799324665,
      13.61608187445766
     ],
     [
      123.210110363175,
      13.61606755038284
     ],
     [
      123.2097638380394,
      13.61637493366172
     ],
     [
      123.2093674095026,
      13.61671919597967
     ],
     [
      123.2091340283891,
      13.61710923781142
     ],
     [
      123.2091548441706,
      13.61768906940473
     ],
     [
      123.2092828106677,
      13.61800510618947
     ],
     [
      123.2093900835725,
      13.61893162510965
     ],
     [
      123.2094685598618,
      13.62094118340842
     ],
     [
      123.2076865127782,
      13.62118854576577
     ],
     [
      123.2071884688401,
      13.62124607970183
     ],
     [
      123.2047570949538,
      13.62103363315154
     ],
     [
      123.2028742798305,
      13.62086962619652
     ],
     [
      123.2022316001145,
      13.62090519423406
     ],
     [
      123.2012385347181,
      13.62107445766064
     ],
     [
      123.2010470735313,
      13.62124482491667
     ],
     [
      123.2008492558496,
      13.62119395731401
     ],
     [
      123.2008111416998,
      13.62110666528498
     ],
     [
      123.1925541092936,
      13.62230650092757
     ],
     [
      123.1865982889393,
      13.62308497809005
     ],
     [
      123.1859072160802,
      13.62319706842495
     ],
     [
      123.1859274993771,
      13.62411414177587
     ],
     [
      123.1851222398444,
      13.62429855181418
     ],
     [
      123.1844669769709,
      13.62455778101975
     ],
     [
      123.1842281285024,
      13.62468766944696
     ],
     [
      123.1837012216468,
      13.62272343667406
     ],
     [
      123.1836790341043,
      13.62268959044081
     ],
     [
      123.182022298333,
      13.62304107840508
     ],
     [
      123.1807933440505,
      13.62331479858422
     ],
     [
      123.1793880909409,
      13.62370174328641
     ],
     [
      123.1783965343475,
      13.62213094473414
     ],
     [
      123.1782095766051,
      13.62138031083189
     ],
     [
      123.1780828241082,
      13.62129172547423
     ],
     [
      123.1776716240181,
      13.62090377304392
     ],
     [
      123.1777493550377,
      13.62081457182233
     ],
     [
      123.1778792310279,
      13.62068238577489
     ],
     [
      123.1782733536844,
      13.62110718644636
     ],
     [
      123.1782974829258,
      13.62113084562248
     ],
     [
      123.178363343481,
      13.62102172017805
     ],
     [
      123.1785639406462,
      13.62130885261733
     ],
     [
      123.17857309567,
      13.62138985737879
     ],
     [
      123.1785789259029,
      13.62150785074688
     ],
     [
      123.1785791580763,
      13.62151541650756
     ],
     [
      123.1786038755249,
      13.62167742680206
     ],
     [
      123.1789409027301,
      13.62242844435461
     ],
     [
      123.1791243893795,
      13.62259815126411
     ],
     [
      123.1791954027641,
      13.62264030715081
     ],
     [
      123.1793791781169,
      13.62265485982806
     ],
     [
      123.1793685752375,
      13.62330416603914
     ],
     [
      123.1793474793871,
      13.62341904381698
     ],
     [
      123.1793006095984,
      13.62344233709449
     ],
     [
      123.1792869372129,
      13.62350750730831
     ],
     [
      123.1793461722556,
      13.62368619973911
     ],
     [
      123.1807003262835,
      13.6233010531851
     ],
     [
      123.181874217767,
      13.62304141679681
     ],
     [
      123.183612572023,
      13.62265958438739
     ],
     [
      123.1836574917758,
      13.62263925171793
     ],
     [
      123.1843612499413,
      13.62257046181158
     ],
     [
      123.1848040803937,
      13.62410263098137
     ],
     [
      123.184883035805,
      13.62418614771281
     ],
     [
      123.1849756738069,
      13.62423308777454
     ],
     [
      123.1850342857971,
      13.62425872420378
     ],
     [
      123.185139556793,
      13.62426261336597
     ],
     [
      123.1853995740645,
      13.62421491736498
     ],
     [
      123.1855492337752,
      13.62417974740518
     ],
     [
      123.1876168839892,
      13.62800817427378
     ],
     [
      123.1898146077823,
      13.62677698392839
     ],
     [
      123.1904523075686,
      13.62766441250093
     ],
     [
      123.1912480452715,
      13.62828053575285
     ],
     [
      123.192422880061,
      13.6291723955807
     ],
     [
      123.1925974698255,
      13.6292852617952
     ],
     [
      123.193027487403,
      13.62934863785391
     ],
     [
      123.1938601887571,
      13.62945767660998
     ],
     [
      123.1943442165515,
      13.629593546315
     ],
     [
      123.194920017789,
      13.6299057990095
     ],
     [
      123.1985870351081,
      13.63291019777284
     ],
     [
      123.1988850001339,
      13.63306699758629
     ],
     [
      123.1992710822564,
      13.63321990099926
     ],
     [
      123.1998053227753,
      13.63340754061585
     ],
     [
      123.2003741789931,
      13.63356090160377
     ],
     [
      123.2021927762762,
      13.63402496949341
     ],
     [
      123.2048348979271,
      13.63428714320048
     ],
     [
      123.2051226905203,
      13.63417197714608
     ],
     [
      123.2083850459936,
      13.6321931019547
     ],
     [
      123.2085086408749,
      13.63196027817594
     ],
     [
      123.208560591058,
      13.63156839061087
     ],
     [
      123.2085734237039,
      13.6313152606724
     ],
     [
      123.2085672378636,
      13.63099396663631
     ],
     [
      123.2085536144548,
      13.63078109713742
     ],
     [
      123.2085538921376,
      13.63077280792458
     ],
     [
      123.2086020963661,
      13.63056128696861
     ],
     [
      123.208638127959,
      13.63043000377589
     ],
     [
      123.2088072697505,
      13.63028920913636
     ],
     [
      123.2089446380589,
      13.63025162124836
     ],
     [
      123.2089602764145,
      13.63024440573865
     ],
     [
      123.2092365050962,
      13.63019216492265
     ],
     [
      123.2093917370216,
      13.63018758934767
     ],
     [
      123.2095291664251,
      13.63019372589232
     ],
     [
      123.2097616111635,
      13.63017663462695
     ],
     [
      123.2129814394201,
      13.62939663812012
     ],
     [
      123.2132934732531,
      13.62935952350368
     ],
     [
      123.2137266470535,
      13.62941402408518
     ],
     [
      123.2154284775232,
      13.6294948138865
     ],
     [
      123.2155904565477,
      13.62954895845282
     ],
     [
      123.2159763017869,
      13.62970288320492
     ],
     [
      123.2165463249139,
      13.62993140309489
     ],
     [
      123.2176867362264,
      13.63041879254997
     ],
     [
      123.218150401031,
      13.63073623368629
     ],
     [
      123.2201201154489,
      13.63219671196012
     ],
     [
      123.2204113156213,
      13.6323663543745
     ],
     [
      123.2208894853057,
      13.63253446651904
     ],
     [
      123.2213758007512,
      13.63262547068688
     ],
     [
      123.2217925499853,
      13.63267892569349
     ],
     [
      123.2225014763925,
      13.63259984469905
     ],
     [
      123.2244644822316,
      13.63232694698773
     ],
     [
      123.224285359616,
      13.63126474348847
     ],
     [
      123.224189612153,
      13.62984827342488
     ],
     [
      123.2241773307775,
      13.62976992547471
     ],
     [
      123.2239403680753,
      13.62991026017677
     ],
     [
      123.2238973564067,
      13.62993752833677
     ],
     [
      123.2234342215331,
      13.6298518128297
     ],
     [
      123.223084018751,
      13.62913579059369
     ],
     [
      123.2238955767687,
      13.62852731713395
     ],
     [
      123.2241367983899,
      13.62869063444384
     ],
     [
      123.2244325281097,
      13.62901647602981
     ],
     [
      123.2244961160972,
      13.62913514394243
     ],
     [
      123.2245326195652,
      13.62939859825775
     ],
     [
      123.2245493150649,
      13.62945105135872
     ],
     [
      123.2246932316274,
      13.6293672394939
     ],
     [
      123.22482734448,
      13.62939758658509
     ],
     [
      123.2250227365665,
      13.62959453463812
     ],
     [
      123.225351984353,
      13.62972207159995
     ],
     [
      123.2253827221664,
      13.630672557559
     ],
     [
      123.2253666166397,
      13.6308832111201
     ],
     [
      123.2253518383453,
      13.63093599560036
     ],
     [
      123.2252403657792,
      13.63101696330321
     ],
     [
      123.2250762893135,
      13.63107311807556
     ],
     [
      123.2249752972453,
      13.63113986381909
     ],
     [
      123.2249950927081,
      13.63132303738596
     ],
     [
      123.2250399374288,
      13.631856077869
     ],
     [
      123.2250005766153,
      13.63193540756027
     ],
     [
      123.2248547068533,
      13.63195334398802
     ],
     [
      123.2244793273632,
      13.63201495226259
     ],
     [
      123.2244238977556,
      13.63204016880149
     ],
     [
      123.2244075101478,
      13.63231344591216
     ],
     [
      123.2247139289405,
      13.63230878779404
     ]
    ]
   }
  },
  {
   "type": "Feature",
   "properties": {
    "name": "St. James Subdivision",
    "kml_order": 1
   },
   "geometry": {
    "type": "Point",
    "coordinates": [
     123.2136859564986,
     13.61639246884166
    ]
   }
  },
  {
   "type": "Feature",
   "properties": {
    "name": "Deca Homes Sabella Subd.",
    "kml_order": 2
   },
   "geometry": {
    "type": "Point",
    "coordinates": [
     123.1788999348838,
     13.62264239752227
    ]
   }
  },
  {
   "type": "Feature",
   "properties": {
    "name": "Villa Obiedo Subd.",
    "kml_order": 3
   },
   "geometry": {
    "type": "Point",
    "coordinates": [
     123.2244941316292,
     13.631563541017
    ]
   }
  },
  {
   "type": "Feature",
   "properties": {
    "name": "Route2",
    "kml_order": 4
   },
   "geometry": {
    "type": "LineString",
    "coordinates": [
     [
      123.1911828033026,
      13.64345651604616
     ],
     [
      123.191473331338,
      13.64344089532145
     ],
     [
      123.1919142408295,
      13.64340034320424
     ],
     [
      123.1917760521005,
      13.64291084401716
     ],
     [
      123.192013196037,
      13.64282624012428
     ],
     [
      123.1919541290687,
      13.64262085208823
     ],
     [
      123.1929586993564,
      13.64256961329856
     ],
     [
      123.1932317006415,
      13.64328833139852
     ],
     [
      123.1933355608256,
      13.64350975011235
     ],
     [
      123.1914711821844,
      13.64368106661388
     ],
     [
      123.1914793809946,
      13.64395782090226
     ],
     [
      123.1933859255547,
      13.64370472691776
     ],
     [
      123.1934501656611,
      13.64395210366926
     ],
     [
      123.1915239052113,
      13.64420305717298
     ],
     [
      123.1916508635334,
      13.64441522196865
     ],
     [
      123.1935533855718,
      13.64418016033711
     ],
     [
      123.1936456192517,
      13.64444359576006
     ],
     [
      123.1917895254674,
      13.64464222709422
     ],
     [
      123.191967884736,
      13.64485348335485
     ],
     [
      123.1936356068283,
      13.64466394494618
     ],
     [
      123.1937155851544,
      13.64464320375036
     ],
     [
      123.1943355401102,
      13.64420944527239
     ],
     [
      123.1947778630684,
      13.64581288845077
     ],
     [
      123.1945234463129,
      13.6457803099815
     ],
     [
      123.1941344809588,
      13.64438804561074
     ],
     [
      123.1939381342699,
      13.6445106141519
     ],
     [
      123.1942678522822,
      13.64588861646559
     ],
     [
      123.1941640415907,
      13.64590386819723
     ],
     [
      123.193991506226,
      13.64570372247891
     ],
     [
      123.1937106593661,
      13.64467627002915
     ],
     [
      123.1936734855309,
      13.64464509044778
     ],
     [
      123.193516598089,
      13.64475175845845
     ],
     [
      123.1937026003661,
      13.64554704010613
     ],
     [
      123.1934943356994,
      13.64558110133343
     ],
     [
      123.1932865491243,
      13.6457617689341
     ],
     [
      123.1932072019989,
      13.64580043971547
     ],
     [
      123.1930260940912,
      13.64582406935472
     ],
     [
      123.1929478353852,
      13.64587797729246
     ],
     [
      123.1928691417141,
      13.64609579505132
     ],
     [
      123.1928121556281,
      13.64616863831021
     ],
     [
      123.1927102604327,
      13.64615495664105
     ],
     [
      123.1925365721973,
      13.64553779508015
     ],
     [
      123.1922727292167,
      13.64544939349293
     ],
     [
      123.1919555627185,
      13.64485547385079
     ],
     [
      123.1915187456414,
      13.64421962080247
     ],
     [
      123.1914944579765,
      13.64356847591169
     ],
     [
      123.1914712993132,
      13.64347847908412
     ],
     [
      123.1911537290063,
      13.64349308979982
     ]
    ]
   }
  },
  {
   "type": "Feature",
   "properties": {
    "name": "Villa Karangahan Subd. Phase 1,2,3",
    "kml_order": 5
   },
   "geometry": {
    "type": "Point",
    "coordinates": [
     123.1921340706902,
     13.64376692590954
    ]
   }
  },
  {
   "type": "Feature",
   "properties": {
    "name": "End of Route - Heads to San Isidro Dumpsite",
    "kml_order": 6
   },
   "geometry": {
    "type": "Point",
    "coordinates": [
     123.191138569141,
     13.64343905883504
    ]
   }
  },
  {
   "type": "Feature",
   "properties": {
    "name": "TTHSUN",
    "kml_order": 7
   },
   "geometry": {
    "type": "LineString",
    "coordinates": [
     [
      123.1983334607329,
      13.62141650146667
     ],
     [
      123.1982604771645,
      13.62105082192099
     ],
     [
      123.1970573044059,
      13.62123398335534
     ],
     [
      123.196934615201,
      13.62101583754955
     ],
     [
      123.1958412180209,
      13.6187801768839
     ],
     [
      123.1955994850019,
      13.61884093934281
     ],
     [
      123.1954247719261,
      13.61893526266779
     ],
     [
      123.1964063231816,
      13.62113573155063
     ],
     [
      123.1958612865559,
      13.62122219575584
     ],
     [
      123.1949081608676,
      13.61903066698966
     ],
     [
      123.1944250006885,
      13.61920445368104
     ],
     [
      123.194223961999,
      13.61876016558428
     ],
     [
      123.195651224546,
      13.61832482539683
     ],
     [
      123.1954679243147,
      13.61788217563739
     ],
     [
      123.1954293630726,
      13.61783024134852
     ],
     [
      123.1950508173671,
      13.61805632933646
     ],
     [
      123.1947016979797,
      13.61816939447412
     ],
     [
      123.1940492770841,
      13.61835386121898
     ],
     [
      123.1938670092092,
      13.61793003609752
     ],
     [
      123.1943780760448,
      13.61778579006114
     ],
     [
      123.1950738334268,
      13.61752455059275
     ],
     [
      123.1951498864222,
      13.61737772767963
     ],
     [
      123.1951052609564,
      13.61722427836356
     ],
     [
      123.1950076663034,
      13.61713946308101
     ],
     [
      123.1948422818827,
      13.61712299414414
     ],
     [
      123.1946673238576,
      13.6172079290452
     ],
     [
      123.1943543345224,
      13.61732481113427
     ],
     [
      123.1941355971115,
      13.61738239667379
     ],
     [
      123.1938242793621,
      13.61746273485992
     ],
     [
      123.1937014238297,
      13.61750592105854
     ],
     [
      123.1936459745545,
      13.61748313188617
     ],
     [
      123.193544656281,
      13.61725923350752
     ],
     [
      123.1931999537433,
      13.61738424791474
     ],
     [
      123.1940397664738,
      13.61936080221206
     ],
     [
      123.1943616955897,
      13.619197991632
     ],
     [
      123.1953353664907,
      13.62129007715737
     ],
     [
      123.1949519268436,
      13.62139629140609
     ],
     [
      123.1940872551937,
      13.62156040286478
     ],
     [
      123.1927150156436,
      13.62175245516207
     ],
     [
      123.1923763763743,
      13.61976792874673
     ],
     [
      123.1923761740678,
      13.6197420679558
     ],
     [
      123.1937022905589,
      13.61957591198371
     ],
     [
      123.1940918940115,
      13.62205781469028
     ]
    ]
   }
  },
  {
   "type": "Feature",
   "properties": {
    "name": "Streets",
    "kml_order": 8
   },
   "geometry": {
    "type": "Point",
    "coordinates": [
     123.1950585925676,
     13.61879743395987
    ]
   }
  },
  {
   "type": "Feature",
   "properties": {
    "name": "Clupa (Starville)",
    "kml_order": 9
   },
   "geometry": {
    "type": "LineString",
    "coordinates": [
     [
      123.1919375300258,
      13.64160869340026
     ],
     [
      123.1920320265053,
      13.64144323889489
     ],
     [
      123.1920702269414,
      13.64133321615414
     ],
     [
      123.1920708753925,
      13.6410373283975
     ],
     [
      123.1916657950834,
      13.64109817897473
     ],
     [
      123.1916832925948,
      13.64130589467144
     ],
     [
      123.1910517736753,
      13.64145049037045
     ],
     [
      123.1908885493791,
      13.6406506792243
     ],
     [
      123.1933549604766,
      13.64046330702799
     ],
     [
      123.193289354115,
      13.63987012483618
     ],
     [
      123.1919351649228,
      13.63969496586742
     ],
     [
      123.1908485896556,
      13.63986030488212
     ],
     [
      123.1909038672623,
      13.64068004211084
     ],
     [
      123.192027253648,
      13.64057245256918
     ],
     [
      123.1920359347332,
      13.64103514543363
     ],
     [
      123.1934070461668,
      13.64089860686686
     ],
     [
      123.1933098002388,
      13.63988770034705
     ],
     [
      123.1919806754413,
      13.63970842207203
     ],
     [
      123.192067158249,
      13.64117397901964
     ],
     [
      123.1920671376407,
      13.64137740969943
     ],
     [
      123.1920352136665,
      13.64148923608575
     ],
     [
      123.1920113044925,
      13.64152935906259
     ],
     [
      123.1920841126101,
      13.64159529784983
     ]
    ]
   }
  },
  {
   "type": "Feature",
   "properties": {
    "name": "Clupa (Starville) TTHSU",
    "kml_order": 10
   },
   "geometry": {
    "type": "Point",
    "coordinates": [
     123.1921894159033,
     13.64066187107117
    ]
   }
  },
  {
   "type": "Feature",
   "properties": {
    "name": "Deca Northfield Subd. TTHSU",
    "kml_order": 11
   },
   "geometry": {
    "type": "Point",
    "coordinates": [
     123.1834754357754,
     13.63685170231736
    ]
   }
  },
  {
   "type": "Feature",
   "properties": {
    "name": "Deca Northfield Subd.",
    "kml_order": 12
   },
   "geometry": {
    "type": "LineString",
    "coordinates": [
     [
      123.1827254089959,
      13.63768339462311
     ],
     [
      123.1829384087749,
      13.63753322598228
     ],
     [
      123.1830588916351,
      13.63745657749411
     ],
     [
      123.1833600428926,
      13.63733112924357
     ],
     [
      123.1833980118338,
      13.63728717098009
     ],
     [
      123.1833471845521,
      13.63705323640593
     ],
     [
      123.1842370038364,
      13.6369437159487
     ],
     [
      123.1844359351191,
      13.6362199714851
     ],
     [
      123.1844149574863,
      13.63602652298458
     ],
     [
      123.184044690698,
      13.63598902431695
     ],
     [
      123.1840268354623,
      13.63599200917786
     ],
     [
      123.1840001426415,
      13.63598584085386
     ],
     [
      123.183969211779,
      13.6366451687058
     ],
     [
      123.1838774809152,
      13.63670500720568
     ],
     [
      123.1837084140102,
      13.63672607172667
     ],
     [
      123.1837108209736,
      13.63596345678098
     ],
     [
      123.1834529928855,
      13.63597474767246
     ],
     [
      123.1834227595815,
      13.6366891517685
     ],
     [
      123.1834163553974,
      13.63672342481279
     ],
     [
      123.1833365400249,
      13.63674054297024
     ],
     [
      123.1833001025852,
      13.63680216437696
     ],
     [
      123.1833182407232,
      13.63688091433952
     ],
     [
      123.1833883651191,
      13.63720631534516
     ],
     [
      123.1833925322108,
      13.63731657896256
     ],
     [
      123.1833142066769,
      13.6373480231498
     ],
     [
      123.1830940601131,
      13.63743613795002
     ],
     [
      123.1829717366709,
      13.63749790712744
     ],
     [
      123.1827632474904,
      13.63768338687778
     ]
    ]
   }
  },
  {
   "type": "Feature",
   "properties": {
    "name": "Deca Homes Sabella Subd. TTHSU",
    "kml_order": 13
   },
   "geometry": {
    "type": "LineString",
    "coordinates": [
     [
      123.1793399635448,
      13.62365735290867
     ],
     [
      123.1783759465802,
      13.6220782065592
     ],
     [
      123.1781871092534,
      13.62135438592949
     ],
     [
      123.177668058538,
      13.62089761819053
     ],
     [
      123.1778737574143,
      13.62068904094042
     ],
     [
      123.1782954077216,
      13.62112868281742
     ],
     [
      123.1783728117734,
      13.62103953684133
     ],
     [
      123.1785650410237,
      13.62131425269147
     ],
     [
      123.1785972533012,
      13.6216613974291
     ],
     [
      123.1789357336649,
      13.62241423419382
     ],
     [
      123.1791254059695,
      13.62259952202207
     ],
     [
      123.1791819237086,
      13.62262751401461
     ],
     [
      123.1793751620955,
      13.62266863644439
     ],
     [
      123.1793588981702,
      13.62338577860924
     ],
     [
      123.1792974313148,
      13.62343509102343
     ],
     [
      123.1792914810728,
      13.62348218938871
     ],
     [
      123.1792932617762,
      13.62352936926499
     ],
     [
      123.1793585913031,
      13.62367942316455
     ],
     [
      123.1792393317761,
      13.62368539409977
     ]
    ]
   }
  }
 ]
}