{
"type": "FeatureCollection",
"name": "AREA - 2 A",
"features": [
{ "type": "Feature", "properties": { "Name": "Route1" }, "geometry": { "type": "LineString", "coordinates": [ [ 123.1946265, 13.6334336, 0.0 ], [ 123.1943735, 13.6334641, 0.0 ], [ 123.1941216, 13.633495, 0.0 ], [ 123.1937733, 13.6335371, 0.0 ], [ 123.1932113, 13.6336059, 0.0 ], [ 123.1929553, 13.6336399, 0.0 ], [ 123.1925712, 13.63369, 0.0 ], [ 123.1922718, 13.6337318, 0.0 ], [ 123.192049, 13.6337663, 0.0 ], [ 123.1918218, 13.6338109, 0.0 ], [ 123.1915274, 13.6338647, 0.0 ], [ 123.1913744, 13.6338926, 0.0 ], [ 123.191128, 13.6339393, 0.0 ], [ 123.1908479, 13.6339897, 0.0 ], [ 123.1906902, 13.6340203, 0.0 ], [ 123.1905542, 13.6340469, 0.0 ], [ 123.1904609, 13.6340628, 0.0 ], [ 123.1903412, 13.6340865, 0.0 ], [ 123.1902653, 13.6340966, 0.0 ], [ 123.1902343, 13.634093, 0.0 ], [ 123.1902197, 13.6340782, 0.0 ], [ 123.1901954, 13.634029, 0.0 ], [ 123.1901507, 13.6339447, 0.0 ], [ 123.190097, 13.633827, 0.0 ], [ 123.1900228, 13.6336726, 0.0 ], [ 123.189983, 13.6335803, 0.0 ], [ 123.1899572, 13.6335184, 0.0 ], [ 123.1899469, 13.633508, 0.0 ], [ 123.1899298, 13.6335087, 0.0 ], [ 123.1899083, 13.6335161, 0.0 ], [ 123.1898182, 13.6335466, 0.0 ], [ 123.1897301, 13.633582, 0.0 ], [ 123.1896624, 13.6336043, 0.0 ], [ 123.1896102, 13.6336221, 0.0 ], [ 123.1895387, 13.6336342, 0.0 ], [ 123.1894849, 13.633641, 0.0 ], [ 123.189413, 13.6336496, 0.0 ], [ 123.1893245, 13.6336571, 0.0 ], [ 123.1892535, 13.6336608, 0.0 ], [ 123.1891933, 13.6336681, 0.0 ], [ 123.1891349, 13.6336689, 0.0 ], [ 123.1890744, 13.6336659, 0.0 ], [ 123.189015, 13.6336501, 0.0 ], [ 123.1890089, 13.6336478, 0.0 ], [ 123.1889717, 13.6336123, 0.0 ], [ 123.1889605, 13.6335606, 0.0 ], [ 123.1889459, 13.633495, 0.0 ], [ 123.1889313, 13.6333762, 0.0 ], [ 123.1889007, 13.6332198, 0.0 ], [ 123.1888707, 13.6330626, 0.0 ], [ 123.1888284, 13.6329021, 0.0 ], [ 123.1887798, 13.6327927, 0.0 ], [ 123.1887616, 13.6327512, 0.0 ], [ 123.1887533, 13.6327218, 0.0 ], [ 123.1887535, 13.6327195, 0.0 ], [ 123.1887571, 13.6326929, 0.0 ], [ 123.1887771, 13.6326756, 0.0 ], [ 123.1888928, 13.632619, 0.0 ], [ 123.1889118, 13.6326123, 0.0 ], [ 123.189013, 13.6325673, 0.0 ], [ 123.1890974, 13.6325328, 0.0 ], [ 123.1891426, 13.6325149, 0.0 ], [ 123.1892096, 13.6324826, 0.0 ], [ 123.1892853, 13.6324517, 0.0 ], [ 123.1893413, 13.6324266, 0.0 ], [ 123.1894271, 13.6323978, 0.0 ], [ 123.1894739, 13.6323753, 0.0 ], [ 123.1894857, 13.6323665, 0.0 ], [ 123.1894812, 13.6323508, 0.0 ], [ 123.1894678, 13.6323179, 0.0 ], [ 123.1893987, 13.6321905, 0.0 ], [ 123.1893415, 13.6320635, 0.0 ], [ 123.1893131, 13.6319919, 0.0 ], [ 123.1892791, 13.6319109, 0.0 ], [ 123.1892439, 13.6318377, 0.0 ], [ 123.1892325, 13.6318093, 0.0 ], [ 123.1892247, 13.6318032, 0.0 ], [ 123.1892234, 13.6318027, 0.0 ], [ 123.1892055, 13.6318003, 0.0 ], [ 123.1892031, 13.6318009, 0.0 ], [ 123.1891794, 13.6318082, 0.0 ], [ 123.1891247, 13.6318269, 0.0 ], [ 123.1890461, 13.6318609, 0.0 ], [ 123.1888329, 13.6319459, 0.0 ], [ 123.1886044, 13.6320412, 0.0 ], [ 123.1883845, 13.6321378, 0.0 ], [ 123.188173, 13.6322242, 0.0 ], [ 123.1880182, 13.6322881, 0.0 ], [ 123.1878191, 13.6323645, 0.0 ], [ 123.1877415, 13.6324, 0.0 ], [ 123.1877122, 13.6324063, 0.0 ], [ 123.1876976, 13.6324066, 0.0 ], [ 123.1876897, 13.6324143, 0.0 ], [ 123.1876817, 13.6324262, 0.0 ], [ 123.1876755, 13.6324489, 0.0 ], [ 123.1876653, 13.6324861, 0.0 ], [ 123.1876431, 13.6326345, 0.0 ], [ 123.1876029, 13.6328246, 0.0 ], [ 123.1875678, 13.6329908, 0.0 ], [ 123.1875394, 13.6331431, 0.0 ], [ 123.1874925, 13.6333728, 0.0 ], [ 123.1874571, 13.6335932, 0.0 ], [ 123.1874026, 13.6338135, 0.0 ], [ 123.1873797, 13.6339672, 0.0 ], [ 123.1873635, 13.6340849, 0.0 ], [ 123.1873594, 13.6341085, 0.0 ], [ 123.1873546, 13.6341294, 0.0 ], [ 123.1873491, 13.6341491, 0.0 ], [ 123.1873487, 13.6341564, 0.0 ], [ 123.1873488, 13.6341567, 0.0 ], [ 123.1873506, 13.6341638, 0.0 ], [ 123.1873545, 13.6341715, 0.0 ], [ 123.1873606, 13.6341795, 0.0 ], [ 123.187369, 13.6341855, 0.0 ], [ 123.1873834, 13.6341889, 0.0 ], [ 123.1874167, 13.6341906, 0.0 ], [ 123.1878733, 13.6341882, 0.0 ], [ 123.1882001, 13.6341991, 0.0 ], [ 123.1884539, 13.6342057, 0.0 ], [ 123.1887257, 13.6342163, 0.0 ], [ 123.1890171, 13.6342101, 0.0 ], [ 123.1892997, 13.6341876, 0.0 ], [ 123.1895003, 13.6341757, 0.0 ], [ 123.1897495, 13.6341347, 0.0 ], [ 123.1899878, 13.6340954, 0.0 ], [ 123.1901149, 13.6340754, 0.0 ], [ 123.1901441, 13.6340805, 0.0 ], [ 123.1901626, 13.6341026, 0.0 ], [ 123.1901662, 13.6341287, 0.0 ], [ 123.1901647, 13.6341293, 0.0 ], [ 123.1901376, 13.6341447, 0.0 ], [ 123.1898557, 13.6341902, 0.0 ], [ 123.189612, 13.6342218, 0.0 ], [ 123.1893097, 13.6342524, 0.0 ], [ 123.1890321, 13.6342708, 0.0 ], [ 123.1887547, 13.6342783, 0.0 ], [ 123.1885462, 13.6342817, 0.0 ], [ 123.1882278, 13.6342739, 0.0 ], [ 123.1875419, 13.6342541, 0.0 ], [ 123.1873269, 13.6342333, 0.0 ], [ 123.1873125, 13.6342232, 0.0 ], [ 123.1872938, 13.6342067, 0.0 ], [ 123.1872881, 13.6341804, 0.0 ], [ 123.1872935, 13.6341434, 0.0 ], [ 123.1873207, 13.6340002, 0.0 ], [ 123.1873554, 13.633832, 0.0 ], [ 123.1873967, 13.6336555, 0.0 ], [ 123.1874374, 13.6334542, 0.0 ], [ 123.1874724, 13.6332665, 0.0 ], [ 123.187512, 13.6331045, 0.0 ], [ 123.1875385, 13.6329377, 0.0 ], [ 123.1876113, 13.6325889, 0.0 ], [ 123.1876779, 13.6322517, 0.0 ], [ 123.1877449, 13.6319506, 0.0 ], [ 123.1878017, 13.6317241, 0.0 ], [ 123.1878282, 13.6315972, 0.0 ], [ 123.1878351, 13.631442, 0.0 ], [ 123.1878479, 13.6311855, 0.0 ], [ 123.1878475, 13.630923, 0.0 ], [ 123.1878527, 13.6307004, 0.0 ], [ 123.187847, 13.6304666, 0.0 ], [ 123.1878368, 13.6302053, 0.0 ], [ 123.1878297, 13.6299906, 0.0 ], [ 123.1878252, 13.629704, 0.0 ], [ 123.187814, 13.629441, 0.0 ], [ 123.1878006, 13.6291785, 0.0 ], [ 123.1877913, 13.6290021, 0.0 ], [ 123.1877825, 13.6288512, 0.0 ], [ 123.1877774, 13.6286814, 0.0 ], [ 123.1877849, 13.6285738, 0.0 ], [ 123.1877871, 13.6284897, 0.0 ], [ 123.1877989, 13.6283828, 0.0 ], [ 123.1879883, 13.628758, 0.0 ], [ 123.1881147, 13.6290423, 0.0 ], [ 123.1882354, 13.6293426, 0.0 ], [ 123.1884189, 13.6298113, 0.0 ], [ 123.1885454, 13.6301157, 0.0 ], [ 123.1886533, 13.630369, 0.0 ], [ 123.1887796, 13.6306964, 0.0 ], [ 123.189007, 13.6312506, 0.0 ], [ 123.1892204, 13.6317831, 0.0 ], [ 123.189504, 13.6324431, 0.0 ], [ 123.1896369, 13.6327702, 0.0 ], [ 123.1897609, 13.6330481, 0.0 ], [ 123.1899341, 13.6334745, 0.0 ], [ 123.1901108, 13.6338825, 0.0 ], [ 123.1901737, 13.6340593, 0.0 ], [ 123.1901808, 13.6340841, 0.0 ], [ 123.1901804, 13.6340979, 0.0 ], [ 123.1901802, 13.6340998, 0.0 ], [ 123.1901802, 13.6341268, 0.0 ], [ 123.1901804, 13.6341276, 0.0 ], [ 123.1901621, 13.6341484, 0.0 ], [ 123.1900893, 13.6341674, 0.0 ], [ 123.189747, 13.6342275, 0.0 ], [ 123.18937, 13.6342711, 0.0 ], [ 123.1888983, 13.6342972, 0.0 ], [ 123.1883889, 13.6343069, 0.0 ], [ 123.1880053, 13.634291, 0.0 ], [ 123.1875521, 13.6342767, 0.0 ], [ 123.1874225, 13.6342713, 0.0 ], [ 123.1873455, 13.6342663, 0.0 ], [ 123.187309, 13.6342503, 0.0 ], [ 123.1872812, 13.6342312, 0.0 ], [ 123.1872692, 13.6342149, 0.0 ], [ 123.1872657, 13.6341969, 0.0 ], [ 123.1872692, 13.6341595, 0.0 ], [ 123.1872959, 13.6340141, 0.0 ], [ 123.1873182, 13.6339026, 0.0 ], [ 123.187343, 13.6337728, 0.0 ], [ 123.1873805, 13.6336229, 0.0 ], [ 123.1874181, 13.6334652, 0.0 ], [ 123.1874624, 13.6332617, 0.0 ], [ 123.1875075, 13.6330785, 0.0 ], [ 123.1875445, 13.63285, 0.0 ], [ 123.1876145, 13.6325075, 0.0 ], [ 123.1876791, 13.6321862, 0.0 ], [ 123.1877575, 13.6318384, 0.0 ], [ 123.1878001, 13.6316379, 0.0 ], [ 123.1878161, 13.6315576, 0.0 ], [ 123.1878253, 13.6314322, 0.0 ], [ 123.1878292, 13.6312075, 0.0 ], [ 123.1878257, 13.6309956, 0.0 ], [ 123.1878281, 13.6307349, 0.0 ], [ 123.1878262, 13.6303874, 0.0 ], [ 123.187821, 13.6300575, 0.0 ], [ 123.1878145, 13.6298724, 0.0 ], [ 123.1878053, 13.6295926, 0.0 ], [ 123.1877964, 13.6293927, 0.0 ], [ 123.1877915, 13.6293225, 0.0 ], [ 123.1877871, 13.6292924, 0.0 ], [ 123.1877733, 13.6292749, 0.0 ], [ 123.187761, 13.6292728, 0.0 ], [ 123.1877272, 13.6292857, 0.0 ], [ 123.1875692, 13.6293596, 0.0 ], [ 123.1872666, 13.6294809, 0.0 ], [ 123.1866786, 13.6297578, 0.0 ], [ 123.1863862, 13.6298882, 0.0 ], [ 123.1860736, 13.6300272, 0.0 ], [ 123.1857171, 13.6301873, 0.0 ], [ 123.185679, 13.630209, 0.0 ], [ 123.1856704, 13.6302308, 0.0 ], [ 123.185674, 13.6302639, 0.0 ] ] } },
{ "type": "Feature", "properties": { "Name": "Starting point" }, "geometry": { "type": "Point", "coordinates": [ 123.1946386, 13.633417, 0.0 ] } },
{ "type": "Feature", "properties": { "Name": "Bagumbayan Sur Jacob St." }, "geometry": { "type": "Point", "coordinates": [ 123.1901456, 13.6338787, 0.0 ] } },
{ "type": "Feature", "properties": { "Name": "Right to Jacob Putol" }, "geometry": { "type": "Point", "coordinates": [ 123.189881, 13.6335409, 0.0 ] } },
{ "type": "Feature", "properties": { "Name": "Back to Jacob St" }, "geometry": { "type": "Point", "coordinates": [ 123.1894896, 13.6323736, 0.0 ] } },
{ "type": "Feature", "properties": { "Name": "Proceed to Central I and II" }, "geometry": { "type": "Point", "coordinates": [ 123.1893428, 13.6321014, 0.0 ] } },
{ "type": "Feature", "properties": { "Name": "Right to Ocampo St." }, "geometry": { "type": "Point", "coordinates": [ 123.1890173, 13.6318827, 0.0 ] } },
{ "type": "Feature", "properties": { "Name": "Bagumbayan Sur up to Sky City" }, "geometry": { "type": "Point", "coordinates": [ 123.187268, 13.6340851, 0.0 ] } },
{ "type": "Feature", "properties": { "Name": "Right to Kalye Natong" }, "geometry": { "type": "Point", "coordinates": [ 123.1874102, 13.6341706, 0.0 ] } },
{ "type": "Feature", "properties": { "Name": "Back to Main line Bagumbayan Sur" }, "geometry": { "type": "Point", "coordinates": [ 123.1901312, 13.6341197, 0.0 ] } },
{ "type": "Feature", "properties": { "Name": "Left back to Jacob St." }, "geometry": { "type": "Point", "coordinates": [ 123.1878201, 13.6284687, 0.0 ] } },
{ "type": "Feature", "properties": { "Name": "Back to People’s Mart Villanueva Ave." }, "geometry": { "type": "Point", "coordinates": [ 123.1901521, 13.634047, 0.0 ] } },
{ "type": "Feature", "properties": { "Name": "Left back to Bagumbayan Sur Main Line" }, "geometry": { "type": "Point", "coordinates": [ 123.18963, 13.634256, 0.0 ] } },
{ "type": "Feature", "properties": { "Name": "Right to Ateneo Ave." }, "geometry": { "type": "Point", "coordinates": [ 123.1876389, 13.629309, 0.0 ] } },
{ "type": "Feature", "properties": { "Name": "End of Route - Heads to San Isidro Dumpsite" }, "geometry": { "type": "Point", "coordinates": [ 123.1856865, 13.6302889, 0.0 ] } },
{ "type": "Feature", "properties": { "Name": "Route2" }, "geometry": { "type": "LineString", "coordinates": [ [ 123.1856846, 13.6302981, 0.0 ], [ 123.1857375, 13.6304064, 0.0 ], [ 123.1858152, 13.6305684, 0.0 ], [ 123.1859518, 13.6308737, 0.0 ], [ 123.1861183, 13.6312439, 0.0 ], [ 123.186254, 13.6315617, 0.0 ], [ 123.1864651, 13.6320635, 0.0 ], [ 123.1865283, 13.6322329, 0.0 ], [ 123.1865912, 13.6323911, 0.0 ], [ 123.1866152, 13.6324489, 0.0 ], [ 123.1866189, 13.632471, 0.0 ], [ 123.1866055, 13.6324895, 0.0 ], [ 123.1866041, 13.6324913, 0.0 ], [ 123.1865763, 13.6325117, 0.0 ], [ 123.1865407, 13.6325297, 0.0 ], [ 123.1865386, 13.6325306, 0.0 ], [ 123.1864542, 13.6325808, 0.0 ], [ 123.1863705, 13.6326433, 0.0 ], [ 123.1863312, 13.6326763, 0.0 ], [ 123.1862873, 13.6326971, 0.0 ], [ 123.1862858, 13.6326969, 0.0 ], [ 123.1862387, 13.6327124, 0.0 ], [ 123.1861976, 13.6327396, 0.0 ], [ 123.1861702, 13.6327659, 0.0 ], [ 123.186163, 13.6328059, 0.0 ], [ 123.1861782, 13.6328544, 0.0 ], [ 123.1862161, 13.6329727, 0.0 ], [ 123.1862889, 13.633187, 0.0 ], [ 123.1863239, 13.6333412, 0.0 ], [ 123.1863626, 13.6334679, 0.0 ], [ 123.1863826, 13.6336049, 0.0 ], [ 123.1863897, 13.6337309, 0.0 ], [ 123.1863907, 13.6338361, 0.0 ], [ 123.1863907, 13.6338954, 0.0 ], [ 123.1863876, 13.6339588, 0.0 ], [ 123.1863811, 13.6340004, 0.0 ], [ 123.1863664, 13.6340465, 0.0 ], [ 123.1863746, 13.6340667, 0.0 ], [ 123.1863955, 13.6340771, 0.0 ], [ 123.1864312, 13.6340764, 0.0 ], [ 123.1865723, 13.6340858, 0.0 ], [ 123.186682, 13.6341014, 0.0 ], [ 123.18692, 13.6341115, 0.0 ], [ 123.1870339, 13.6341248, 0.0 ], [ 123.1871227, 13.634132, 0.0 ], [ 123.1871871, 13.6341455, 0.0 ], [ 123.1872436, 13.6341597, 0.0 ], [ 123.1872651, 13.6341667, 0.0 ], [ 123.1872848, 13.6341955, 0.0 ], [ 123.1873076, 13.6342296, 0.0 ], [ 123.1873151, 13.6342572, 0.0 ], [ 123.1873125, 13.6342858, 0.0 ], [ 123.1873075, 13.6343254, 0.0 ], [ 123.1872869, 13.6343933, 0.0 ], [ 123.1872222, 13.6346168, 0.0 ], [ 123.1871614, 13.6347956, 0.0 ], [ 123.1871194, 13.6349002, 0.0 ], [ 123.1870776, 13.6349728, 0.0 ], [ 123.1870319, 13.635035, 0.0 ], [ 123.1869134, 13.635216, 0.0 ], [ 123.1867731, 13.6354358, 0.0 ], [ 123.1866491, 13.6356258, 0.0 ], [ 123.186527, 13.6357994, 0.0 ], [ 123.1863903, 13.6359756, 0.0 ], [ 123.1862779, 13.6361289, 0.0 ], [ 123.1860289, 13.6364572, 0.0 ], [ 123.1858406, 13.636714, 0.0 ], [ 123.1857765, 13.6368036, 0.0 ], [ 123.1857402, 13.6368667, 0.0 ], [ 123.1857295, 13.6368927, 0.0 ], [ 123.1857204, 13.6369164, 0.0 ], [ 123.1857008, 13.6369703, 0.0 ], [ 123.185688, 13.637005, 0.0 ], [ 123.1856362, 13.6371952, 0.0 ], [ 123.1855772, 13.6374426, 0.0 ], [ 123.1855317, 13.6376284, 0.0 ], [ 123.1854522, 13.6380182, 0.0 ], [ 123.1854141, 13.6382016, 0.0 ], [ 123.1853746, 13.6383948, 0.0 ], [ 123.1853415, 13.6385523, 0.0 ], [ 123.1853107, 13.6387666, 0.0 ], [ 123.1852857, 13.6389563, 0.0 ], [ 123.1852585, 13.639157, 0.0 ], [ 123.1852319, 13.6393752, 0.0 ], [ 123.1851862, 13.639605, 0.0 ], [ 123.1851674, 13.6397423, 0.0 ], [ 123.1851623, 13.6398194, 0.0 ], [ 123.1851799, 13.6398521, 0.0 ], [ 123.1851979, 13.6398584, 0.0 ], [ 123.1852265, 13.6398633, 0.0 ], [ 123.1852287, 13.6398637, 0.0 ], [ 123.1852939, 13.6398702, 0.0 ], [ 123.1854758, 13.6398894, 0.0 ], [ 123.1856587, 13.6399152, 0.0 ], [ 123.1858415, 13.6399342, 0.0 ], [ 123.1860341, 13.639943, 0.0 ], [ 123.1862237, 13.6399648, 0.0 ], [ 123.1863835, 13.6399761, 0.0 ], [ 123.1866723, 13.6400133, 0.0 ], [ 123.1868121, 13.640027, 0.0 ], [ 123.1869652, 13.6400455, 0.0 ], [ 123.187136, 13.6400681, 0.0 ], [ 123.1873383, 13.6401024, 0.0 ], [ 123.1874756, 13.6401347, 0.0 ], [ 123.1875768, 13.6401559, 0.0 ], [ 123.1876702, 13.6401706, 0.0 ], [ 123.1877976, 13.6401758, 0.0 ], [ 123.1879346, 13.6401896, 0.0 ], [ 123.1879819, 13.6401903, 0.0 ], [ 123.1880156, 13.6401879, 0.0 ], [ 123.1880462, 13.640176, 0.0 ], [ 123.1880484, 13.6401576, 0.0 ] ] } },
{ "type": "Feature", "properties": { "Name": "Straight ahead to the main line P. Santos St." }, "geometry": { "type": "Point", "coordinates": [ 123.1857194, 13.6303933, 0.0 ] } },
{ "type": "Feature", "properties": { "Name": "P. Santos Extension" }, "geometry": { "type": "Point", "coordinates": [ 123.1861436, 13.6312733, 0.0 ] } },
{ "type": "Feature", "properties": { "Name": "Left to ABCEDE St" }, "geometry": { "type": "Point", "coordinates": [ 123.186552, 13.6325099, 0.0 ] } },
{ "type": "Feature", "properties": { "Name": "Right to ABCEDE Elementary School" }, "geometry": { "type": "Point", "coordinates": [ 123.186172, 13.6327886, 0.0 ] } },
{ "type": "Feature", "properties": { "Name": "Queborac Road" }, "geometry": { "type": "Point", "coordinates": [ 123.1863654, 13.634096, 0.0 ] } },
{ "type": "Feature", "properties": { "Name": "Proceed left to Bagumbayan Norte" }, "geometry": { "type": "Point", "coordinates": [ 123.1872944, 13.634319, 0.0 ] } },
{ "type": "Feature", "properties": { "Name": "Right to Capilihan" }, "geometry": { "type": "Point", "coordinates": [ 123.1853045, 13.6398844, 0.0 ] } },
{ "type": "Feature", "properties": { "Name": "Straight ahead to Calauag Road" }, "geometry": { "type": "Point", "coordinates": [ 123.1873397, 13.6401259, 0.0 ] } },
{ "type": "Feature", "properties": { "Name": "End of Route - Heads to San Isidro Dumpsite" }, "geometry": { "type": "Point", "coordinates": [ 123.1880557, 13.6401785, 0.0 ] } },
{ "type": "Feature", "properties": { "Name": "Route3" }, "geometry": { "type": "LineString", "coordinates": [ [ 123.1880454, 13.640136, 0.0 ], [ 123.1880313, 13.6400106, 0.0 ], [ 123.1880273, 13.6399784, 0.0 ], [ 123.1880255, 13.6399445, 0.0 ], [ 123.1880314, 13.6399327, 0.0 ], [ 123.188046, 13.6399224, 0.0 ], [ 123.1880771, 13.6399178, 0.0 ], [ 123.1880805, 13.6399171, 0.0 ], [ 123.1881383, 13.639908, 0.0 ], [ 123.1882106, 13.6398985, 0.0 ], [ 123.1882692, 13.6398988, 0.0 ], [ 123.1884413, 13.6399008, 0.0 ], [ 123.1886674, 13.6399011, 0.0 ], [ 123.1889933, 13.6399199, 0.0 ], [ 123.1892095, 13.6399177, 0.0 ], [ 123.1893758, 13.6399242, 0.0 ], [ 123.1895388, 13.6399357, 0.0 ], [ 123.1896121, 13.639942, 0.0 ], [ 123.1896502, 13.6399421, 0.0 ], [ 123.1896529, 13.6399416, 0.0 ], [ 123.189679, 13.6399369, 0.0 ], [ 123.1896874, 13.6399329, 0.0 ], [ 123.1897057, 13.6399085, 0.0 ], [ 123.1897064, 13.6399038, 0.0 ], [ 123.1897074, 13.6398968, 0.0 ], [ 123.1897109, 13.6398544, 0.0 ], [ 123.1897101, 13.6398514, 0.0 ], [ 123.1897262, 13.6397548, 0.0 ], [ 123.189753, 13.6396667, 0.0 ], [ 123.1897819, 13.6396042, 0.0 ], [ 123.1898106, 13.6395371, 0.0 ], [ 123.1898132, 13.6395314, 0.0 ], [ 123.1898419, 13.6394823, 0.0 ], [ 123.189848, 13.6394769, 0.0 ], [ 123.1898737, 13.6394371, 0.0 ], [ 123.1899081, 13.6393968, 0.0 ], [ 123.189939, 13.6393479, 0.0 ], [ 123.1899659, 13.6392942, 0.0 ], [ 123.1899891, 13.6392274, 0.0 ], [ 123.1899955, 13.6391898, 0.0 ], [ 123.1899959, 13.639187, 0.0 ], [ 123.1899968, 13.639184, 0.0 ], [ 123.1900078, 13.6391222, 0.0 ], [ 123.1900254, 13.6390627, 0.0 ], [ 123.1900533, 13.6389917, 0.0 ], [ 123.1900535, 13.63899, 0.0 ], [ 123.1900787, 13.6389462, 0.0 ], [ 123.1901055, 13.6389028, 0.0 ], [ 123.190106, 13.6389027, 0.0 ], [ 123.1901302, 13.638877, 0.0 ], [ 123.190132, 13.6388756, 0.0 ], [ 123.1901557, 13.6388529, 0.0 ], [ 123.1901575, 13.6388515, 0.0 ], [ 123.190182, 13.6388302, 0.0 ], [ 123.1902114, 13.6388046, 0.0 ], [ 123.1902395, 13.6387897, 0.0 ], [ 123.1902831, 13.6387723, 0.0 ], [ 123.190285, 13.6387718, 0.0 ], [ 123.1903324, 13.6387582, 0.0 ], [ 123.1903868, 13.6387506, 0.0 ], [ 123.1904595, 13.6387407, 0.0 ], [ 123.1905063, 13.6387448, 0.0 ], [ 123.1905604, 13.6387494, 0.0 ], [ 123.1906165, 13.6387644, 0.0 ], [ 123.1906976, 13.6387874, 0.0 ], [ 123.1907402, 13.6388064, 0.0 ], [ 123.1907916, 13.6388399, 0.0 ], [ 123.1908337, 13.6388744, 0.0 ], [ 123.1908833, 13.63893, 0.0 ], [ 123.1909168, 13.6390124, 0.0 ], [ 123.1909353, 13.6390638, 0.0 ], [ 123.1909468, 13.6391107, 0.0 ], [ 123.1909671, 13.6391694, 0.0 ], [ 123.1909854, 13.639243, 0.0 ], [ 123.1909936, 13.6393243, 0.0 ], [ 123.1909945, 13.6393554, 0.0 ], [ 123.1909869, 13.6393975, 0.0 ], [ 123.1909485, 13.6394432, 0.0 ], [ 123.1909229, 13.6394733, 0.0 ], [ 123.1909218, 13.6394735, 0.0 ], [ 123.1908677, 13.6395214, 0.0 ], [ 123.190813, 13.6395668, 0.0 ], [ 123.1907535, 13.6396028, 0.0 ], [ 123.1906971, 13.6396322, 0.0 ], [ 123.1906179, 13.639669, 0.0 ], [ 123.1905755, 13.6396794, 0.0 ], [ 123.1905162, 13.6396982, 0.0 ], [ 123.1904896, 13.6397071, 0.0 ], [ 123.1904781, 13.6397204, 0.0 ], [ 123.1904732, 13.6397594, 0.0 ], [ 123.1904801, 13.6398031, 0.0 ], [ 123.1904859, 13.6398589, 0.0 ], [ 123.1904936, 13.6399248, 0.0 ], [ 123.1905027, 13.6400097, 0.0 ], [ 123.1905137, 13.6401026, 0.0 ], [ 123.1905267, 13.6401939, 0.0 ], [ 123.1905369, 13.6402644, 0.0 ], [ 123.1905399, 13.6403207, 0.0 ], [ 123.1905493, 13.6403965, 0.0 ], [ 123.1905543, 13.6404592, 0.0 ], [ 123.1905583, 13.6405206, 0.0 ], [ 123.1905661, 13.6405827, 0.0 ], [ 123.1905758, 13.6406721, 0.0 ], [ 123.1905987, 13.6407931, 0.0 ], [ 123.1906094, 13.6409023, 0.0 ], [ 123.1906218, 13.6410027, 0.0 ], [ 123.1906276, 13.6410633, 0.0 ], [ 123.1906533, 13.6412846, 0.0 ], [ 123.1906699, 13.6414315, 0.0 ], [ 123.1906952, 13.6416141, 0.0 ], [ 123.1907087, 13.6417534, 0.0 ], [ 123.1907147, 13.6418012, 0.0 ], [ 123.1907362, 13.6419422, 0.0 ], [ 123.1907519, 13.6420785, 0.0 ], [ 123.1907803, 13.6422557, 0.0 ], [ 123.1908043, 13.6424221, 0.0 ], [ 123.1908396, 13.6426402, 0.0 ], [ 123.190861, 13.6428023, 0.0 ], [ 123.1908955, 13.6430536, 0.0 ], [ 123.1909146, 13.6432153, 0.0 ], [ 123.1909308, 13.6433757, 0.0 ], [ 123.1909321, 13.6434252, 0.0 ], [ 123.1909334, 13.643451, 0.0 ], [ 123.1909361, 13.643476, 0.0 ], [ 123.1909478, 13.6434849, 0.0 ], [ 123.1909616, 13.6434838, 0.0 ], [ 123.1909944, 13.6434821, 0.0 ], [ 123.1910821, 13.6434711, 0.0 ], [ 123.1911197, 13.6434672, 0.0 ], [ 123.1911316, 13.6434703, 0.0 ], [ 123.1911497, 13.6434834, 0.0 ], [ 123.1911595, 13.6434988, 0.0 ], [ 123.191171, 13.6435578, 0.0 ], [ 123.1911803, 13.6436576, 0.0 ], [ 123.1911911, 13.6438632, 0.0 ], [ 123.1912001, 13.6440161, 0.0 ], [ 123.1912089, 13.6441478, 0.0 ], [ 123.1912183, 13.644259, 0.0 ], [ 123.1912352, 13.6443627, 0.0 ], [ 123.1912572, 13.6444928, 0.0 ], [ 123.1912657, 13.6446695, 0.0 ], [ 123.1912758, 13.6448166, 0.0 ], [ 123.1912946, 13.6450193, 0.0 ], [ 123.1913068, 13.6451798, 0.0 ], [ 123.1913146, 13.6452616, 0.0 ], [ 123.1913253, 13.6453845, 0.0 ], [ 123.1913319, 13.6454787, 0.0 ], [ 123.1913402, 13.6455487, 0.0 ], [ 123.1913381, 13.6455951, 0.0 ], [ 123.1913303, 13.6456434, 0.0 ], [ 123.1913133, 13.6456948, 0.0 ], [ 123.191274, 13.6457384, 0.0 ], [ 123.1912075, 13.6457745, 0.0 ], [ 123.1910645, 13.6458231, 0.0 ], [ 123.1909574, 13.6458521, 0.0 ], [ 123.1908667, 13.6458819, 0.0 ], [ 123.1908392, 13.6458847, 0.0 ], [ 123.1908162, 13.6458778, 0.0 ], [ 123.1908019, 13.6458604, 0.0 ], [ 123.1907837, 13.6458136, 0.0 ], [ 123.1907594, 13.6457589, 0.0 ], [ 123.1907196, 13.645673, 0.0 ], [ 123.1906523, 13.6455368, 0.0 ], [ 123.1906155, 13.6454408, 0.0 ], [ 123.1905984, 13.645394, 0.0 ], [ 123.1905976, 13.645392, 0.0 ], [ 123.1905827, 13.6453261, 0.0 ], [ 123.1905825, 13.6453255, 0.0 ], [ 123.1905642, 13.6451947, 0.0 ], [ 123.1905561, 13.6450781, 0.0 ], [ 123.1905336, 13.6448745, 0.0 ], [ 123.190534, 13.6448064, 0.0 ], [ 123.1905176, 13.6446931, 0.0 ], [ 123.1905089, 13.6445744, 0.0 ], [ 123.1904981, 13.6444543, 0.0 ], [ 123.1904885, 13.644314, 0.0 ], [ 123.1904814, 13.644186, 0.0 ], [ 123.1904639, 13.6440359, 0.0 ], [ 123.1904463, 13.6438576, 0.0 ], [ 123.1904337, 13.6436977, 0.0 ], [ 123.1904258, 13.6436125, 0.0 ], [ 123.1904305, 13.6435783, 0.0 ], [ 123.1904395, 13.64357, 0.0 ], [ 123.1904608, 13.6435615, 0.0 ], [ 123.1904817, 13.643536, 0.0 ], [ 123.1904869, 13.6435099, 0.0 ], [ 123.1904836, 13.6434666, 0.0 ], [ 123.1904832, 13.6434639, 0.0 ], [ 123.1904734, 13.6434057, 0.0 ], [ 123.1904597, 13.6432455, 0.0 ], [ 123.1904521, 13.6431404, 0.0 ], [ 123.1904241, 13.642935, 0.0 ], [ 123.1903854, 13.6427055, 0.0 ], [ 123.1903664, 13.6425376, 0.0 ], [ 123.1903226, 13.6422871, 0.0 ], [ 123.1902989, 13.642106, 0.0 ], [ 123.1902794, 13.6419735, 0.0 ], [ 123.1902466, 13.6416495, 0.0 ], [ 123.1902073, 13.6413934, 0.0 ], [ 123.1901798, 13.6411473, 0.0 ], [ 123.1901594, 13.6409527, 0.0 ], [ 123.1901357, 13.6407046, 0.0 ], [ 123.1901053, 13.640387, 0.0 ], [ 123.1900701, 13.6401273, 0.0 ], [ 123.1900475, 13.6398234, 0.0 ], [ 123.1900324, 13.6396909, 0.0 ], [ 123.1900136, 13.6395606, 0.0 ], [ 123.190005, 13.639506, 0.0 ], [ 123.189981, 13.6394492, 0.0 ], [ 123.1899656, 13.6394199, 0.0 ], [ 123.1899451, 13.6394089, 0.0 ], [ 123.1899431, 13.639409, 0.0 ], [ 123.1899205, 13.6394119, 0.0 ], [ 123.1899143, 13.639417, 0.0 ], [ 123.1898665, 13.6394775, 0.0 ], [ 123.1898196, 13.6395739, 0.0 ], [ 123.1897847, 13.6396477, 0.0 ], [ 123.1897525, 13.6397249, 0.0 ], [ 123.1897318, 13.6398279, 0.0 ], [ 123.1897115, 13.6399188, 0.0 ], [ 123.1896972, 13.6399683, 0.0 ], [ 123.1896981, 13.6400271, 0.0 ], [ 123.1897087, 13.6402025, 0.0 ], [ 123.1897393, 13.6405102, 0.0 ], [ 123.1897746, 13.6408834, 0.0 ], [ 123.1898278, 13.6412913, 0.0 ], [ 123.1899041, 13.6418531, 0.0 ], [ 123.1899467, 13.6422625, 0.0 ], [ 123.1900339, 13.6428413, 0.0 ], [ 123.1900785, 13.6431878, 0.0 ], [ 123.1901131, 13.6434645, 0.0 ], [ 123.1901164, 13.6435154, 0.0 ], [ 123.190111, 13.6435331, 0.0 ], [ 123.1900814, 13.6435377, 0.0 ], [ 123.1899612, 13.6435302, 0.0 ], [ 123.1897183, 13.643509, 0.0 ], [ 123.1897126, 13.6434977, 0.0 ], [ 123.1897054, 13.64347, 0.0 ], [ 123.1896989, 13.643394, 0.0 ], [ 123.1896701, 13.6430504, 0.0 ], [ 123.1896402, 13.6428435, 0.0 ], [ 123.1896058, 13.6425193, 0.0 ], [ 123.1895614, 13.6421982, 0.0 ], [ 123.1895274, 13.641955, 0.0 ], [ 123.1894853, 13.6415444, 0.0 ], [ 123.1894527, 13.641224, 0.0 ], [ 123.1894492, 13.6412155, 0.0 ], [ 123.189411, 13.6409099, 0.0 ], [ 123.1893639, 13.6405183, 0.0 ], [ 123.1893354, 13.6401907, 0.0 ], [ 123.189325, 13.640058, 0.0 ], [ 123.1893177, 13.6399961, 0.0 ], [ 123.1893165, 13.6399761, 0.0 ], [ 123.1892953, 13.6399607, 0.0 ], [ 123.1892212, 13.6399554, 0.0 ], [ 123.1891216, 13.6399551, 0.0 ], [ 123.1890317, 13.6399569, 0.0 ], [ 123.1889654, 13.6399563, 0.0 ], [ 123.1889459, 13.6399698, 0.0 ], [ 123.1889415, 13.6400032, 0.0 ], [ 123.1889551, 13.6400979, 0.0 ], [ 123.1889884, 13.6403474, 0.0 ], [ 123.1890439, 13.6406088, 0.0 ], [ 123.1890756, 13.6408229, 0.0 ], [ 123.1891081, 13.6410659, 0.0 ], [ 123.1891504, 13.641328, 0.0 ], [ 123.1891836, 13.6415728, 0.0 ], [ 123.1892157, 13.6417316, 0.0 ], [ 123.1892478, 13.6418842, 0.0 ], [ 123.1892563, 13.6419237, 0.0 ], [ 123.189262, 13.6419547, 0.0 ], [ 123.1892588, 13.6419713, 0.0 ], [ 123.1892414, 13.6419781, 0.0 ], [ 123.1892118, 13.641982, 0.0 ], [ 123.1891796, 13.6419922, 0.0 ], [ 123.1891771, 13.6420074, 0.0 ], [ 123.1891889, 13.6420409, 0.0 ], [ 123.1892226, 13.6423447, 0.0 ], [ 123.189261, 13.6426989, 0.0 ], [ 123.1893056, 13.6430865, 0.0 ], [ 123.1893295, 13.6432518, 0.0 ], [ 123.18934, 13.6433341, 0.0 ], [ 123.1893454, 13.6433794, 0.0 ], [ 123.1893649, 13.6434657, 0.0 ], [ 123.1893878, 13.6435106, 0.0 ], [ 123.189387, 13.6435187, 0.0 ], [ 123.1893859, 13.6435212, 0.0 ], [ 123.1893764, 13.6435216, 0.0 ], [ 123.1893608, 13.6435028, 0.0 ], [ 123.189336, 13.6434211, 0.0 ], [ 123.1893355, 13.6434182, 0.0 ], [ 123.1893116, 13.6433032, 0.0 ], [ 123.1893006, 13.6431891, 0.0 ], [ 123.1892752, 13.6430368, 0.0 ], [ 123.1892622, 13.6429087, 0.0 ], [ 123.1892371, 13.6427067, 0.0 ], [ 123.1892148, 13.642464, 0.0 ], [ 123.1891986, 13.6423756, 0.0 ], [ 123.1891784, 13.6422122, 0.0 ], [ 123.1891662, 13.6420453, 0.0 ], [ 123.1891576, 13.6420079, 0.0 ], [ 123.1891463, 13.6419981, 0.0 ], [ 123.1891105, 13.6419991, 0.0 ], [ 123.1890253, 13.6420158, 0.0 ], [ 123.1888838, 13.6420338, 0.0 ], [ 123.1888606, 13.6419203, 0.0 ], [ 123.1888343, 13.6417668, 0.0 ], [ 123.1887781, 13.6415365, 0.0 ], [ 123.1887249, 13.641308, 0.0 ], [ 123.188701, 13.6411842, 0.0 ], [ 123.1886716, 13.6410807, 0.0 ], [ 123.188652, 13.6410493, 0.0 ], [ 123.1886252, 13.6410361, 0.0 ], [ 123.1884643, 13.6410772, 0.0 ], [ 123.1883595, 13.6411124, 0.0 ], [ 123.1882991, 13.6411304, 0.0 ], [ 123.188275, 13.6411316, 0.0 ], [ 123.1882692, 13.641102, 0.0 ], [ 123.1882181, 13.6408999, 0.0 ], [ 123.1881665, 13.6406498, 0.0 ], [ 123.1881091, 13.6404326, 0.0 ], [ 123.188092, 13.6402919, 0.0 ], [ 123.1880906, 13.6402878, 0.0 ], [ 123.1880644, 13.6401462, 0.0 ], [ 123.1880094, 13.6399881, 0.0 ], [ 123.1879975, 13.6399487, 0.0 ], [ 123.1879969, 13.6399403, 0.0 ], [ 123.1880091, 13.6399362, 0.0 ], [ 123.1880577, 13.6399353, 0.0 ], [ 123.1881162, 13.6399341, 0.0 ], [ 123.1881197, 13.6399359, 0.0 ], [ 123.1881237, 13.6399361, 0.0 ], [ 123.1884007, 13.639945, 0.0 ], [ 123.1885501, 13.6399467, 0.0 ], [ 123.1888188, 13.63995, 0.0 ], [ 123.1890645, 13.6399438, 0.0 ], [ 123.1892355, 13.6399433, 0.0 ], [ 123.1894583, 13.6399609, 0.0 ], [ 123.1896387, 13.6399668, 0.0 ], [ 123.1896747, 13.6399681, 0.0 ], [ 123.1896969, 13.6399396, 0.0 ], [ 123.1897277, 13.6398015, 0.0 ], [ 123.1897623, 13.63967, 0.0 ], [ 123.1897927, 13.6396038, 0.0 ], [ 123.1898292, 13.6395229, 0.0 ], [ 123.1898852, 13.6394362, 0.0 ], [ 123.1899502, 13.6393483, 0.0 ], [ 123.1899577, 13.639266, 0.0 ], [ 123.1899842, 13.6391563, 0.0 ], [ 123.1900119, 13.6390577, 0.0 ], [ 123.1900334, 13.6390069, 0.0 ], [ 123.1900347, 13.6390032, 0.0 ], [ 123.1900812, 13.6389365, 0.0 ], [ 123.1901256, 13.6388918, 0.0 ], [ 123.1902102, 13.6388523, 0.0 ], [ 123.1903045, 13.6388057, 0.0 ], [ 123.190378, 13.6387901, 0.0 ], [ 123.1904303, 13.6387719, 0.0 ], [ 123.1904891, 13.6387077, 0.0 ], [ 123.1905145, 13.638647, 0.0 ], [ 123.1906205, 13.6384457, 0.0 ], [ 123.1906897, 13.6382962, 0.0 ], [ 123.1907346, 13.6381982, 0.0 ], [ 123.1907381, 13.6380474, 0.0 ], [ 123.1907308, 13.6379763, 0.0 ], [ 123.1907244, 13.6379099, 0.0 ], [ 123.1907183, 13.6378545, 0.0 ], [ 123.1907097, 13.6377806, 0.0 ] ] } },
{ "type": "Feature", "properties": { "Name": "Right to Topaz St." }, "geometry": { "type": "Point", "coordinates": [ 123.1905787, 13.6387868, 0.0 ] } },
{ "type": "Feature", "properties": { "Name": "Jade St." }, "geometry": { "type": "Point", "coordinates": [ 123.1904468, 13.6398367, 0.0 ] } },
{ "type": "Feature", "properties": { "Name": "Narra St" }, "geometry": { "type": "Point", "coordinates": [ 123.1909869, 13.6434951, 0.0 ] } },
{ "type": "Feature", "properties": { "Name": "Metro Homes" }, "geometry": { "type": "Point", "coordinates": [ 123.1911497, 13.6458221, 0.0 ] } },
{ "type": "Feature", "properties": { "Name": "Opal St." }, "geometry": { "type": "Point", "coordinates": [ 123.1902685, 13.641694, 0.0 ] } },
{ "type": "Feature", "properties": { "Name": "Diamond St." }, "geometry": { "type": "Point", "coordinates": [ 123.1898763, 13.6417911, 0.0 ] } },
{ "type": "Feature", "properties": { "Name": "Garnet St." }, "geometry": { "type": "Point", "coordinates": [ 123.1895311, 13.6417479, 0.0 ] } },
{ "type": "Feature", "properties": { "Name": "Emerald St." }, "geometry": { "type": "Point", "coordinates": [ 123.1892027, 13.6417302, 0.0 ] } },
{ "type": "Feature", "properties": { "Name": "Agate St." }, "geometry": { "type": "Point", "coordinates": [ 123.1892655, 13.6426554, 0.0 ] } },
{ "type": "Feature", "properties": { "Name": "Onyx St." }, "geometry": { "type": "Point", "coordinates": [ 123.1891219, 13.6419754, 0.0 ] } },
{ "type": "Feature", "properties": { "Name": "Proceed to Carnation St." }, "geometry": { "type": "Point", "coordinates": [ 123.188826, 13.6420224, 0.0 ] } },
{ "type": "Feature", "properties": { "Name": "Left to Blacer St" }, "geometry": { "type": "Point", "coordinates": [ 123.1887908, 13.6415548, 0.0 ] } },
{ "type": "Feature", "properties": { "Name": "Proceed to Ruby St." }, "geometry": { "type": "Point", "coordinates": [ 123.1886492, 13.6399364, 0.0 ] } },
{ "type": "Feature", "properties": { "Name": "Proceed to Sapphire" }, "geometry": { "type": "Point", "coordinates": [ 123.1905157, 13.6386689, 0.0 ] } },
{ "type": "Feature", "properties": { "Name": "End of Route - Heads to San Isidro Dumpsite" }, "geometry": { "type": "Point", "coordinates": [ 123.182627, 13.6338592, 0.0 ] } }
]
}
