{
"type": "FeatureCollection",
"name": "Area 5 Daily",
"features": [
{ "type": "Feature", "properties": { "Name": "Area 5 Start" }, "geometry": { "type": "Point", "coordinates": [ 123.1799383, 13.6207775, 0.0 ] } },
{ "type": "Feature", "properties": { "Name": "Starting point NCSAT - San Francisco" }, "geometry": { "type": "LineString", "coordinates": [ [ 123.1799381, 13.6207739, 0.0 ], [ 123.1796871, 13.619959, 0.0 ], [ 123.1803526, 13.6197593, 0.0 ], [ 123.1804132, 13.6197117, 0.0 ], [ 123.1804253, 13.6195924, 0.0 ], [ 123.1803227, 13.6193043, 0.0 ], [ 123.1801628, 13.618697, 0.0 ], [ 123.1800315, 13.6183038, 0.0 ], [ 123.1798972, 13.6180694, 0.0 ], [ 123.1795429, 13.6181486, 0.0 ], [ 123.1791207, 13.6182911, 0.0 ], [ 123.1793552, 13.6190099, 0.0 ], [ 123.1796253, 13.6199118, 0.0 ], [ 123.1800155, 13.6211657, 0.0 ], [ 123.1804465, 13.6224953, 0.0 ], [ 123.1807303, 13.6233347, 0.0 ], [ 123.1792833, 13.6236931, 0.0 ], [ 123.1793416, 13.6238316, 0.0 ], [ 123.1796909, 13.6242574, 0.0 ], [ 123.1799028, 13.6244849, 0.0 ], [ 123.1805323, 13.6251479, 0.0 ], [ 123.1800943, 13.6256337, 0.0 ], [ 123.1797761, 13.6257592, 0.0 ], [ 123.1793029, 13.6259834, 0.0 ], [ 123.1785669, 13.6263675, 0.0 ], [ 123.1774991, 13.6268939, 0.0 ], [ 123.1770451, 13.6272174, 0.0 ], [ 123.1766087, 13.6276738, 0.0 ], [ 123.1763819, 13.6278993, 0.0 ], [ 123.1764281, 13.6280347, 0.0 ], [ 123.1763034, 13.6281211, 0.0 ], [ 123.1755765, 13.6276829, 0.0 ], [ 123.1750157, 13.6273244, 0.0 ], [ 123.1737571, 13.6261741, 0.0 ], [ 123.1737326, 13.6261031, 0.0 ], [ 123.173865, 13.6259172, 0.0 ], [ 123.1738737, 13.6256935, 0.0 ], [ 123.1739186, 13.6249951, 0.0 ], [ 123.1739635, 13.6243716, 0.0 ], [ 123.1740893, 13.6242942, 0.0 ], [ 123.1746251, 13.6238097, 0.0 ], [ 123.175042, 13.6233662, 0.0 ], [ 123.1750835, 13.623195, 0.0 ], [ 123.1753908, 13.6229068, 0.0 ], [ 123.1757893, 13.6225237, 0.0 ], [ 123.1766613, 13.6231644, 0.0 ], [ 123.1777452, 13.623441, 0.0 ], [ 123.179246, 13.6237126, 0.0 ], [ 123.1806925, 13.6233565, 0.0 ], [ 123.1836679, 13.6226871, 0.0 ], [ 123.1842041, 13.6247084, 0.0 ], [ 123.1846435, 13.6258538, 0.0 ], [ 123.1842604, 13.6259544, 0.0 ], [ 123.1839007, 13.6259884, 0.0 ], [ 123.1834382, 13.6261839, 0.0 ], [ 123.1830921, 13.6261909, 0.0 ], [ 123.1826779, 13.6259266, 0.0 ], [ 123.1816471, 13.6255819, 0.0 ], [ 123.1815439, 13.6263652, 0.0 ], [ 123.1814542, 13.6266457, 0.0 ], [ 123.1813276, 13.6266453, 0.0 ], [ 123.1808592, 13.6262569, 0.0 ], [ 123.1808349, 13.6262776, 0.0 ], [ 123.181308, 13.6266677, 0.0 ], [ 123.1814521, 13.6266759, 0.0 ], [ 123.1815821, 13.6269152, 0.0 ], [ 123.181555, 13.6270089, 0.0 ], [ 123.1815808, 13.6270212, 0.0 ], [ 123.1816223, 13.6269163, 0.0 ], [ 123.1814731, 13.6266493, 0.0 ], [ 123.1815703, 13.6263495, 0.0 ], [ 123.1816593, 13.6256015, 0.0 ], [ 123.182737, 13.6259072, 0.0 ], [ 123.182995, 13.6260857, 0.0 ], [ 123.1832537, 13.6262092, 0.0 ], [ 123.1832912, 13.6268429, 0.0 ], [ 123.1835406, 13.6275115, 0.0 ], [ 123.1840911, 13.6271817, 0.0 ], [ 123.1834493, 13.6261992, 0.0 ], [ 123.1839302, 13.6260064, 0.0 ], [ 123.1844616, 13.6269317, 0.0 ], [ 123.1850263, 13.6265288, 0.0 ], [ 123.1853581, 13.6271026, 0.0 ], [ 123.184694, 13.6275205, 0.0 ], [ 123.1837977, 13.6280499, 0.0 ], [ 123.183081, 13.6284718, 0.0 ], [ 123.1828813, 13.6276201, 0.0 ], [ 123.1827078, 13.625935, 0.0 ], [ 123.1830768, 13.6261517, 0.0 ], [ 123.1833267, 13.6262092, 0.0 ], [ 123.1838562, 13.626006, 0.0 ], [ 123.1843107, 13.6259648, 0.0 ], [ 123.1846236, 13.6258734, 0.0 ], [ 123.1851469, 13.6255014, 0.0 ], [ 123.1855548, 13.6251855, 0.0 ], [ 123.1859075, 13.6249139, 0.0 ], [ 123.1860275, 13.6251735, 0.0 ], [ 123.1863062, 13.6257354, 0.0 ], [ 123.1857133, 13.6261486, 0.0 ], [ 123.18607, 13.626624, 0.0 ], [ 123.1866071, 13.6273471, 0.0 ], [ 123.1870388, 13.6270493, 0.0 ], [ 123.1866114, 13.6262758, 0.0 ], [ 123.1863383, 13.6257072, 0.0 ], [ 123.1868984, 13.6252923, 0.0 ], [ 123.1862494, 13.6247183, 0.0 ], [ 123.1859317, 13.6248893, 0.0 ], [ 123.1863322, 13.6257553, 0.0 ], [ 123.1865884, 13.6263021, 0.0 ], [ 123.1873762, 13.6258451, 0.0 ], [ 123.1876214, 13.6256816, 0.0 ] ] } },
{ "type": "Feature", "properties": { "Name": "End of Route - Heads to San Isidro Dumpsite" }, "geometry": { "type": "Point", "coordinates": [ 123.1876236, 13.6256773, 0.0 ] } },
{ "type": "Feature", "properties": { "Name": "Dump - Proceed to Sabang MRF" }, "geometry": { "type": "LineString", "coordinates": [ [ 123.2574606, 13.6212186, 0.0 ], [ 123.2569727, 13.6220859, 0.0 ], [ 123.2575489, 13.6227386, 0.0 ], [ 123.2559267, 13.6249248, 0.0 ], [ 123.2556019, 13.6253257, 0.0 ], [ 123.2551969, 13.6268351, 0.0 ], [ 123.2551252, 13.6271343, 0.0 ], [ 123.2549449, 13.6273976, 0.0 ], [ 123.254218, 13.6289704, 0.0 ], [ 123.2528865, 13.6285021, 0.0 ], [ 123.2516671, 13.6280073, 0.0 ], [ 123.2503451, 13.627622, 0.0 ], [ 123.2492486, 13.627609, 0.0 ], [ 123.2475331, 13.6278345, 0.0 ], [ 123.2458071, 13.6280851, 0.0 ], [ 123.2448227, 13.628221, 0.0 ], [ 123.240627, 13.6288246, 0.0 ], [ 123.2394063, 13.6289856, 0.0 ], [ 123.2378409, 13.6292456, 0.0 ], [ 123.2368952, 13.6293704, 0.0 ], [ 123.2364344, 13.6295527, 0.0 ], [ 123.2353153, 13.6302499, 0.0 ], [ 123.2342381, 13.6310536, 0.0 ], [ 123.2338496, 13.6311488, 0.0 ], [ 123.233162, 13.6311207, 0.0 ], [ 123.232385, 13.6311062, 0.0 ], [ 123.2316749, 13.6312153, 0.0 ], [ 123.2308354, 13.6313729, 0.0 ], [ 123.2300118, 13.6314532, 0.0 ], [ 123.2281846, 13.6317683, 0.0 ], [ 123.2266175, 13.631983, 0.0 ], [ 123.22516, 13.6321859, 0.0 ], [ 123.2236593, 13.6324549, 0.0 ], [ 123.2223435, 13.6326329, 0.0 ], [ 123.2212795, 13.6326397, 0.0 ], [ 123.2203037, 13.6323454, 0.0 ], [ 123.2192221, 13.6315688, 0.0 ], [ 123.2185058, 13.6310158, 0.0 ], [ 123.2177243, 13.6304966, 0.0 ], [ 123.2165497, 13.6299619, 0.0 ], [ 123.2154772, 13.6295701, 0.0 ], [ 123.215013, 13.629479, 0.0 ], [ 123.2132879, 13.6293724, 0.0 ], [ 123.2123523, 13.6295581, 0.0 ], [ 123.211403, 13.6297861, 0.0 ], [ 123.2101274, 13.6300791, 0.0 ], [ 123.2095819, 13.6302091, 0.0 ], [ 123.2091857, 13.6302032, 0.0 ], [ 123.2087814, 13.6302932, 0.0 ], [ 123.208522, 13.6306938, 0.0 ], [ 123.2085542, 13.631645, 0.0 ], [ 123.2084131, 13.6321855, 0.0 ], [ 123.2080891, 13.6324216, 0.0 ], [ 123.206594, 13.6333587, 0.0 ], [ 123.20498, 13.6342887, 0.0 ], [ 123.2045808, 13.6343088, 0.0 ], [ 123.203178, 13.6341547, 0.0 ], [ 123.2021318, 13.633998, 0.0 ], [ 123.2005715, 13.6336612, 0.0 ], [ 123.1993123, 13.6332446, 0.0 ], [ 123.198291, 13.6327202, 0.0 ], [ 123.1979808, 13.6325393, 0.0 ], [ 123.1967435, 13.6314694, 0.0 ], [ 123.1952055, 13.6328385, 0.0 ], [ 123.1946654, 13.633356, 0.0 ], [ 123.1935129, 13.6335402, 0.0 ], [ 123.1919871, 13.6337458, 0.0 ], [ 123.1908929, 13.6339659, 0.0 ], [ 123.1897717, 13.6341607, 0.0 ], [ 123.1890884, 13.6342662, 0.0 ], [ 123.1879382, 13.6342394, 0.0 ], [ 123.1872982, 13.6342201, 0.0 ], [ 123.1863397, 13.6340562, 0.0 ], [ 123.1852961, 13.6340086, 0.0 ], [ 123.1848154, 13.634016, 0.0 ], [ 123.1844984, 13.6327857, 0.0 ], [ 123.183558, 13.6329452, 0.0 ], [ 123.1834542, 13.6329883, 0.0 ], [ 123.1832402, 13.6330002, 0.0 ], [ 123.1831577, 13.6322508, 0.0 ], [ 123.1833656, 13.6321488, 0.0 ], [ 123.1835033, 13.6322598, 0.0 ], [ 123.1835648, 13.6325153, 0.0 ], [ 123.1838505, 13.6324251, 0.0 ], [ 123.1838203, 13.6322395, 0.0 ], [ 123.183737, 13.6320354, 0.0 ], [ 123.1836162, 13.631832, 0.0 ], [ 123.1834933, 13.6317154, 0.0 ], [ 123.1834461, 13.6316136, 0.0 ], [ 123.1834353, 13.6314367, 0.0 ], [ 123.1833848, 13.631198, 0.0 ], [ 123.1832452, 13.6309047, 0.0 ], [ 123.1831338, 13.6306575, 0.0 ], [ 123.1830367, 13.6304648, 0.0 ], [ 123.1830593, 13.6302499, 0.0 ], [ 123.1830453, 13.6299371, 0.0 ], [ 123.1826912, 13.6300728, 0.0 ], [ 123.1826962, 13.6302484, 0.0 ], [ 123.1826634, 13.6302466, 0.0 ], [ 123.1826705, 13.630055, 0.0 ], [ 123.1830415, 13.6299129, 0.0 ], [ 123.1830431, 13.6297217, 0.0 ], [ 123.1833439, 13.6296216, 0.0 ], [ 123.1831924, 13.6287753, 0.0 ], [ 123.1855436, 13.6274736, 0.0 ], [ 123.1863342, 13.6270478, 0.0 ], [ 123.185142, 13.6254704, 0.0 ], [ 123.1844604, 13.6245944, 0.0 ], [ 123.1842316, 13.6246734, 0.0 ], [ 123.1837288, 13.6226679, 0.0 ], [ 123.1831988, 13.6206172, 0.0 ], [ 123.1829191, 13.6204927, 0.0 ], [ 123.182765, 13.6203651, 0.0 ], [ 123.1821616, 13.6193048, 0.0 ], [ 123.1815747, 13.6184575, 0.0 ] ] } },
{ "type": "Feature", "properties": { "Name": "End of Route Proceed to Dumpsite" }, "geometry": { "type": "Point", "coordinates": [ 123.1815778, 13.6184524, 0.0 ] } },
{ "type": "Feature", "properties": { "Name": "Dump - Right to P.Diaz" }, "geometry": { "type": "LineString", "coordinates": [ [ 123.2574259, 13.6212161, 0.0 ], [ 123.2569272, 13.6221108, 0.0 ], [ 123.2575587, 13.6227894, 0.0 ], [ 123.2565997, 13.6240254, 0.0 ], [ 123.2558238, 13.624988, 0.0 ], [ 123.2556486, 13.6252285, 0.0 ], [ 123.2555703, 13.6253817, 0.0 ], [ 123.2553076, 13.6263886, 0.0 ], [ 123.2551542, 13.6269754, 0.0 ], [ 123.255099, 13.6271243, 0.0 ], [ 123.2549533, 13.6273372, 0.0 ], [ 123.2548612, 13.6275515, 0.0 ], [ 123.2546503, 13.6279939, 0.0 ], [ 123.254171, 13.6289887, 0.0 ], [ 123.2526672, 13.6284559, 0.0 ], [ 123.2514431, 13.6279639, 0.0 ], [ 123.2504531, 13.6276208, 0.0 ], [ 123.2495087, 13.6275762, 0.0 ], [ 123.2485815, 13.627673, 0.0 ], [ 123.2467971, 13.6279223, 0.0 ], [ 123.2448222, 13.6281849, 0.0 ], [ 123.241788, 13.6286427, 0.0 ], [ 123.2405812, 13.6287953, 0.0 ], [ 123.2394081, 13.6289599, 0.0 ], [ 123.2381847, 13.6291431, 0.0 ], [ 123.2369086, 13.6293526, 0.0 ], [ 123.2364112, 13.6295118, 0.0 ], [ 123.2357908, 13.6298878, 0.0 ], [ 123.2348549, 13.6305678, 0.0 ], [ 123.2341918, 13.6309991, 0.0 ], [ 123.233961, 13.63109, 0.0 ], [ 123.2336512, 13.6311143, 0.0 ], [ 123.2327585, 13.6310737, 0.0 ], [ 123.2320403, 13.6311396, 0.0 ], [ 123.2311342, 13.6312911, 0.0 ], [ 123.2298954, 13.6314538, 0.0 ], [ 123.2292765, 13.6315305, 0.0 ], [ 123.2285665, 13.6316612, 0.0 ], [ 123.2275032, 13.6318235, 0.0 ], [ 123.2266084, 13.6319412, 0.0 ], [ 123.225695, 13.6320858, 0.0 ], [ 123.2244441, 13.6322704, 0.0 ], [ 123.2233288, 13.6324635, 0.0 ], [ 123.2226447, 13.6325637, 0.0 ], [ 123.2222215, 13.6326166, 0.0 ], [ 123.2218807, 13.6326699, 0.0 ], [ 123.2213012, 13.6326196, 0.0 ], [ 123.2203229, 13.6323043, 0.0 ], [ 123.219478, 13.6317138, 0.0 ], [ 123.2187566, 13.6311681, 0.0 ], [ 123.2177134, 13.6304491, 0.0 ], [ 123.2166238, 13.6299542, 0.0 ], [ 123.2156891, 13.6295808, 0.0 ], [ 123.2150331, 13.6294365, 0.0 ], [ 123.2145117, 13.6294213, 0.0 ], [ 123.2138747, 13.6293764, 0.0 ], [ 123.2132114, 13.6293513, 0.0 ], [ 123.2125907, 13.629479, 0.0 ], [ 123.2122528, 13.6295587, 0.0 ], [ 123.2113962, 13.6297586, 0.0 ], [ 123.2096109, 13.6301681, 0.0 ], [ 123.2088519, 13.630238, 0.0 ], [ 123.2085702, 13.630557, 0.0 ], [ 123.2085952, 13.6317534, 0.0 ], [ 123.20844, 13.632162, 0.0 ], [ 123.2071274, 13.6330674, 0.0 ], [ 123.2062474, 13.63359, 0.0 ], [ 123.2050843, 13.6342814, 0.0 ], [ 123.20444, 13.634331, 0.0 ], [ 123.203498, 13.6342078, 0.0 ], [ 123.202354, 13.6340775, 0.0 ], [ 123.2010531, 13.6337481, 0.0 ], [ 123.20033, 13.6335595, 0.0 ], [ 123.1994905, 13.6332726, 0.0 ], [ 123.1983554, 13.6327856, 0.0 ], [ 123.1967498, 13.6314065, 0.0 ], [ 123.1955855, 13.6324525, 0.0 ], [ 123.1946643, 13.633289, 0.0 ], [ 123.1938803, 13.6326339, 0.0 ], [ 123.192974, 13.6318321, 0.0 ], [ 123.192163, 13.6310736, 0.0 ], [ 123.191324, 13.6303459, 0.0 ], [ 123.1897343, 13.628841, 0.0 ], [ 123.1891228, 13.6283209, 0.0 ], [ 123.1885082, 13.6275349, 0.0 ], [ 123.1873734, 13.6258315, 0.0 ], [ 123.1868093, 13.6252924, 0.0 ], [ 123.1862789, 13.6247779, 0.0 ], [ 123.1859249, 13.6240949, 0.0 ], [ 123.1855928, 13.6242332, 0.0 ], [ 123.1848785, 13.6243643, 0.0 ], [ 123.1853906, 13.625288, 0.0 ], [ 123.1851575, 13.6254757, 0.0 ], [ 123.1844407, 13.6245722, 0.0 ], [ 123.1842207, 13.6246764, 0.0 ], [ 123.184632, 13.6258486, 0.0 ], [ 123.1850884, 13.6265999, 0.0 ], [ 123.1857117, 13.6261608, 0.0 ], [ 123.1863443, 13.6257125, 0.0 ], [ 123.1868228, 13.6253606, 0.0 ] ] } },
{ "type": "Feature", "properties": { "Name": "End of Route proceed to dumpsite" }, "geometry": { "type": "Point", "coordinates": [ 123.186817, 13.6253608, 0.0 ] } }
]
}
